<?xml version="1.0" encoding="UTF-8" standalone="no"?>
<gpx xmlns="http://www.topografix.com/GPX/1/1" creator="GaiaGPS" version="1.1" xmlns:xsi="http://www.w3.org/2001/XMLSchema-instance" xsi:schemaLocation="http://www.topografix.com/GPX/1/1 http://www.topografix.com/GPX/1/1/gpx.xsd">
  <metadata>
    <time>2020-06-27T15:08:09Z</time>
  </metadata>
  <wpt lat="19.001087" lon="-99.200268">
    <ele>2119.0</ele>
    <time>2020-06-27T15:33:19Z</time>
    <name>Mi foto - 27/06/20 10:33:19</name>
    <sym>red-pin-down.png</sym>
  </wpt>
  <wpt lat="19.001690" lon="-99.212941">
    <ele>2214.0</ele>
    <time>2020-06-27T15:09:07Z</time>
    <name>Mi foto - 27/06/20 10:09:7</name>
    <sym>red-pin-down.png</sym>
  </wpt>
  <trk>
    <name>Mojoneras cruce</name>
    <trkseg>
      <trkpt lat="19.001720" lon="-99.213272">
        <ele>2212.300000</ele>
        <time>2020-06-27T15:08:08Z</time>
      </trkpt>
      <trkpt lat="19.001702" lon="-99.213220">
        <ele>2211.000000</ele>
        <time>2020-06-27T15:08:16Z</time>
      </trkpt>
      <trkpt lat="19.001702" lon="-99.213154">
        <ele>2210.000000</ele>
        <time>2020-06-27T15:08:21Z</time>
      </trkpt>
      <trkpt lat="19.001681" lon="-99.213045">
        <ele>2211.000000</ele>
        <time>2020-06-27T15:08:28Z</time>
      </trkpt>
      <trkpt lat="19.001706" lon="-99.212880">
        <ele>2212.000000</ele>
        <time>2020-06-27T15:09:23Z</time>
      </trkpt>
      <trkpt lat="19.001688" lon="-99.212834">
        <ele>2210.000000</ele>
        <time>2020-06-27T15:09:32Z</time>
      </trkpt>
      <trkpt lat="19.001689" lon="-99.212674">
        <ele>2210.000000</ele>
        <time>2020-06-27T15:09:52Z</time>
      </trkpt>
      <trkpt lat="19.001659" lon="-99.212617">
        <ele>2211.000000</ele>
        <time>2020-06-27T15:09:56Z</time>
      </trkpt>
      <trkpt lat="19.001655" lon="-99.212507">
        <ele>2210.000000</ele>
        <time>2020-06-27T15:10:06Z</time>
      </trkpt>
      <trkpt lat="19.001674" lon="-99.212437">
        <ele>2210.000000</ele>
        <time>2020-06-27T15:10:13Z</time>
      </trkpt>
      <trkpt lat="19.001682" lon="-99.212356">
        <ele>2208.000000</ele>
        <time>2020-06-27T15:10:19Z</time>
      </trkpt>
      <trkpt lat="19.001673" lon="-99.212286">
        <ele>2210.000000</ele>
        <time>2020-06-27T15:10:28Z</time>
      </trkpt>
      <trkpt lat="19.001641" lon="-99.212273">
        <ele>2202.000000</ele>
        <time>2020-06-27T15:10:36Z</time>
      </trkpt>
      <trkpt lat="19.001629" lon="-99.212077">
        <ele>2211.000000</ele>
        <time>2020-06-27T15:11:00Z</time>
      </trkpt>
      <trkpt lat="19.001647" lon="-99.211932">
        <ele>2212.000000</ele>
        <time>2020-06-27T15:11:15Z</time>
      </trkpt>
      <trkpt lat="19.001627" lon="-99.211833">
        <ele>2211.000000</ele>
        <time>2020-06-27T15:11:24Z</time>
      </trkpt>
      <trkpt lat="19.001632" lon="-99.211623">
        <ele>2211.000000</ele>
        <time>2020-06-27T15:11:46Z</time>
      </trkpt>
      <trkpt lat="19.001612" lon="-99.211546">
        <ele>2208.000000</ele>
        <time>2020-06-27T15:11:53Z</time>
      </trkpt>
      <trkpt lat="19.001590" lon="-99.211345">
        <ele>2208.000000</ele>
        <time>2020-06-27T15:12:08Z</time>
      </trkpt>
      <trkpt lat="19.001597" lon="-99.211218">
        <ele>2206.000000</ele>
        <time>2020-06-27T15:12:26Z</time>
      </trkpt>
      <trkpt lat="19.001570" lon="-99.211157">
        <ele>2206.100000</ele>
        <time>2020-06-27T15:12:31Z</time>
      </trkpt>
      <trkpt lat="19.001563" lon="-99.211023">
        <ele>2200.000000</ele>
        <time>2020-06-27T15:12:44Z</time>
      </trkpt>
      <trkpt lat="19.001542" lon="-99.210978">
        <ele>2202.000000</ele>
        <time>2020-06-27T15:12:52Z</time>
      </trkpt>
      <trkpt lat="19.001550" lon="-99.210863">
        <ele>2202.000000</ele>
        <time>2020-06-27T15:13:02Z</time>
      </trkpt>
      <trkpt lat="19.001574" lon="-99.210797">
        <ele>2202.000000</ele>
        <time>2020-06-27T15:13:07Z</time>
      </trkpt>
      <trkpt lat="19.001587" lon="-99.210686">
        <ele>2200.000000</ele>
        <time>2020-06-27T15:13:16Z</time>
      </trkpt>
      <trkpt lat="19.001582" lon="-99.210605">
        <ele>2201.200000</ele>
        <time>2020-06-27T15:13:21Z</time>
      </trkpt>
      <trkpt lat="19.001597" lon="-99.210549">
        <ele>2199.000000</ele>
        <time>2020-06-27T15:13:25Z</time>
      </trkpt>
      <trkpt lat="19.001595" lon="-99.210510">
        <ele>2200.000000</ele>
        <time>2020-06-27T15:13:29Z</time>
      </trkpt>
      <trkpt lat="19.001553" lon="-99.210401">
        <ele>2196.000000</ele>
        <time>2020-06-27T15:13:41Z</time>
      </trkpt>
      <trkpt lat="19.001541" lon="-99.210125">
        <ele>2196.000000</ele>
        <time>2020-06-27T15:14:06Z</time>
      </trkpt>
      <trkpt lat="19.001560" lon="-99.210043">
        <ele>2196.000000</ele>
        <time>2020-06-27T15:14:13Z</time>
      </trkpt>
      <trkpt lat="19.001533" lon="-99.209934">
        <ele>2193.000000</ele>
        <time>2020-06-27T15:14:20Z</time>
      </trkpt>
      <trkpt lat="19.001545" lon="-99.209879">
        <ele>2190.000000</ele>
        <time>2020-06-27T15:14:30Z</time>
      </trkpt>
      <trkpt lat="19.001513" lon="-99.209740">
        <ele>2188.000000</ele>
        <time>2020-06-27T15:14:44Z</time>
      </trkpt>
      <trkpt lat="19.001519" lon="-99.209499">
        <ele>2189.000000</ele>
        <time>2020-06-27T15:15:01Z</time>
      </trkpt>
      <trkpt lat="19.001506" lon="-99.209446">
        <ele>2188.000000</ele>
        <time>2020-06-27T15:15:07Z</time>
      </trkpt>
      <trkpt lat="19.001510" lon="-99.209373">
        <ele>2184.000000</ele>
        <time>2020-06-27T15:15:15Z</time>
      </trkpt>
      <trkpt lat="19.001499" lon="-99.209343">
        <ele>2184.000000</ele>
        <time>2020-06-27T15:15:20Z</time>
      </trkpt>
      <trkpt lat="19.001511" lon="-99.209309">
        <ele>2184.000000</ele>
        <time>2020-06-27T15:15:23Z</time>
      </trkpt>
      <trkpt lat="19.001510" lon="-99.209265">
        <ele>2178.000000</ele>
        <time>2020-06-27T15:15:30Z</time>
      </trkpt>
      <trkpt lat="19.001492" lon="-99.209232">
        <ele>2185.500000</ele>
        <time>2020-06-27T15:15:43Z</time>
      </trkpt>
      <trkpt lat="19.001444" lon="-99.209197">
        <ele>2184.000000</ele>
        <time>2020-06-27T15:15:45Z</time>
      </trkpt>
      <trkpt lat="19.001473" lon="-99.209047">
        <ele>2184.000000</ele>
        <time>2020-06-27T15:16:01Z</time>
      </trkpt>
      <trkpt lat="19.001467" lon="-99.208935">
        <ele>2183.000000</ele>
        <time>2020-06-27T15:16:11Z</time>
      </trkpt>
      <trkpt lat="19.001484" lon="-99.208873">
        <ele>2180.000000</ele>
        <time>2020-06-27T15:16:18Z</time>
      </trkpt>
      <trkpt lat="19.001476" lon="-99.208812">
        <ele>2180.000000</ele>
        <time>2020-06-27T15:16:26Z</time>
      </trkpt>
      <trkpt lat="19.001486" lon="-99.208756">
        <ele>2180.000000</ele>
        <time>2020-06-27T15:16:36Z</time>
      </trkpt>
      <trkpt lat="19.001465" lon="-99.208720">
        <ele>2178.000000</ele>
        <time>2020-06-27T15:16:47Z</time>
      </trkpt>
      <trkpt lat="19.001438" lon="-99.208574">
        <ele>2176.000000</ele>
        <time>2020-06-27T15:17:02Z</time>
      </trkpt>
      <trkpt lat="19.001448" lon="-99.208507">
        <ele>2178.000000</ele>
        <time>2020-06-27T15:17:08Z</time>
      </trkpt>
      <trkpt lat="19.001438" lon="-99.208391">
        <ele>2176.000000</ele>
        <time>2020-06-27T15:17:17Z</time>
      </trkpt>
      <trkpt lat="19.001464" lon="-99.208274">
        <ele>2175.000000</ele>
        <time>2020-06-27T15:17:43Z</time>
      </trkpt>
      <trkpt lat="19.001450" lon="-99.208164">
        <ele>2172.000000</ele>
        <time>2020-06-27T15:18:13Z</time>
      </trkpt>
      <trkpt lat="19.001487" lon="-99.208011">
        <ele>2172.000000</ele>
        <time>2020-06-27T15:18:56Z</time>
      </trkpt>
      <trkpt lat="19.001530" lon="-99.207919">
        <ele>2172.000000</ele>
        <time>2020-06-27T15:19:03Z</time>
      </trkpt>
      <trkpt lat="19.001512" lon="-99.207876">
        <ele>2169.000000</ele>
        <time>2020-06-27T15:19:11Z</time>
      </trkpt>
      <trkpt lat="19.001508" lon="-99.207805">
        <ele>2168.000000</ele>
        <time>2020-06-27T15:19:22Z</time>
      </trkpt>
      <trkpt lat="19.001478" lon="-99.207795">
        <ele>2165.000000</ele>
        <time>2020-06-27T15:19:26Z</time>
      </trkpt>
      <trkpt lat="19.001447" lon="-99.207752">
        <ele>2164.000000</ele>
        <time>2020-06-27T15:19:37Z</time>
      </trkpt>
      <trkpt lat="19.001469" lon="-99.207709">
        <ele>2169.000000</ele>
        <time>2020-06-27T15:19:48Z</time>
      </trkpt>
      <trkpt lat="19.001483" lon="-99.207648">
        <ele>2170.000000</ele>
        <time>2020-06-27T15:19:53Z</time>
      </trkpt>
      <trkpt lat="19.001492" lon="-99.207460">
        <ele>2169.000000</ele>
        <time>2020-06-27T15:20:08Z</time>
      </trkpt>
      <trkpt lat="19.001390" lon="-99.207322">
        <ele>2168.000000</ele>
        <time>2020-06-27T15:20:43Z</time>
      </trkpt>
      <trkpt lat="19.001374" lon="-99.207286">
        <ele>2168.000000</ele>
        <time>2020-06-27T15:20:47Z</time>
      </trkpt>
      <trkpt lat="19.001337" lon="-99.207282">
        <ele>2158.000000</ele>
        <time>2020-06-27T15:21:28Z</time>
      </trkpt>
      <trkpt lat="19.001353" lon="-99.207188">
        <ele>2164.000000</ele>
        <time>2020-06-27T15:21:41Z</time>
      </trkpt>
      <trkpt lat="19.001366" lon="-99.206872">
        <ele>2165.000000</ele>
        <time>2020-06-27T15:22:12Z</time>
      </trkpt>
      <trkpt lat="19.001338" lon="-99.206769">
        <ele>2163.000000</ele>
        <time>2020-06-27T15:22:25Z</time>
      </trkpt>
      <trkpt lat="19.001372" lon="-99.206620">
        <ele>2164.000000</ele>
        <time>2020-06-27T15:22:37Z</time>
      </trkpt>
      <trkpt lat="19.001385" lon="-99.206521">
        <ele>2163.000000</ele>
        <time>2020-06-27T15:22:45Z</time>
      </trkpt>
      <trkpt lat="19.001381" lon="-99.206388">
        <ele>2158.000000</ele>
        <time>2020-06-27T15:22:59Z</time>
      </trkpt>
      <trkpt lat="19.001355" lon="-99.206283">
        <ele>2160.000000</ele>
        <time>2020-06-27T15:23:10Z</time>
      </trkpt>
      <trkpt lat="19.001349" lon="-99.206165">
        <ele>2160.000000</ele>
        <time>2020-06-27T15:23:18Z</time>
      </trkpt>
      <trkpt lat="19.001358" lon="-99.206082">
        <ele>2160.000000</ele>
        <time>2020-06-27T15:23:27Z</time>
      </trkpt>
      <trkpt lat="19.001348" lon="-99.205986">
        <ele>2156.000000</ele>
        <time>2020-06-27T15:23:54Z</time>
      </trkpt>
      <trkpt lat="19.001324" lon="-99.205926">
        <ele>2154.000000</ele>
        <time>2020-06-27T15:24:00Z</time>
      </trkpt>
      <trkpt lat="19.001311" lon="-99.205854">
        <ele>2153.000000</ele>
        <time>2020-06-27T15:24:08Z</time>
      </trkpt>
      <trkpt lat="19.001332" lon="-99.205787">
        <ele>2154.000000</ele>
        <time>2020-06-27T15:24:15Z</time>
      </trkpt>
      <trkpt lat="19.001315" lon="-99.205516">
        <ele>2151.000000</ele>
        <time>2020-06-27T15:24:36Z</time>
      </trkpt>
      <trkpt lat="19.001363" lon="-99.205379">
        <ele>2150.000000</ele>
        <time>2020-06-27T15:24:49Z</time>
      </trkpt>
      <trkpt lat="19.001357" lon="-99.205342">
        <ele>2152.000000</ele>
        <time>2020-06-27T15:24:53Z</time>
      </trkpt>
      <trkpt lat="19.001310" lon="-99.205226">
        <ele>2152.000000</ele>
        <time>2020-06-27T15:25:02Z</time>
      </trkpt>
      <trkpt lat="19.001330" lon="-99.205113">
        <ele>2152.000000</ele>
        <time>2020-06-27T15:25:13Z</time>
      </trkpt>
      <trkpt lat="19.001314" lon="-99.205045">
        <ele>2154.000000</ele>
        <time>2020-06-27T15:25:21Z</time>
      </trkpt>
      <trkpt lat="19.001329" lon="-99.204907">
        <ele>2154.000000</ele>
        <time>2020-06-27T15:25:33Z</time>
      </trkpt>
      <trkpt lat="19.001306" lon="-99.204676">
        <ele>2156.000000</ele>
        <time>2020-06-27T15:25:51Z</time>
      </trkpt>
      <trkpt lat="19.001320" lon="-99.204495">
        <ele>2153.000000</ele>
        <time>2020-06-27T15:26:05Z</time>
      </trkpt>
      <trkpt lat="19.001289" lon="-99.204239">
        <ele>2155.000000</ele>
        <time>2020-06-27T15:26:26Z</time>
      </trkpt>
      <trkpt lat="19.001287" lon="-99.204103">
        <ele>2155.000000</ele>
        <time>2020-06-27T15:26:35Z</time>
      </trkpt>
      <trkpt lat="19.001259" lon="-99.203861">
        <ele>2148.000000</ele>
        <time>2020-06-27T15:27:28Z</time>
      </trkpt>
      <trkpt lat="19.001230" lon="-99.203761">
        <ele>2152.000000</ele>
        <time>2020-06-27T15:27:37Z</time>
      </trkpt>
      <trkpt lat="19.001220" lon="-99.203647">
        <ele>2151.000000</ele>
        <time>2020-06-27T15:27:48Z</time>
      </trkpt>
      <trkpt lat="19.001238" lon="-99.203548">
        <ele>2150.000000</ele>
        <time>2020-06-27T15:28:00Z</time>
      </trkpt>
      <trkpt lat="19.001227" lon="-99.203478">
        <ele>2148.000000</ele>
        <time>2020-06-27T15:28:09Z</time>
      </trkpt>
      <trkpt lat="19.001242" lon="-99.203400">
        <ele>2148.000000</ele>
        <time>2020-06-27T15:28:15Z</time>
      </trkpt>
      <trkpt lat="19.001236" lon="-99.203362">
        <ele>2148.000000</ele>
        <time>2020-06-27T15:28:17Z</time>
      </trkpt>
      <trkpt lat="19.001191" lon="-99.203249">
        <ele>2148.000000</ele>
        <time>2020-06-27T15:28:23Z</time>
      </trkpt>
      <trkpt lat="19.001164" lon="-99.203015">
        <ele>2145.000000</ele>
        <time>2020-06-27T15:28:38Z</time>
      </trkpt>
      <trkpt lat="19.001175" lon="-99.202730">
        <ele>2145.000000</ele>
        <time>2020-06-27T15:29:18Z</time>
      </trkpt>
      <trkpt lat="19.001163" lon="-99.202587">
        <ele>2144.000000</ele>
        <time>2020-06-27T15:29:35Z</time>
      </trkpt>
      <trkpt lat="19.001149" lon="-99.202520">
        <ele>2142.000000</ele>
        <time>2020-06-27T15:29:41Z</time>
      </trkpt>
      <trkpt lat="19.001119" lon="-99.202454">
        <ele>2142.000000</ele>
        <time>2020-06-27T15:29:46Z</time>
      </trkpt>
      <trkpt lat="19.001132" lon="-99.202374">
        <ele>2142.000000</ele>
        <time>2020-06-27T15:29:52Z</time>
      </trkpt>
      <trkpt lat="19.001106" lon="-99.202211">
        <ele>2139.000000</ele>
        <time>2020-06-27T15:30:07Z</time>
      </trkpt>
      <trkpt lat="19.001132" lon="-99.202173">
        <ele>2136.000000</ele>
        <time>2020-06-27T15:30:13Z</time>
      </trkpt>
      <trkpt lat="19.001147" lon="-99.202095">
        <ele>2136.000000</ele>
        <time>2020-06-27T15:30:20Z</time>
      </trkpt>
      <trkpt lat="19.001122" lon="-99.201888">
        <ele>2133.000000</ele>
        <time>2020-06-27T15:30:34Z</time>
      </trkpt>
      <trkpt lat="19.001125" lon="-99.201777">
        <ele>2133.000000</ele>
        <time>2020-06-27T15:30:43Z</time>
      </trkpt>
      <trkpt lat="19.001097" lon="-99.201706">
        <ele>2130.000000</ele>
        <time>2020-06-27T15:30:49Z</time>
      </trkpt>
      <trkpt lat="19.001093" lon="-99.201668">
        <ele>2130.000000</ele>
        <time>2020-06-27T15:30:52Z</time>
      </trkpt>
      <trkpt lat="19.001129" lon="-99.201553">
        <ele>2130.300000</ele>
        <time>2020-06-27T15:31:02Z</time>
      </trkpt>
      <trkpt lat="19.001132" lon="-99.201450">
        <ele>2128.000000</ele>
        <time>2020-06-27T15:31:11Z</time>
      </trkpt>
      <trkpt lat="19.001150" lon="-99.201381">
        <ele>2127.000000</ele>
        <time>2020-06-27T15:31:17Z</time>
      </trkpt>
      <trkpt lat="19.001121" lon="-99.201319">
        <ele>2128.000000</ele>
        <time>2020-06-27T15:31:24Z</time>
      </trkpt>
      <trkpt lat="19.001143" lon="-99.201186">
        <ele>2124.000000</ele>
        <time>2020-06-27T15:31:41Z</time>
      </trkpt>
      <trkpt lat="19.001096" lon="-99.201157">
        <ele>2122.000000</ele>
        <time>2020-06-27T15:31:47Z</time>
      </trkpt>
      <trkpt lat="19.001052" lon="-99.201075">
        <ele>2121.000000</ele>
        <time>2020-06-27T15:31:57Z</time>
      </trkpt>
      <trkpt lat="19.001061" lon="-99.201008">
        <ele>2121.000000</ele>
        <time>2020-06-27T15:32:03Z</time>
      </trkpt>
      <trkpt lat="19.001076" lon="-99.200982">
        <ele>2121.000000</ele>
        <time>2020-06-27T15:32:06Z</time>
      </trkpt>
      <trkpt lat="19.001114" lon="-99.200816">
        <ele>2124.000000</ele>
        <time>2020-06-27T15:32:20Z</time>
      </trkpt>
      <trkpt lat="19.001120" lon="-99.200640">
        <ele>2122.000000</ele>
        <time>2020-06-27T15:32:37Z</time>
      </trkpt>
      <trkpt lat="19.001145" lon="-99.200536">
        <ele>2121.000000</ele>
        <time>2020-06-27T15:32:46Z</time>
      </trkpt>
      <trkpt lat="19.001111" lon="-99.200467">
        <ele>2118.000000</ele>
        <time>2020-06-27T15:32:54Z</time>
      </trkpt>
      <trkpt lat="19.001091" lon="-99.200334">
        <ele>2118.000000</ele>
        <time>2020-06-27T15:33:04Z</time>
      </trkpt>
      <trkpt lat="19.001088" lon="-99.200209">
        <ele>2118.000000</ele>
        <time>2020-06-27T15:33:22Z</time>
      </trkpt>
      <trkpt lat="19.001111" lon="-99.200057">
        <ele>2118.000000</ele>
        <time>2020-06-27T15:33:34Z</time>
      </trkpt>
      <trkpt lat="19.001079" lon="-99.199949">
        <ele>2118.000000</ele>
        <time>2020-06-27T15:33:43Z</time>
      </trkpt>
      <trkpt lat="19.001072" lon="-99.199799">
        <ele>2118.000000</ele>
        <time>2020-06-27T15:33:55Z</time>
      </trkpt>
      <trkpt lat="19.001033" lon="-99.199728">
        <ele>2115.000000</ele>
        <time>2020-06-27T15:34:01Z</time>
      </trkpt>
      <trkpt lat="19.001024" lon="-99.199690">
        <ele>2116.000000</ele>
        <time>2020-06-27T15:34:04Z</time>
      </trkpt>
      <trkpt lat="19.001056" lon="-99.199409">
        <ele>2110.000000</ele>
        <time>2020-06-27T15:34:43Z</time>
      </trkpt>
      <trkpt lat="19.001071" lon="-99.199361">
        <ele>2109.000000</ele>
        <time>2020-06-27T15:35:08Z</time>
      </trkpt>
      <trkpt lat="19.001034" lon="-99.199286">
        <ele>2107.000000</ele>
        <time>2020-06-27T15:35:20Z</time>
      </trkpt>
      <trkpt lat="19.000990" lon="-99.199256">
        <ele>2108.000000</ele>
        <time>2020-06-27T15:35:30Z</time>
      </trkpt>
      <trkpt lat="19.000955" lon="-99.199155">
        <ele>2107.000000</ele>
        <time>2020-06-27T15:35:59Z</time>
      </trkpt>
      <trkpt lat="19.000927" lon="-99.199199">
        <ele>2104.000000</ele>
        <time>2020-06-27T15:36:14Z</time>
      </trkpt>
      <trkpt lat="19.000897" lon="-99.199188">
        <ele>2105.000000</ele>
        <time>2020-06-27T15:36:18Z</time>
      </trkpt>
      <trkpt lat="19.000867" lon="-99.199208">
        <ele>2100.000000</ele>
        <time>2020-06-27T15:36:26Z</time>
      </trkpt>
      <trkpt lat="19.000841" lon="-99.199172">
        <ele>2106.000000</ele>
        <time>2020-06-27T15:36:44Z</time>
      </trkpt>
      <trkpt lat="19.000810" lon="-99.199158">
        <ele>2106.000000</ele>
        <time>2020-06-27T15:36:51Z</time>
      </trkpt>
      <trkpt lat="19.000799" lon="-99.199141">
        <ele>2105.000000</ele>
        <time>2020-06-27T15:36:59Z</time>
      </trkpt>
      <trkpt lat="19.000745" lon="-99.199136">
        <ele>2102.000000</ele>
        <time>2020-06-27T15:37:09Z</time>
      </trkpt>
      <trkpt lat="19.000707" lon="-99.199101">
        <ele>2104.000000</ele>
        <time>2020-06-27T15:37:17Z</time>
      </trkpt>
      <trkpt lat="19.000647" lon="-99.199084">
        <ele>2104.000000</ele>
        <time>2020-06-27T15:37:34Z</time>
      </trkpt>
      <trkpt lat="19.000594" lon="-99.199156">
        <ele>2096.000000</ele>
        <time>2020-06-27T15:38:18Z</time>
      </trkpt>
      <trkpt lat="19.000587" lon="-99.199213">
        <ele>2100.000000</ele>
        <time>2020-06-27T15:44:27Z</time>
      </trkpt>
      <trkpt lat="19.000502" lon="-99.199191">
        <ele>2099.000000</ele>
        <time>2020-06-27T15:45:11Z</time>
      </trkpt>
      <trkpt lat="19.000444" lon="-99.199239">
        <ele>2100.000000</ele>
        <time>2020-06-27T15:45:23Z</time>
      </trkpt>
      <trkpt lat="19.000391" lon="-99.199266">
        <ele>2098.000000</ele>
        <time>2020-06-27T15:45:31Z</time>
      </trkpt>
      <trkpt lat="19.000334" lon="-99.199233">
        <ele>2095.000000</ele>
        <time>2020-06-27T15:45:47Z</time>
      </trkpt>
      <trkpt lat="19.000269" lon="-99.199241">
        <ele>2096.000000</ele>
        <time>2020-06-27T15:45:54Z</time>
      </trkpt>
      <trkpt lat="19.000214" lon="-99.199270">
        <ele>2096.000000</ele>
        <time>2020-06-27T15:46:03Z</time>
      </trkpt>
      <trkpt lat="19.000144" lon="-99.199331">
        <ele>2093.000000</ele>
        <time>2020-06-27T15:46:16Z</time>
      </trkpt>
      <trkpt lat="19.000122" lon="-99.199306">
        <ele>2090.000000</ele>
        <time>2020-06-27T15:46:22Z</time>
      </trkpt>
      <trkpt lat="19.000118" lon="-99.199274">
        <ele>2093.000000</ele>
        <time>2020-06-27T15:46:28Z</time>
      </trkpt>
      <trkpt lat="19.000063" lon="-99.199245">
        <ele>2091.000000</ele>
        <time>2020-06-27T15:46:40Z</time>
      </trkpt>
      <trkpt lat="19.000038" lon="-99.199192">
        <ele>2092.000000</ele>
        <time>2020-06-27T15:46:44Z</time>
      </trkpt>
      <trkpt lat="18.999981" lon="-99.199208">
        <ele>2091.000000</ele>
        <time>2020-06-27T15:46:52Z</time>
      </trkpt>
      <trkpt lat="18.999954" lon="-99.199194">
        <ele>2088.000000</ele>
        <time>2020-06-27T15:46:56Z</time>
      </trkpt>
      <trkpt lat="18.999927" lon="-99.199163">
        <ele>2088.000000</ele>
        <time>2020-06-27T15:47:01Z</time>
      </trkpt>
      <trkpt lat="18.999870" lon="-99.199143">
        <ele>2088.000000</ele>
        <time>2020-06-27T15:47:11Z</time>
      </trkpt>
      <trkpt lat="18.999786" lon="-99.199055">
        <ele>2086.000000</ele>
        <time>2020-06-27T15:47:34Z</time>
      </trkpt>
      <trkpt lat="18.999718" lon="-99.199071">
        <ele>2085.000000</ele>
        <time>2020-06-27T15:47:47Z</time>
      </trkpt>
      <trkpt lat="18.999520" lon="-99.198932">
        <ele>2082.000000</ele>
        <time>2020-06-27T15:48:10Z</time>
      </trkpt>
      <trkpt lat="18.999459" lon="-99.198938">
        <ele>2081.000000</ele>
        <time>2020-06-27T15:48:15Z</time>
      </trkpt>
      <trkpt lat="18.999426" lon="-99.198955">
        <ele>2079.000000</ele>
        <time>2020-06-27T15:48:18Z</time>
      </trkpt>
      <trkpt lat="18.999391" lon="-99.198931">
        <ele>2079.000000</ele>
        <time>2020-06-27T15:48:34Z</time>
      </trkpt>
      <trkpt lat="18.999311" lon="-99.198948">
        <ele>2080.000000</ele>
        <time>2020-06-27T15:49:14Z</time>
      </trkpt>
      <trkpt lat="18.999266" lon="-99.199030">
        <ele>2080.000000</ele>
        <time>2020-06-27T15:49:27Z</time>
      </trkpt>
      <trkpt lat="18.999203" lon="-99.199040">
        <ele>2076.000000</ele>
        <time>2020-06-27T15:49:36Z</time>
      </trkpt>
      <trkpt lat="18.999180" lon="-99.199105">
        <ele>2076.000000</ele>
        <time>2020-06-27T15:49:45Z</time>
      </trkpt>
      <trkpt lat="18.999143" lon="-99.199154">
        <ele>2076.000000</ele>
        <time>2020-06-27T15:49:53Z</time>
      </trkpt>
      <trkpt lat="18.999114" lon="-99.199220">
        <ele>2076.000000</ele>
        <time>2020-06-27T15:49:59Z</time>
      </trkpt>
      <trkpt lat="18.999066" lon="-99.199247">
        <ele>2076.000000</ele>
        <time>2020-06-27T15:50:04Z</time>
      </trkpt>
      <trkpt lat="18.998989" lon="-99.199215">
        <ele>2075.000000</ele>
        <time>2020-06-27T15:50:16Z</time>
      </trkpt>
      <trkpt lat="18.998885" lon="-99.199233">
        <ele>2075.000000</ele>
        <time>2020-06-27T15:50:30Z</time>
      </trkpt>
      <trkpt lat="18.998853" lon="-99.199247">
        <ele>2076.000000</ele>
        <time>2020-06-27T15:50:34Z</time>
      </trkpt>
      <trkpt lat="18.998768" lon="-99.199342">
        <ele>2076.000000</ele>
        <time>2020-06-27T15:50:45Z</time>
      </trkpt>
      <trkpt lat="18.998713" lon="-99.199444">
        <ele>2076.000000</ele>
        <time>2020-06-27T15:50:52Z</time>
      </trkpt>
      <trkpt lat="18.998682" lon="-99.199447">
        <ele>2076.000000</ele>
        <time>2020-06-27T15:50:54Z</time>
      </trkpt>
      <trkpt lat="18.998656" lon="-99.199472">
        <ele>2076.400000</ele>
        <time>2020-06-27T15:51:00Z</time>
      </trkpt>
      <trkpt lat="18.998648" lon="-99.199532">
        <ele>2076.000000</ele>
        <time>2020-06-27T15:51:06Z</time>
      </trkpt>
      <trkpt lat="18.998600" lon="-99.199573">
        <ele>2072.000000</ele>
        <time>2020-06-27T15:51:19Z</time>
      </trkpt>
      <trkpt lat="18.998542" lon="-99.199593">
        <ele>2070.000000</ele>
        <time>2020-06-27T15:51:35Z</time>
      </trkpt>
      <trkpt lat="18.998492" lon="-99.199718">
        <ele>2073.000000</ele>
        <time>2020-06-27T15:51:53Z</time>
      </trkpt>
      <trkpt lat="18.998437" lon="-99.199822">
        <ele>2072.000000</ele>
        <time>2020-06-27T15:52:04Z</time>
      </trkpt>
      <trkpt lat="18.998384" lon="-99.199884">
        <ele>2070.000000</ele>
        <time>2020-06-27T15:52:20Z</time>
      </trkpt>
      <trkpt lat="18.998337" lon="-99.199920">
        <ele>2074.000000</ele>
        <time>2020-06-27T15:52:34Z</time>
      </trkpt>
      <trkpt lat="18.998233" lon="-99.200088">
        <ele>2072.000000</ele>
        <time>2020-06-27T15:53:12Z</time>
      </trkpt>
      <trkpt lat="18.998188" lon="-99.200090">
        <ele>2072.000000</ele>
        <time>2020-06-27T15:53:18Z</time>
      </trkpt>
      <trkpt lat="18.998122" lon="-99.200070">
        <ele>2072.000000</ele>
        <time>2020-06-27T15:53:24Z</time>
      </trkpt>
      <trkpt lat="18.997985" lon="-99.200131">
        <ele>2068.000000</ele>
        <time>2020-06-27T15:53:48Z</time>
      </trkpt>
      <trkpt lat="18.997919" lon="-99.200116">
        <ele>2070.000000</ele>
        <time>2020-06-27T15:53:55Z</time>
      </trkpt>
      <trkpt lat="18.997857" lon="-99.200115">
        <ele>2068.000000</ele>
        <time>2020-06-27T15:54:04Z</time>
      </trkpt>
      <trkpt lat="18.997827" lon="-99.200093">
        <ele>2070.000000</ele>
        <time>2020-06-27T15:54:07Z</time>
      </trkpt>
      <trkpt lat="18.997774" lon="-99.200089">
        <ele>2069.000000</ele>
        <time>2020-06-27T15:54:14Z</time>
      </trkpt>
      <trkpt lat="18.997738" lon="-99.200050">
        <ele>2069.400000</ele>
        <time>2020-06-27T15:54:24Z</time>
      </trkpt>
      <trkpt lat="18.997755" lon="-99.200094">
        <ele>2065.000000</ele>
        <time>2020-06-27T15:54:31Z</time>
      </trkpt>
      <trkpt lat="18.997705" lon="-99.200074">
        <ele>2067.000000</ele>
        <time>2020-06-27T15:54:41Z</time>
      </trkpt>
      <trkpt lat="18.997694" lon="-99.200114">
        <ele>2064.000000</ele>
        <time>2020-06-27T15:54:54Z</time>
      </trkpt>
      <trkpt lat="18.997653" lon="-99.200147">
        <ele>2068.000000</ele>
        <time>2020-06-27T15:55:02Z</time>
      </trkpt>
      <trkpt lat="18.997625" lon="-99.200143">
        <ele>2068.000000</ele>
        <time>2020-06-27T15:55:04Z</time>
      </trkpt>
      <trkpt lat="18.997529" lon="-99.200099">
        <ele>2067.000000</ele>
        <time>2020-06-27T15:55:16Z</time>
      </trkpt>
      <trkpt lat="18.997490" lon="-99.200095">
        <ele>2064.000000</ele>
        <time>2020-06-27T15:55:21Z</time>
      </trkpt>
      <trkpt lat="18.997495" lon="-99.199974">
        <ele>2065.000000</ele>
        <time>2020-06-27T15:55:35Z</time>
      </trkpt>
      <trkpt lat="18.997460" lon="-99.199971">
        <ele>2064.000000</ele>
        <time>2020-06-27T15:55:39Z</time>
      </trkpt>
      <trkpt lat="18.997429" lon="-99.200000">
        <ele>2064.000000</ele>
        <time>2020-06-27T15:55:42Z</time>
      </trkpt>
      <trkpt lat="18.997399" lon="-99.200007">
        <ele>2064.000000</ele>
        <time>2020-06-27T15:55:45Z</time>
      </trkpt>
      <trkpt lat="18.997341" lon="-99.199941">
        <ele>2064.000000</ele>
        <time>2020-06-27T15:56:04Z</time>
      </trkpt>
      <trkpt lat="18.997350" lon="-99.199869">
        <ele>2062.000000</ele>
        <time>2020-06-27T15:56:20Z</time>
      </trkpt>
      <trkpt lat="18.997324" lon="-99.199802">
        <ele>2064.000000</ele>
        <time>2020-06-27T15:56:28Z</time>
      </trkpt>
      <trkpt lat="18.997323" lon="-99.199741">
        <ele>2064.000000</ele>
        <time>2020-06-27T15:56:35Z</time>
      </trkpt>
      <trkpt lat="18.997292" lon="-99.199724">
        <ele>2064.000000</ele>
        <time>2020-06-27T15:56:38Z</time>
      </trkpt>
      <trkpt lat="18.997185" lon="-99.199726">
        <ele>2060.000000</ele>
        <time>2020-06-27T15:56:48Z</time>
      </trkpt>
      <trkpt lat="18.997081" lon="-99.199682">
        <ele>2061.000000</ele>
        <time>2020-06-27T15:56:59Z</time>
      </trkpt>
      <trkpt lat="18.997053" lon="-99.199644">
        <ele>2060.000000</ele>
        <time>2020-06-27T15:57:04Z</time>
      </trkpt>
      <trkpt lat="18.996999" lon="-99.199677">
        <ele>2048.000000</ele>
        <time>2020-06-27T15:57:16Z</time>
      </trkpt>
      <trkpt lat="18.996973" lon="-99.199614">
        <ele>2058.000000</ele>
        <time>2020-06-27T15:57:31Z</time>
      </trkpt>
      <trkpt lat="18.996957" lon="-99.199541">
        <ele>2055.000000</ele>
        <time>2020-06-27T15:57:39Z</time>
      </trkpt>
      <trkpt lat="18.996934" lon="-99.199516">
        <ele>2055.000000</ele>
        <time>2020-06-27T15:57:42Z</time>
      </trkpt>
      <trkpt lat="18.996902" lon="-99.199500">
        <ele>2052.000000</ele>
        <time>2020-06-27T15:57:45Z</time>
      </trkpt>
      <trkpt lat="18.996876" lon="-99.199451">
        <ele>2052.000000</ele>
        <time>2020-06-27T15:57:50Z</time>
      </trkpt>
      <trkpt lat="18.996889" lon="-99.199382">
        <ele>2052.000000</ele>
        <time>2020-06-27T15:57:55Z</time>
      </trkpt>
      <trkpt lat="18.996882" lon="-99.199337">
        <ele>2049.000000</ele>
        <time>2020-06-27T15:57:59Z</time>
      </trkpt>
      <trkpt lat="18.996747" lon="-99.199253">
        <ele>2046.000000</ele>
        <time>2020-06-27T15:58:16Z</time>
      </trkpt>
      <trkpt lat="18.996656" lon="-99.199247">
        <ele>2044.000000</ele>
        <time>2020-06-27T15:58:27Z</time>
      </trkpt>
      <trkpt lat="18.996587" lon="-99.199174">
        <ele>2044.000000</ele>
        <time>2020-06-27T15:58:34Z</time>
      </trkpt>
      <trkpt lat="18.996559" lon="-99.199191">
        <ele>2042.000000</ele>
        <time>2020-06-27T15:58:53Z</time>
      </trkpt>
      <trkpt lat="18.996549" lon="-99.199236">
        <ele>2044.000000</ele>
        <time>2020-06-27T15:59:21Z</time>
      </trkpt>
    </trkseg>
  </trk>
</gpx>
