<?xml version="1.0" encoding="UTF-8" standalone="no"?>
<gpx xmlns="http://www.topografix.com/GPX/1/1" creator="GaiaGPS" version="1.1" xmlns:xsi="http://www.w3.org/2001/XMLSchema-instance" xsi:schemaLocation="http://www.topografix.com/GPX/1/1 http://www.topografix.com/GPX/1/1/gpx.xsd">
  <metadata>
    <time>2020-03-29T15:18:51Z</time>
  </metadata>
  <wpt lat="19.003446" lon="-99.199757">
    <ele>2148.0</ele>
    <time>2020-03-29T15:40:08Z</time>
    <name>Mi foto - 29/03/20 9:40:8</name>
    <sym>red-pin-down.png</sym>
  </wpt>
  <wpt lat="19.001012" lon="-99.199090">
    <ele>2098.0</ele>
    <time>2020-03-29T15:33:21Z</time>
    <name>Mi foto - 29/03/20 9:33:21</name>
    <sym>red-pin-down.png</sym>
  </wpt>
  <trk>
    <name>Pista (29/03/20 9:18:51)</name>
    <trkseg>
      <trkpt lat="18.998090" lon="-99.198057">
        <ele>2047.000000</ele>
        <time>2020-03-29T15:18:52Z</time>
      </trkpt>
      <trkpt lat="18.998115" lon="-99.198031">
        <ele>2050.500000</ele>
        <time>2020-03-29T15:19:06Z</time>
      </trkpt>
      <trkpt lat="18.998145" lon="-99.198044">
        <ele>2050.000000</ele>
        <time>2020-03-29T15:19:10Z</time>
      </trkpt>
      <trkpt lat="18.998190" lon="-99.197988">
        <ele>2046.000000</ele>
        <time>2020-03-29T15:19:20Z</time>
      </trkpt>
      <trkpt lat="18.998209" lon="-99.197948">
        <ele>2050.000000</ele>
        <time>2020-03-29T15:19:28Z</time>
      </trkpt>
      <trkpt lat="18.998234" lon="-99.197982">
        <ele>2048.000000</ele>
        <time>2020-03-29T15:19:35Z</time>
      </trkpt>
      <trkpt lat="18.998225" lon="-99.198020">
        <ele>2048.000000</ele>
        <time>2020-03-29T15:19:39Z</time>
      </trkpt>
      <trkpt lat="18.998238" lon="-99.198054">
        <ele>2046.000000</ele>
        <time>2020-03-29T15:19:44Z</time>
      </trkpt>
      <trkpt lat="18.998376" lon="-99.198102">
        <ele>2052.000000</ele>
        <time>2020-03-29T15:20:03Z</time>
      </trkpt>
      <trkpt lat="18.998429" lon="-99.198145">
        <ele>2048.000000</ele>
        <time>2020-03-29T15:20:12Z</time>
      </trkpt>
      <trkpt lat="18.998459" lon="-99.198153">
        <ele>2052.000000</ele>
        <time>2020-03-29T15:20:18Z</time>
      </trkpt>
      <trkpt lat="18.998472" lon="-99.198181">
        <ele>2050.000000</ele>
        <time>2020-03-29T15:20:22Z</time>
      </trkpt>
      <trkpt lat="18.998520" lon="-99.198213">
        <ele>2052.000000</ele>
        <time>2020-03-29T15:20:30Z</time>
      </trkpt>
      <trkpt lat="18.998569" lon="-99.198194">
        <ele>2055.000000</ele>
        <time>2020-03-29T15:20:36Z</time>
      </trkpt>
      <trkpt lat="18.998596" lon="-99.198107">
        <ele>2056.000000</ele>
        <time>2020-03-29T15:20:46Z</time>
      </trkpt>
      <trkpt lat="18.998656" lon="-99.198006">
        <ele>2055.000000</ele>
        <time>2020-03-29T15:20:55Z</time>
      </trkpt>
      <trkpt lat="18.998745" lon="-99.197949">
        <ele>2056.000000</ele>
        <time>2020-03-29T15:21:03Z</time>
      </trkpt>
      <trkpt lat="18.998800" lon="-99.197901">
        <ele>2056.000000</ele>
        <time>2020-03-29T15:21:08Z</time>
      </trkpt>
      <trkpt lat="18.998898" lon="-99.197876">
        <ele>2058.000000</ele>
        <time>2020-03-29T15:21:18Z</time>
      </trkpt>
      <trkpt lat="18.998929" lon="-99.197883">
        <ele>2058.000000</ele>
        <time>2020-03-29T15:21:22Z</time>
      </trkpt>
      <trkpt lat="18.999120" lon="-99.197852">
        <ele>2061.000000</ele>
        <time>2020-03-29T15:21:42Z</time>
      </trkpt>
      <trkpt lat="18.999184" lon="-99.197856">
        <ele>2064.000000</ele>
        <time>2020-03-29T15:21:48Z</time>
      </trkpt>
      <trkpt lat="18.999223" lon="-99.197844">
        <ele>2064.000000</ele>
        <time>2020-03-29T15:21:52Z</time>
      </trkpt>
      <trkpt lat="18.999290" lon="-99.197851">
        <ele>2064.000000</ele>
        <time>2020-03-29T15:22:00Z</time>
      </trkpt>
      <trkpt lat="18.999327" lon="-99.197838">
        <ele>2066.000000</ele>
        <time>2020-03-29T15:22:02Z</time>
      </trkpt>
      <trkpt lat="18.999417" lon="-99.197767">
        <ele>2066.000000</ele>
        <time>2020-03-29T15:22:10Z</time>
      </trkpt>
      <trkpt lat="18.999447" lon="-99.197695">
        <ele>2066.000000</ele>
        <time>2020-03-29T15:22:14Z</time>
      </trkpt>
      <trkpt lat="18.999512" lon="-99.197675">
        <ele>2064.000000</ele>
        <time>2020-03-29T15:22:22Z</time>
      </trkpt>
      <trkpt lat="18.999533" lon="-99.197657">
        <ele>2066.000000</ele>
        <time>2020-03-29T15:22:26Z</time>
      </trkpt>
      <trkpt lat="18.999552" lon="-99.197606">
        <ele>2067.000000</ele>
        <time>2020-03-29T15:22:31Z</time>
      </trkpt>
      <trkpt lat="18.999535" lon="-99.197460">
        <ele>2068.000000</ele>
        <time>2020-03-29T15:22:42Z</time>
      </trkpt>
      <trkpt lat="18.999560" lon="-99.197425">
        <ele>2067.000000</ele>
        <time>2020-03-29T15:22:45Z</time>
      </trkpt>
      <trkpt lat="18.999615" lon="-99.197439">
        <ele>2064.000000</ele>
        <time>2020-03-29T15:22:51Z</time>
      </trkpt>
      <trkpt lat="18.999643" lon="-99.197428">
        <ele>2068.000000</ele>
        <time>2020-03-29T15:22:56Z</time>
      </trkpt>
      <trkpt lat="18.999672" lon="-99.197296">
        <ele>2069.000000</ele>
        <time>2020-03-29T15:23:07Z</time>
      </trkpt>
      <trkpt lat="18.999665" lon="-99.197160">
        <ele>2069.000000</ele>
        <time>2020-03-29T15:23:16Z</time>
      </trkpt>
      <trkpt lat="18.999690" lon="-99.197070">
        <ele>2070.000000</ele>
        <time>2020-03-29T15:23:22Z</time>
      </trkpt>
      <trkpt lat="18.999750" lon="-99.196983">
        <ele>2070.000000</ele>
        <time>2020-03-29T15:23:34Z</time>
      </trkpt>
      <trkpt lat="18.999777" lon="-99.196925">
        <ele>2073.000000</ele>
        <time>2020-03-29T15:23:41Z</time>
      </trkpt>
      <trkpt lat="18.999784" lon="-99.196852">
        <ele>2073.000000</ele>
        <time>2020-03-29T15:23:47Z</time>
      </trkpt>
      <trkpt lat="18.999834" lon="-99.196720">
        <ele>2072.000000</ele>
        <time>2020-03-29T15:24:00Z</time>
      </trkpt>
      <trkpt lat="18.999914" lon="-99.196647">
        <ele>2070.000000</ele>
        <time>2020-03-29T15:24:11Z</time>
      </trkpt>
      <trkpt lat="18.999946" lon="-99.196548">
        <ele>2075.000000</ele>
        <time>2020-03-29T15:24:24Z</time>
      </trkpt>
      <trkpt lat="18.999929" lon="-99.196475">
        <ele>2076.000000</ele>
        <time>2020-03-29T15:24:30Z</time>
      </trkpt>
      <trkpt lat="18.999945" lon="-99.196427">
        <ele>2076.000000</ele>
        <time>2020-03-29T15:24:34Z</time>
      </trkpt>
      <trkpt lat="18.999981" lon="-99.196396">
        <ele>2076.000000</ele>
        <time>2020-03-29T15:24:39Z</time>
      </trkpt>
      <trkpt lat="19.000044" lon="-99.196380">
        <ele>2075.000000</ele>
        <time>2020-03-29T15:24:49Z</time>
      </trkpt>
      <trkpt lat="19.000200" lon="-99.196270">
        <ele>2076.000000</ele>
        <time>2020-03-29T15:25:08Z</time>
      </trkpt>
      <trkpt lat="19.000300" lon="-99.196122">
        <ele>2076.000000</ele>
        <time>2020-03-29T15:25:25Z</time>
      </trkpt>
      <trkpt lat="19.000365" lon="-99.196093">
        <ele>2076.000000</ele>
        <time>2020-03-29T15:25:33Z</time>
      </trkpt>
      <trkpt lat="19.000380" lon="-99.196063">
        <ele>2079.000000</ele>
        <time>2020-03-29T15:25:36Z</time>
      </trkpt>
      <trkpt lat="19.000389" lon="-99.195960">
        <ele>2080.000000</ele>
        <time>2020-03-29T15:25:45Z</time>
      </trkpt>
      <trkpt lat="19.000377" lon="-99.195897">
        <ele>2080.000000</ele>
        <time>2020-03-29T15:25:53Z</time>
      </trkpt>
      <trkpt lat="19.000398" lon="-99.195927">
        <ele>2080.000000</ele>
        <time>2020-03-29T15:26:00Z</time>
      </trkpt>
      <trkpt lat="19.000432" lon="-99.195941">
        <ele>2080.000000</ele>
        <time>2020-03-29T15:26:04Z</time>
      </trkpt>
      <trkpt lat="19.000453" lon="-99.195802">
        <ele>2082.000000</ele>
        <time>2020-03-29T15:26:18Z</time>
      </trkpt>
      <trkpt lat="19.000486" lon="-99.195776">
        <ele>2082.000000</ele>
        <time>2020-03-29T15:26:21Z</time>
      </trkpt>
      <trkpt lat="19.000530" lon="-99.195706">
        <ele>2083.000000</ele>
        <time>2020-03-29T15:26:38Z</time>
      </trkpt>
      <trkpt lat="19.000567" lon="-99.195682">
        <ele>2083.000000</ele>
        <time>2020-03-29T15:26:55Z</time>
      </trkpt>
      <trkpt lat="19.000616" lon="-99.195669">
        <ele>2084.000000</ele>
        <time>2020-03-29T15:27:00Z</time>
      </trkpt>
      <trkpt lat="19.000672" lon="-99.195573">
        <ele>2085.000000</ele>
        <time>2020-03-29T15:27:11Z</time>
      </trkpt>
      <trkpt lat="19.000763" lon="-99.195482">
        <ele>2084.000000</ele>
        <time>2020-03-29T15:27:25Z</time>
      </trkpt>
      <trkpt lat="19.000781" lon="-99.195490">
        <ele>2085.000000</ele>
        <time>2020-03-29T15:27:31Z</time>
      </trkpt>
      <trkpt lat="19.000822" lon="-99.195619">
        <ele>2084.000000</ele>
        <time>2020-03-29T15:27:45Z</time>
      </trkpt>
      <trkpt lat="19.000809" lon="-99.195682">
        <ele>2085.000000</ele>
        <time>2020-03-29T15:27:51Z</time>
      </trkpt>
      <trkpt lat="19.000818" lon="-99.195839">
        <ele>2085.000000</ele>
        <time>2020-03-29T15:28:03Z</time>
      </trkpt>
      <trkpt lat="19.000833" lon="-99.195913">
        <ele>2085.000000</ele>
        <time>2020-03-29T15:28:09Z</time>
      </trkpt>
      <trkpt lat="19.000829" lon="-99.195976">
        <ele>2086.000000</ele>
        <time>2020-03-29T15:28:15Z</time>
      </trkpt>
      <trkpt lat="19.000843" lon="-99.196035">
        <ele>2085.000000</ele>
        <time>2020-03-29T15:28:21Z</time>
      </trkpt>
      <trkpt lat="19.000838" lon="-99.196173">
        <ele>2086.000000</ele>
        <time>2020-03-29T15:28:33Z</time>
      </trkpt>
      <trkpt lat="19.000857" lon="-99.196282">
        <ele>2088.000000</ele>
        <time>2020-03-29T15:28:42Z</time>
      </trkpt>
      <trkpt lat="19.000856" lon="-99.196396">
        <ele>2088.000000</ele>
        <time>2020-03-29T15:28:51Z</time>
      </trkpt>
      <trkpt lat="19.000887" lon="-99.196566">
        <ele>2090.000000</ele>
        <time>2020-03-29T15:29:05Z</time>
      </trkpt>
      <trkpt lat="19.000882" lon="-99.196601">
        <ele>2090.600000</ele>
        <time>2020-03-29T15:29:09Z</time>
      </trkpt>
      <trkpt lat="19.000834" lon="-99.196661">
        <ele>2088.000000</ele>
        <time>2020-03-29T15:29:15Z</time>
      </trkpt>
      <trkpt lat="19.000836" lon="-99.196695">
        <ele>2088.000000</ele>
        <time>2020-03-29T15:29:18Z</time>
      </trkpt>
      <trkpt lat="19.000861" lon="-99.196762">
        <ele>2088.000000</ele>
        <time>2020-03-29T15:29:24Z</time>
      </trkpt>
      <trkpt lat="19.000869" lon="-99.196832">
        <ele>2088.000000</ele>
        <time>2020-03-29T15:29:30Z</time>
      </trkpt>
      <trkpt lat="19.000864" lon="-99.196899">
        <ele>2088.000000</ele>
        <time>2020-03-29T15:29:37Z</time>
      </trkpt>
      <trkpt lat="19.000891" lon="-99.196974">
        <ele>2088.000000</ele>
        <time>2020-03-29T15:29:44Z</time>
      </trkpt>
      <trkpt lat="19.000914" lon="-99.197179">
        <ele>2091.800000</ele>
        <time>2020-03-29T15:29:59Z</time>
      </trkpt>
      <trkpt lat="19.000890" lon="-99.197362">
        <ele>2095.000000</ele>
        <time>2020-03-29T15:30:19Z</time>
      </trkpt>
      <trkpt lat="19.000912" lon="-99.197530">
        <ele>2100.000000</ele>
        <time>2020-03-29T15:30:40Z</time>
      </trkpt>
      <trkpt lat="19.000939" lon="-99.197582">
        <ele>2101.000000</ele>
        <time>2020-03-29T15:30:45Z</time>
      </trkpt>
      <trkpt lat="19.000944" lon="-99.197811">
        <ele>2104.000000</ele>
        <time>2020-03-29T15:31:16Z</time>
      </trkpt>
      <trkpt lat="19.000905" lon="-99.197910">
        <ele>2109.000000</ele>
        <time>2020-03-29T15:31:27Z</time>
      </trkpt>
      <trkpt lat="19.000911" lon="-99.198016">
        <ele>2108.000000</ele>
        <time>2020-03-29T15:31:35Z</time>
      </trkpt>
      <trkpt lat="19.000970" lon="-99.198279">
        <ele>2103.000000</ele>
        <time>2020-03-29T15:32:00Z</time>
      </trkpt>
      <trkpt lat="19.000963" lon="-99.198392">
        <ele>2103.000000</ele>
        <time>2020-03-29T15:32:09Z</time>
      </trkpt>
      <trkpt lat="19.000968" lon="-99.198542">
        <ele>2100.000000</ele>
        <time>2020-03-29T15:32:20Z</time>
      </trkpt>
      <trkpt lat="19.000942" lon="-99.198682">
        <ele>2100.000000</ele>
        <time>2020-03-29T15:32:31Z</time>
      </trkpt>
      <trkpt lat="19.000965" lon="-99.198796">
        <ele>2100.000000</ele>
        <time>2020-03-29T15:32:40Z</time>
      </trkpt>
      <trkpt lat="19.000982" lon="-99.198833">
        <ele>2100.000000</ele>
        <time>2020-03-29T15:32:43Z</time>
      </trkpt>
      <trkpt lat="19.000979" lon="-99.198872">
        <ele>2100.000000</ele>
        <time>2020-03-29T15:32:46Z</time>
      </trkpt>
      <trkpt lat="19.000961" lon="-99.198909">
        <ele>2096.000000</ele>
        <time>2020-03-29T15:32:50Z</time>
      </trkpt>
      <trkpt lat="19.000975" lon="-99.198947">
        <ele>2096.000000</ele>
        <time>2020-03-29T15:32:55Z</time>
      </trkpt>
      <trkpt lat="19.000978" lon="-99.199020">
        <ele>2097.000000</ele>
        <time>2020-03-29T15:33:01Z</time>
      </trkpt>
      <trkpt lat="19.000999" lon="-99.199071">
        <ele>2098.000000</ele>
        <time>2020-03-29T15:33:15Z</time>
      </trkpt>
      <trkpt lat="19.001010" lon="-99.199088">
        <ele>2097.000000</ele>
        <time>2020-03-29T15:33:20Z</time>
      </trkpt>
      <trkpt lat="19.001079" lon="-99.199121">
        <ele>2093.000000</ele>
        <time>2020-03-29T15:33:35Z</time>
      </trkpt>
      <trkpt lat="19.001093" lon="-99.199086">
        <ele>2098.000000</ele>
        <time>2020-03-29T15:33:44Z</time>
      </trkpt>
      <trkpt lat="19.001082" lon="-99.199054">
        <ele>2100.000000</ele>
        <time>2020-03-29T15:33:48Z</time>
      </trkpt>
      <trkpt lat="19.001045" lon="-99.199001">
        <ele>2097.000000</ele>
        <time>2020-03-29T15:34:03Z</time>
      </trkpt>
      <trkpt lat="19.001019" lon="-99.199004">
        <ele>2097.000000</ele>
        <time>2020-03-29T15:34:09Z</time>
      </trkpt>
      <trkpt lat="19.000977" lon="-99.198936">
        <ele>2100.000000</ele>
        <time>2020-03-29T15:34:20Z</time>
      </trkpt>
      <trkpt lat="19.000971" lon="-99.198873">
        <ele>2100.000000</ele>
        <time>2020-03-29T15:34:27Z</time>
      </trkpt>
      <trkpt lat="19.000996" lon="-99.198790">
        <ele>2100.000000</ele>
        <time>2020-03-29T15:34:34Z</time>
      </trkpt>
      <trkpt lat="19.001027" lon="-99.198780">
        <ele>2100.000000</ele>
        <time>2020-03-29T15:34:38Z</time>
      </trkpt>
      <trkpt lat="19.001065" lon="-99.198794">
        <ele>2100.000000</ele>
        <time>2020-03-29T15:34:42Z</time>
      </trkpt>
      <trkpt lat="19.001163" lon="-99.198772">
        <ele>2104.000000</ele>
        <time>2020-03-29T15:34:56Z</time>
      </trkpt>
      <trkpt lat="19.001233" lon="-99.198818">
        <ele>2106.800000</ele>
        <time>2020-03-29T15:35:02Z</time>
      </trkpt>
      <trkpt lat="19.001319" lon="-99.198822">
        <ele>2105.000000</ele>
        <time>2020-03-29T15:35:13Z</time>
      </trkpt>
      <trkpt lat="19.001396" lon="-99.198778">
        <ele>2109.000000</ele>
        <time>2020-03-29T15:35:20Z</time>
      </trkpt>
      <trkpt lat="19.001462" lon="-99.198686">
        <ele>2109.000000</ele>
        <time>2020-03-29T15:35:30Z</time>
      </trkpt>
      <trkpt lat="19.001488" lon="-99.198667">
        <ele>2109.000000</ele>
        <time>2020-03-29T15:35:33Z</time>
      </trkpt>
      <trkpt lat="19.001548" lon="-99.198644">
        <ele>2112.000000</ele>
        <time>2020-03-29T15:35:40Z</time>
      </trkpt>
      <trkpt lat="19.001601" lon="-99.198637">
        <ele>2112.000000</ele>
        <time>2020-03-29T15:35:48Z</time>
      </trkpt>
      <trkpt lat="19.001861" lon="-99.198641">
        <ele>2115.000000</ele>
        <time>2020-03-29T15:36:15Z</time>
      </trkpt>
      <trkpt lat="19.001892" lon="-99.198633">
        <ele>2115.000000</ele>
        <time>2020-03-29T15:36:19Z</time>
      </trkpt>
      <trkpt lat="19.001962" lon="-99.198561">
        <ele>2116.000000</ele>
        <time>2020-03-29T15:36:33Z</time>
      </trkpt>
      <trkpt lat="19.002025" lon="-99.198538">
        <ele>2118.000000</ele>
        <time>2020-03-29T15:36:39Z</time>
      </trkpt>
      <trkpt lat="19.002129" lon="-99.198576">
        <ele>2120.000000</ele>
        <time>2020-03-29T15:36:52Z</time>
      </trkpt>
      <trkpt lat="19.002163" lon="-99.198580">
        <ele>2120.000000</ele>
        <time>2020-03-29T15:36:56Z</time>
      </trkpt>
      <trkpt lat="19.002429" lon="-99.198781">
        <ele>2125.000000</ele>
        <time>2020-03-29T15:37:28Z</time>
      </trkpt>
      <trkpt lat="19.002462" lon="-99.198821">
        <ele>2127.000000</ele>
        <time>2020-03-29T15:37:33Z</time>
      </trkpt>
      <trkpt lat="19.002475" lon="-99.198943">
        <ele>2128.000000</ele>
        <time>2020-03-29T15:37:42Z</time>
      </trkpt>
      <trkpt lat="19.002486" lon="-99.198971">
        <ele>2127.000000</ele>
        <time>2020-03-29T15:37:44Z</time>
      </trkpt>
      <trkpt lat="19.002663" lon="-99.198994">
        <ele>2128.000000</ele>
        <time>2020-03-29T15:38:01Z</time>
      </trkpt>
      <trkpt lat="19.002740" lon="-99.199070">
        <ele>2133.000000</ele>
        <time>2020-03-29T15:38:12Z</time>
      </trkpt>
      <trkpt lat="19.002907" lon="-99.199143">
        <ele>2136.000000</ele>
        <time>2020-03-29T15:38:30Z</time>
      </trkpt>
      <trkpt lat="19.003113" lon="-99.199325">
        <ele>2140.000000</ele>
        <time>2020-03-29T15:38:55Z</time>
      </trkpt>
      <trkpt lat="19.003166" lon="-99.199439">
        <ele>2142.000000</ele>
        <time>2020-03-29T15:39:08Z</time>
      </trkpt>
      <trkpt lat="19.003228" lon="-99.199499">
        <ele>2142.000000</ele>
        <time>2020-03-29T15:39:16Z</time>
      </trkpt>
      <trkpt lat="19.003268" lon="-99.199557">
        <ele>2142.000000</ele>
        <time>2020-03-29T15:39:22Z</time>
      </trkpt>
      <trkpt lat="19.003288" lon="-99.199629">
        <ele>2145.000000</ele>
        <time>2020-03-29T15:39:29Z</time>
      </trkpt>
      <trkpt lat="19.003307" lon="-99.199659">
        <ele>2145.000000</ele>
        <time>2020-03-29T15:39:32Z</time>
      </trkpt>
      <trkpt lat="19.003446" lon="-99.199760">
        <ele>2146.000000</ele>
        <time>2020-03-29T15:40:07Z</time>
      </trkpt>
      <trkpt lat="19.003455" lon="-99.199791">
        <ele>2148.000000</ele>
        <time>2020-03-29T15:40:10Z</time>
      </trkpt>
      <trkpt lat="19.003522" lon="-99.199869">
        <ele>2148.000000</ele>
        <time>2020-03-29T15:40:22Z</time>
      </trkpt>
      <trkpt lat="19.003528" lon="-99.199987">
        <ele>2148.000000</ele>
        <time>2020-03-29T15:40:29Z</time>
      </trkpt>
      <trkpt lat="19.003553" lon="-99.200091">
        <ele>2145.000000</ele>
        <time>2020-03-29T15:40:40Z</time>
      </trkpt>
      <trkpt lat="19.003522" lon="-99.200191">
        <ele>2148.000000</ele>
        <time>2020-03-29T15:40:48Z</time>
      </trkpt>
      <trkpt lat="19.003499" lon="-99.200250">
        <ele>2148.800000</ele>
        <time>2020-03-29T15:40:53Z</time>
      </trkpt>
      <trkpt lat="19.003456" lon="-99.200297">
        <ele>2145.000000</ele>
        <time>2020-03-29T15:41:00Z</time>
      </trkpt>
      <trkpt lat="19.003436" lon="-99.200371">
        <ele>2144.000000</ele>
        <time>2020-03-29T15:41:08Z</time>
      </trkpt>
      <trkpt lat="19.003341" lon="-99.200489">
        <ele>2146.000000</ele>
        <time>2020-03-29T15:41:19Z</time>
      </trkpt>
      <trkpt lat="19.003327" lon="-99.200523">
        <ele>2148.000000</ele>
        <time>2020-03-29T15:41:22Z</time>
      </trkpt>
      <trkpt lat="19.003277" lon="-99.200577">
        <ele>2146.000000</ele>
        <time>2020-03-29T15:41:33Z</time>
      </trkpt>
      <trkpt lat="19.003265" lon="-99.200612">
        <ele>2148.000000</ele>
        <time>2020-03-29T15:41:39Z</time>
      </trkpt>
      <trkpt lat="19.003232" lon="-99.200657">
        <ele>2148.000000</ele>
        <time>2020-03-29T15:41:44Z</time>
      </trkpt>
      <trkpt lat="19.003223" lon="-99.200700">
        <ele>2148.000000</ele>
        <time>2020-03-29T15:41:47Z</time>
      </trkpt>
      <trkpt lat="19.003227" lon="-99.200780">
        <ele>2148.000000</ele>
        <time>2020-03-29T15:41:53Z</time>
      </trkpt>
      <trkpt lat="19.003248" lon="-99.200818">
        <ele>2148.000000</ele>
        <time>2020-03-29T15:41:56Z</time>
      </trkpt>
      <trkpt lat="19.003297" lon="-99.200861">
        <ele>2150.000000</ele>
        <time>2020-03-29T15:42:01Z</time>
      </trkpt>
      <trkpt lat="19.003362" lon="-99.200884">
        <ele>2150.000000</ele>
        <time>2020-03-29T15:42:05Z</time>
      </trkpt>
      <trkpt lat="19.003396" lon="-99.200888">
        <ele>2151.000000</ele>
        <time>2020-03-29T15:42:07Z</time>
      </trkpt>
      <trkpt lat="19.003457" lon="-99.200875">
        <ele>2151.000000</ele>
        <time>2020-03-29T15:42:14Z</time>
      </trkpt>
      <trkpt lat="19.003489" lon="-99.200884">
        <ele>2151.000000</ele>
        <time>2020-03-29T15:42:17Z</time>
      </trkpt>
      <trkpt lat="19.003558" lon="-99.200945">
        <ele>2154.000000</ele>
        <time>2020-03-29T15:42:24Z</time>
      </trkpt>
      <trkpt lat="19.003585" lon="-99.200997">
        <ele>2154.000000</ele>
        <time>2020-03-29T15:42:30Z</time>
      </trkpt>
      <trkpt lat="19.003571" lon="-99.201131">
        <ele>2156.000000</ele>
        <time>2020-03-29T15:42:44Z</time>
      </trkpt>
      <trkpt lat="19.003589" lon="-99.201235">
        <ele>2157.000000</ele>
        <time>2020-03-29T15:42:55Z</time>
      </trkpt>
      <trkpt lat="19.003551" lon="-99.201378">
        <ele>2156.000000</ele>
        <time>2020-03-29T15:43:09Z</time>
      </trkpt>
      <trkpt lat="19.003559" lon="-99.201442">
        <ele>2158.000000</ele>
        <time>2020-03-29T15:43:14Z</time>
      </trkpt>
      <trkpt lat="19.003595" lon="-99.201536">
        <ele>2160.000000</ele>
        <time>2020-03-29T15:43:24Z</time>
      </trkpt>
      <trkpt lat="19.003622" lon="-99.201568">
        <ele>2160.000000</ele>
        <time>2020-03-29T15:43:27Z</time>
      </trkpt>
      <trkpt lat="19.003640" lon="-99.201638">
        <ele>2160.000000</ele>
        <time>2020-03-29T15:43:33Z</time>
      </trkpt>
      <trkpt lat="19.003628" lon="-99.201734">
        <ele>2160.000000</ele>
        <time>2020-03-29T15:43:44Z</time>
      </trkpt>
      <trkpt lat="19.003638" lon="-99.201839">
        <ele>2163.000000</ele>
        <time>2020-03-29T15:43:53Z</time>
      </trkpt>
      <trkpt lat="19.003672" lon="-99.201901">
        <ele>2163.000000</ele>
        <time>2020-03-29T15:43:59Z</time>
      </trkpt>
      <trkpt lat="19.003778" lon="-99.202021">
        <ele>2166.000000</ele>
        <time>2020-03-29T15:44:11Z</time>
      </trkpt>
      <trkpt lat="19.003808" lon="-99.202083">
        <ele>2165.000000</ele>
        <time>2020-03-29T15:44:18Z</time>
      </trkpt>
      <trkpt lat="19.003833" lon="-99.202246">
        <ele>2168.000000</ele>
        <time>2020-03-29T15:44:38Z</time>
      </trkpt>
      <trkpt lat="19.003885" lon="-99.202313">
        <ele>2168.000000</ele>
        <time>2020-03-29T15:44:55Z</time>
      </trkpt>
      <trkpt lat="19.003887" lon="-99.202345">
        <ele>2170.000000</ele>
        <time>2020-03-29T15:45:40Z</time>
      </trkpt>
      <trkpt lat="19.003954" lon="-99.202354">
        <ele>2171.000000</ele>
        <time>2020-03-29T15:45:46Z</time>
      </trkpt>
      <trkpt lat="19.004023" lon="-99.202398">
        <ele>2172.000000</ele>
        <time>2020-03-29T15:45:55Z</time>
      </trkpt>
      <trkpt lat="19.004135" lon="-99.202576">
        <ele>2176.000000</ele>
        <time>2020-03-29T15:46:18Z</time>
      </trkpt>
      <trkpt lat="19.004250" lon="-99.202625">
        <ele>2178.000000</ele>
        <time>2020-03-29T15:46:32Z</time>
      </trkpt>
      <trkpt lat="19.004279" lon="-99.202660">
        <ele>2176.000000</ele>
        <time>2020-03-29T15:46:36Z</time>
      </trkpt>
      <trkpt lat="19.004308" lon="-99.202677">
        <ele>2180.000000</ele>
        <time>2020-03-29T15:46:40Z</time>
      </trkpt>
      <trkpt lat="19.004393" lon="-99.202680">
        <ele>2176.000000</ele>
        <time>2020-03-29T15:46:51Z</time>
      </trkpt>
      <trkpt lat="19.004439" lon="-99.202669">
        <ele>2180.000000</ele>
        <time>2020-03-29T15:46:57Z</time>
      </trkpt>
      <trkpt lat="19.004600" lon="-99.202661">
        <ele>2182.000000</ele>
        <time>2020-03-29T15:47:14Z</time>
      </trkpt>
      <trkpt lat="19.004651" lon="-99.202677">
        <ele>2184.200000</ele>
        <time>2020-03-29T15:47:21Z</time>
      </trkpt>
      <trkpt lat="19.004693" lon="-99.202711">
        <ele>2182.000000</ele>
        <time>2020-03-29T15:47:29Z</time>
      </trkpt>
      <trkpt lat="19.004705" lon="-99.202772">
        <ele>2184.000000</ele>
        <time>2020-03-29T15:47:41Z</time>
      </trkpt>
      <trkpt lat="19.004783" lon="-99.202823">
        <ele>2184.000000</ele>
        <time>2020-03-29T15:47:52Z</time>
      </trkpt>
      <trkpt lat="19.004897" lon="-99.203112">
        <ele>2188.000000</ele>
        <time>2020-03-29T15:48:18Z</time>
      </trkpt>
      <trkpt lat="19.004879" lon="-99.203160">
        <ele>2185.000000</ele>
        <time>2020-03-29T15:48:32Z</time>
      </trkpt>
      <trkpt lat="19.004852" lon="-99.203020">
        <ele>2184.000000</ele>
        <time>2020-03-29T15:48:56Z</time>
      </trkpt>
      <trkpt lat="19.004840" lon="-99.202986">
        <ele>2184.000000</ele>
        <time>2020-03-29T15:48:59Z</time>
      </trkpt>
      <trkpt lat="19.004796" lon="-99.202925">
        <ele>2186.000000</ele>
        <time>2020-03-29T15:49:04Z</time>
      </trkpt>
      <trkpt lat="19.004783" lon="-99.202872">
        <ele>2185.800000</ele>
        <time>2020-03-29T15:49:08Z</time>
      </trkpt>
      <trkpt lat="19.004720" lon="-99.202795">
        <ele>2184.000000</ele>
        <time>2020-03-29T15:49:15Z</time>
      </trkpt>
      <trkpt lat="19.004669" lon="-99.202755">
        <ele>2184.000000</ele>
        <time>2020-03-29T15:49:20Z</time>
      </trkpt>
      <trkpt lat="19.004606" lon="-99.202653">
        <ele>2184.000000</ele>
        <time>2020-03-29T15:49:29Z</time>
      </trkpt>
      <trkpt lat="19.004577" lon="-99.202643">
        <ele>2180.000000</ele>
        <time>2020-03-29T15:49:33Z</time>
      </trkpt>
      <trkpt lat="19.004507" lon="-99.202647">
        <ele>2181.000000</ele>
        <time>2020-03-29T15:49:39Z</time>
      </trkpt>
      <trkpt lat="19.004481" lon="-99.202678">
        <ele>2181.000000</ele>
        <time>2020-03-29T15:49:42Z</time>
      </trkpt>
      <trkpt lat="19.004470" lon="-99.202714">
        <ele>2180.000000</ele>
        <time>2020-03-29T15:49:46Z</time>
      </trkpt>
      <trkpt lat="19.004401" lon="-99.202757">
        <ele>2179.000000</ele>
        <time>2020-03-29T15:49:58Z</time>
      </trkpt>
      <trkpt lat="19.004348" lon="-99.202757">
        <ele>2178.000000</ele>
        <time>2020-03-29T15:50:05Z</time>
      </trkpt>
      <trkpt lat="19.004210" lon="-99.202650">
        <ele>2176.000000</ele>
        <time>2020-03-29T15:50:16Z</time>
      </trkpt>
      <trkpt lat="19.004056" lon="-99.202555">
        <ele>2174.000000</ele>
        <time>2020-03-29T15:50:26Z</time>
      </trkpt>
      <trkpt lat="19.004032" lon="-99.202535">
        <ele>2172.000000</ele>
        <time>2020-03-29T15:50:28Z</time>
      </trkpt>
      <trkpt lat="19.004022" lon="-99.202506">
        <ele>2172.000000</ele>
        <time>2020-03-29T15:50:31Z</time>
      </trkpt>
      <trkpt lat="19.003966" lon="-99.202505">
        <ele>2170.000000</ele>
        <time>2020-03-29T15:50:39Z</time>
      </trkpt>
      <trkpt lat="19.003920" lon="-99.202490">
        <ele>2170.000000</ele>
        <time>2020-03-29T15:50:48Z</time>
      </trkpt>
      <trkpt lat="19.003919" lon="-99.202525">
        <ele>2169.200000</ele>
        <time>2020-03-29T15:50:55Z</time>
      </trkpt>
      <trkpt lat="19.003869" lon="-99.202561">
        <ele>2166.000000</ele>
        <time>2020-03-29T15:51:06Z</time>
      </trkpt>
      <trkpt lat="19.003830" lon="-99.202564">
        <ele>2168.000000</ele>
        <time>2020-03-29T15:51:09Z</time>
      </trkpt>
      <trkpt lat="19.003796" lon="-99.202579">
        <ele>2168.000000</ele>
        <time>2020-03-29T15:51:11Z</time>
      </trkpt>
      <trkpt lat="19.003645" lon="-99.202694">
        <ele>2166.000000</ele>
        <time>2020-03-29T15:51:22Z</time>
      </trkpt>
      <trkpt lat="19.003425" lon="-99.202699">
        <ele>2163.000000</ele>
        <time>2020-03-29T15:51:36Z</time>
      </trkpt>
      <trkpt lat="19.003393" lon="-99.202686">
        <ele>2162.000000</ele>
        <time>2020-03-29T15:51:38Z</time>
      </trkpt>
      <trkpt lat="19.003271" lon="-99.202679">
        <ele>2160.000000</ele>
        <time>2020-03-29T15:51:48Z</time>
      </trkpt>
      <trkpt lat="19.003182" lon="-99.202617">
        <ele>2160.000000</ele>
        <time>2020-03-29T15:51:54Z</time>
      </trkpt>
      <trkpt lat="19.003117" lon="-99.202591">
        <ele>2156.000000</ele>
        <time>2020-03-29T15:52:00Z</time>
      </trkpt>
      <trkpt lat="19.003025" lon="-99.202617">
        <ele>2154.000000</ele>
        <time>2020-03-29T15:52:13Z</time>
      </trkpt>
      <trkpt lat="19.002996" lon="-99.202641">
        <ele>2154.000000</ele>
        <time>2020-03-29T15:52:17Z</time>
      </trkpt>
      <trkpt lat="19.002964" lon="-99.202642">
        <ele>2154.000000</ele>
        <time>2020-03-29T15:52:21Z</time>
      </trkpt>
      <trkpt lat="19.002644" lon="-99.202442">
        <ele>2150.000000</ele>
        <time>2020-03-29T15:52:50Z</time>
      </trkpt>
      <trkpt lat="19.002542" lon="-99.202406">
        <ele>2148.000000</ele>
        <time>2020-03-29T15:52:58Z</time>
      </trkpt>
      <trkpt lat="19.002469" lon="-99.202402">
        <ele>2148.000000</ele>
        <time>2020-03-29T15:53:03Z</time>
      </trkpt>
      <trkpt lat="19.002383" lon="-99.202336">
        <ele>2144.000000</ele>
        <time>2020-03-29T15:53:13Z</time>
      </trkpt>
      <trkpt lat="19.002316" lon="-99.202302">
        <ele>2144.000000</ele>
        <time>2020-03-29T15:53:18Z</time>
      </trkpt>
      <trkpt lat="19.002273" lon="-99.202246">
        <ele>2142.000000</ele>
        <time>2020-03-29T15:53:23Z</time>
      </trkpt>
      <trkpt lat="19.002238" lon="-99.202239">
        <ele>2140.000000</ele>
        <time>2020-03-29T15:53:27Z</time>
      </trkpt>
      <trkpt lat="19.002206" lon="-99.202214">
        <ele>2136.000000</ele>
        <time>2020-03-29T15:53:33Z</time>
      </trkpt>
      <trkpt lat="19.002184" lon="-99.202153">
        <ele>2135.000000</ele>
        <time>2020-03-29T15:53:42Z</time>
      </trkpt>
      <trkpt lat="19.002127" lon="-99.202115">
        <ele>2140.000000</ele>
        <time>2020-03-29T15:53:51Z</time>
      </trkpt>
      <trkpt lat="19.001932" lon="-99.202108">
        <ele>2136.000000</ele>
        <time>2020-03-29T15:54:05Z</time>
      </trkpt>
      <trkpt lat="19.001764" lon="-99.202035">
        <ele>2134.000000</ele>
        <time>2020-03-29T15:54:13Z</time>
      </trkpt>
      <trkpt lat="19.001733" lon="-99.202043">
        <ele>2133.000000</ele>
        <time>2020-03-29T15:54:15Z</time>
      </trkpt>
      <trkpt lat="19.001710" lon="-99.202071">
        <ele>2133.000000</ele>
        <time>2020-03-29T15:54:18Z</time>
      </trkpt>
      <trkpt lat="19.001680" lon="-99.202089">
        <ele>2132.000000</ele>
        <time>2020-03-29T15:54:22Z</time>
      </trkpt>
      <trkpt lat="19.001583" lon="-99.202128">
        <ele>2131.000000</ele>
        <time>2020-03-29T15:54:30Z</time>
      </trkpt>
      <trkpt lat="19.001515" lon="-99.202228">
        <ele>2130.000000</ele>
        <time>2020-03-29T15:54:38Z</time>
      </trkpt>
      <trkpt lat="19.001482" lon="-99.202252">
        <ele>2130.000000</ele>
        <time>2020-03-29T15:54:41Z</time>
      </trkpt>
      <trkpt lat="19.001452" lon="-99.202325">
        <ele>2130.000000</ele>
        <time>2020-03-29T15:54:47Z</time>
      </trkpt>
      <trkpt lat="19.001306" lon="-99.202543">
        <ele>2128.000000</ele>
        <time>2020-03-29T15:55:08Z</time>
      </trkpt>
      <trkpt lat="19.001288" lon="-99.202604">
        <ele>2128.000000</ele>
        <time>2020-03-29T15:55:15Z</time>
      </trkpt>
      <trkpt lat="19.001253" lon="-99.202641">
        <ele>2127.000000</ele>
        <time>2020-03-29T15:55:20Z</time>
      </trkpt>
      <trkpt lat="19.001224" lon="-99.202658">
        <ele>2128.000000</ele>
        <time>2020-03-29T15:55:24Z</time>
      </trkpt>
      <trkpt lat="19.001147" lon="-99.202677">
        <ele>2127.000000</ele>
        <time>2020-03-29T15:55:30Z</time>
      </trkpt>
      <trkpt lat="19.001120" lon="-99.202696">
        <ele>2127.000000</ele>
        <time>2020-03-29T15:55:33Z</time>
      </trkpt>
      <trkpt lat="19.001103" lon="-99.202739">
        <ele>2127.000000</ele>
        <time>2020-03-29T15:55:38Z</time>
      </trkpt>
      <trkpt lat="19.001119" lon="-99.202874">
        <ele>2130.000000</ele>
        <time>2020-03-29T15:55:56Z</time>
      </trkpt>
      <trkpt lat="19.001139" lon="-99.202813">
        <ele>2130.000000</ele>
        <time>2020-03-29T15:56:05Z</time>
      </trkpt>
      <trkpt lat="19.001147" lon="-99.202742">
        <ele>2127.000000</ele>
        <time>2020-03-29T15:56:11Z</time>
      </trkpt>
      <trkpt lat="19.001123" lon="-99.202702">
        <ele>2126.000000</ele>
        <time>2020-03-29T15:56:15Z</time>
      </trkpt>
      <trkpt lat="19.001078" lon="-99.202716">
        <ele>2126.000000</ele>
        <time>2020-03-29T15:56:20Z</time>
      </trkpt>
      <trkpt lat="19.001047" lon="-99.202772">
        <ele>2126.000000</ele>
        <time>2020-03-29T15:56:24Z</time>
      </trkpt>
      <trkpt lat="19.000912" lon="-99.202921">
        <ele>2126.000000</ele>
        <time>2020-03-29T15:56:39Z</time>
      </trkpt>
      <trkpt lat="19.000796" lon="-99.203092">
        <ele>2124.000000</ele>
        <time>2020-03-29T15:56:56Z</time>
      </trkpt>
      <trkpt lat="19.000739" lon="-99.203227">
        <ele>2127.000000</ele>
        <time>2020-03-29T15:57:08Z</time>
      </trkpt>
      <trkpt lat="19.000675" lon="-99.203320">
        <ele>2127.000000</ele>
        <time>2020-03-29T15:57:17Z</time>
      </trkpt>
      <trkpt lat="19.000598" lon="-99.203405">
        <ele>2127.000000</ele>
        <time>2020-03-29T15:57:25Z</time>
      </trkpt>
      <trkpt lat="19.000575" lon="-99.203468">
        <ele>2127.000000</ele>
        <time>2020-03-29T15:57:31Z</time>
      </trkpt>
      <trkpt lat="19.000434" lon="-99.203651">
        <ele>2128.000000</ele>
        <time>2020-03-29T15:57:50Z</time>
      </trkpt>
      <trkpt lat="19.000340" lon="-99.203805">
        <ele>2128.000000</ele>
        <time>2020-03-29T15:58:04Z</time>
      </trkpt>
      <trkpt lat="19.000327" lon="-99.203911">
        <ele>2127.000000</ele>
        <time>2020-03-29T15:58:13Z</time>
      </trkpt>
      <trkpt lat="19.000300" lon="-99.203980">
        <ele>2127.000000</ele>
        <time>2020-03-29T15:58:20Z</time>
      </trkpt>
      <trkpt lat="19.000299" lon="-99.204080">
        <ele>2126.000000</ele>
        <time>2020-03-29T15:58:26Z</time>
      </trkpt>
      <trkpt lat="19.000283" lon="-99.204163">
        <ele>2124.000000</ele>
        <time>2020-03-29T15:58:32Z</time>
      </trkpt>
      <trkpt lat="19.000255" lon="-99.204231">
        <ele>2124.000000</ele>
        <time>2020-03-29T15:58:37Z</time>
      </trkpt>
      <trkpt lat="19.000219" lon="-99.204450">
        <ele>2124.000000</ele>
        <time>2020-03-29T15:58:55Z</time>
      </trkpt>
      <trkpt lat="19.000193" lon="-99.204517">
        <ele>2124.000000</ele>
        <time>2020-03-29T15:59:00Z</time>
      </trkpt>
      <trkpt lat="19.000204" lon="-99.204630">
        <ele>2124.000000</ele>
        <time>2020-03-29T15:59:08Z</time>
      </trkpt>
      <trkpt lat="19.000183" lon="-99.204734">
        <ele>2124.000000</ele>
        <time>2020-03-29T15:59:16Z</time>
      </trkpt>
      <trkpt lat="19.000207" lon="-99.204810">
        <ele>2124.000000</ele>
        <time>2020-03-29T15:59:24Z</time>
      </trkpt>
      <trkpt lat="19.000265" lon="-99.204884">
        <ele>2124.000000</ele>
        <time>2020-03-29T15:59:38Z</time>
      </trkpt>
      <trkpt lat="19.000227" lon="-99.204821">
        <ele>2124.000000</ele>
        <time>2020-03-29T15:59:48Z</time>
      </trkpt>
      <trkpt lat="19.000233" lon="-99.204774">
        <ele>2126.000000</ele>
        <time>2020-03-29T16:00:06Z</time>
      </trkpt>
      <trkpt lat="19.000255" lon="-99.204757">
        <ele>2124.000000</ele>
        <time>2020-03-29T16:00:16Z</time>
      </trkpt>
      <trkpt lat="19.000183" lon="-99.204727">
        <ele>2126.000000</ele>
        <time>2020-03-29T16:00:56Z</time>
      </trkpt>
      <trkpt lat="19.000186" lon="-99.204675">
        <ele>2125.000000</ele>
        <time>2020-03-29T16:01:09Z</time>
      </trkpt>
      <trkpt lat="19.000216" lon="-99.204567">
        <ele>2124.000000</ele>
        <time>2020-03-29T16:01:24Z</time>
      </trkpt>
      <trkpt lat="19.000259" lon="-99.204555">
        <ele>2124.000000</ele>
        <time>2020-03-29T16:01:46Z</time>
      </trkpt>
      <trkpt lat="19.000273" lon="-99.204506">
        <ele>2124.000000</ele>
        <time>2020-03-29T16:01:56Z</time>
      </trkpt>
      <trkpt lat="19.000264" lon="-99.204474">
        <ele>2120.000000</ele>
        <time>2020-03-29T16:02:03Z</time>
      </trkpt>
      <trkpt lat="19.000271" lon="-99.204330">
        <ele>2124.000000</ele>
        <time>2020-03-29T16:02:21Z</time>
      </trkpt>
      <trkpt lat="19.000259" lon="-99.204239">
        <ele>2124.000000</ele>
        <time>2020-03-29T16:02:36Z</time>
      </trkpt>
      <trkpt lat="19.000277" lon="-99.204196">
        <ele>2124.000000</ele>
        <time>2020-03-29T16:02:51Z</time>
      </trkpt>
      <trkpt lat="19.000259" lon="-99.204414">
        <ele>2124.000000</ele>
        <time>2020-03-29T16:03:15Z</time>
      </trkpt>
      <trkpt lat="19.000227" lon="-99.204483">
        <ele>2124.000000</ele>
        <time>2020-03-29T16:03:22Z</time>
      </trkpt>
      <trkpt lat="19.000225" lon="-99.204551">
        <ele>2124.000000</ele>
        <time>2020-03-29T16:03:26Z</time>
      </trkpt>
      <trkpt lat="19.000187" lon="-99.204678">
        <ele>2124.000000</ele>
        <time>2020-03-29T16:03:37Z</time>
      </trkpt>
      <trkpt lat="19.000184" lon="-99.204721">
        <ele>2124.000000</ele>
        <time>2020-03-29T16:03:40Z</time>
      </trkpt>
      <trkpt lat="19.000200" lon="-99.204795">
        <ele>2124.000000</ele>
        <time>2020-03-29T16:03:47Z</time>
      </trkpt>
      <trkpt lat="19.000260" lon="-99.204945">
        <ele>2124.000000</ele>
        <time>2020-03-29T16:04:16Z</time>
      </trkpt>
      <trkpt lat="19.000130" lon="-99.204953">
        <ele>2121.000000</ele>
        <time>2020-03-29T16:04:41Z</time>
      </trkpt>
      <trkpt lat="19.000073" lon="-99.205006">
        <ele>2121.000000</ele>
        <time>2020-03-29T16:04:47Z</time>
      </trkpt>
      <trkpt lat="19.000014" lon="-99.205032">
        <ele>2120.000000</ele>
        <time>2020-03-29T16:04:54Z</time>
      </trkpt>
      <trkpt lat="18.999978" lon="-99.205027">
        <ele>2119.000000</ele>
        <time>2020-03-29T16:04:57Z</time>
      </trkpt>
      <trkpt lat="18.999885" lon="-99.204984">
        <ele>2118.000000</ele>
        <time>2020-03-29T16:05:06Z</time>
      </trkpt>
      <trkpt lat="18.999834" lon="-99.205001">
        <ele>2115.000000</ele>
        <time>2020-03-29T16:05:12Z</time>
      </trkpt>
      <trkpt lat="18.999813" lon="-99.205060">
        <ele>2116.000000</ele>
        <time>2020-03-29T16:05:21Z</time>
      </trkpt>
      <trkpt lat="18.999763" lon="-99.205111">
        <ele>2116.000000</ele>
        <time>2020-03-29T16:05:28Z</time>
      </trkpt>
      <trkpt lat="18.999704" lon="-99.205208">
        <ele>2116.000000</ele>
        <time>2020-03-29T16:05:39Z</time>
      </trkpt>
      <trkpt lat="18.999648" lon="-99.205262">
        <ele>2112.000000</ele>
        <time>2020-03-29T16:05:48Z</time>
      </trkpt>
      <trkpt lat="18.999625" lon="-99.205377">
        <ele>2116.000000</ele>
        <time>2020-03-29T16:06:04Z</time>
      </trkpt>
      <trkpt lat="18.999646" lon="-99.205437">
        <ele>2118.000000</ele>
        <time>2020-03-29T16:06:12Z</time>
      </trkpt>
      <trkpt lat="18.999629" lon="-99.205511">
        <ele>2118.000000</ele>
        <time>2020-03-29T16:06:17Z</time>
      </trkpt>
      <trkpt lat="18.999536" lon="-99.205628">
        <ele>2119.000000</ele>
        <time>2020-03-29T16:06:28Z</time>
      </trkpt>
      <trkpt lat="18.999456" lon="-99.205687">
        <ele>2121.000000</ele>
        <time>2020-03-29T16:06:38Z</time>
      </trkpt>
      <trkpt lat="18.999429" lon="-99.205796">
        <ele>2120.000000</ele>
        <time>2020-03-29T16:06:46Z</time>
      </trkpt>
      <trkpt lat="18.999287" lon="-99.206007">
        <ele>2121.000000</ele>
        <time>2020-03-29T16:07:05Z</time>
      </trkpt>
      <trkpt lat="18.999197" lon="-99.206079">
        <ele>2118.000000</ele>
        <time>2020-03-29T16:07:13Z</time>
      </trkpt>
      <trkpt lat="18.999117" lon="-99.206088">
        <ele>2118.000000</ele>
        <time>2020-03-29T16:07:19Z</time>
      </trkpt>
      <trkpt lat="18.999063" lon="-99.206122">
        <ele>2118.000000</ele>
        <time>2020-03-29T16:07:25Z</time>
      </trkpt>
      <trkpt lat="18.999026" lon="-99.206132">
        <ele>2117.000000</ele>
        <time>2020-03-29T16:07:28Z</time>
      </trkpt>
      <trkpt lat="18.998990" lon="-99.206123">
        <ele>2116.000000</ele>
        <time>2020-03-29T16:07:31Z</time>
      </trkpt>
      <trkpt lat="18.998937" lon="-99.206074">
        <ele>2116.000000</ele>
        <time>2020-03-29T16:07:36Z</time>
      </trkpt>
      <trkpt lat="18.998860" lon="-99.206038">
        <ele>2114.000000</ele>
        <time>2020-03-29T16:07:43Z</time>
      </trkpt>
      <trkpt lat="18.998774" lon="-99.205982">
        <ele>2112.000000</ele>
        <time>2020-03-29T16:07:53Z</time>
      </trkpt>
      <trkpt lat="18.998706" lon="-99.205962">
        <ele>2112.000000</ele>
        <time>2020-03-29T16:08:00Z</time>
      </trkpt>
      <trkpt lat="18.998679" lon="-99.205940">
        <ele>2112.000000</ele>
        <time>2020-03-29T16:08:04Z</time>
      </trkpt>
      <trkpt lat="18.998619" lon="-99.205920">
        <ele>2108.000000</ele>
        <time>2020-03-29T16:08:11Z</time>
      </trkpt>
      <trkpt lat="18.998517" lon="-99.205907">
        <ele>2108.000000</ele>
        <time>2020-03-29T16:08:21Z</time>
      </trkpt>
      <trkpt lat="18.998472" lon="-99.205871">
        <ele>2110.000000</ele>
        <time>2020-03-29T16:08:26Z</time>
      </trkpt>
      <trkpt lat="18.998421" lon="-99.205887">
        <ele>2108.000000</ele>
        <time>2020-03-29T16:08:33Z</time>
      </trkpt>
      <trkpt lat="18.998385" lon="-99.205866">
        <ele>2106.000000</ele>
        <time>2020-03-29T16:08:38Z</time>
      </trkpt>
      <trkpt lat="18.998376" lon="-99.205752">
        <ele>2104.000000</ele>
        <time>2020-03-29T16:08:52Z</time>
      </trkpt>
      <trkpt lat="18.998189" lon="-99.205619">
        <ele>2103.000000</ele>
        <time>2020-03-29T16:09:12Z</time>
      </trkpt>
      <trkpt lat="18.998153" lon="-99.205554">
        <ele>2102.000000</ele>
        <time>2020-03-29T16:09:16Z</time>
      </trkpt>
      <trkpt lat="18.998079" lon="-99.205456">
        <ele>2100.000000</ele>
        <time>2020-03-29T16:09:27Z</time>
      </trkpt>
      <trkpt lat="18.997976" lon="-99.205463">
        <ele>2100.000000</ele>
        <time>2020-03-29T16:09:34Z</time>
      </trkpt>
      <trkpt lat="18.997847" lon="-99.205437">
        <ele>2097.000000</ele>
        <time>2020-03-29T16:09:42Z</time>
      </trkpt>
      <trkpt lat="18.997634" lon="-99.205255">
        <ele>2094.000000</ele>
        <time>2020-03-29T16:10:04Z</time>
      </trkpt>
      <trkpt lat="18.997336" lon="-99.205159">
        <ele>2085.000000</ele>
        <time>2020-03-29T16:10:29Z</time>
      </trkpt>
      <trkpt lat="18.997247" lon="-99.205093">
        <ele>2084.000000</ele>
        <time>2020-03-29T16:10:38Z</time>
      </trkpt>
      <trkpt lat="18.997189" lon="-99.205003">
        <ele>2080.000000</ele>
        <time>2020-03-29T16:10:48Z</time>
      </trkpt>
      <trkpt lat="18.997089" lon="-99.204971">
        <ele>2080.000000</ele>
        <time>2020-03-29T16:10:56Z</time>
      </trkpt>
      <trkpt lat="18.996991" lon="-99.204909">
        <ele>2079.000000</ele>
        <time>2020-03-29T16:11:06Z</time>
      </trkpt>
      <trkpt lat="18.996954" lon="-99.204909">
        <ele>2076.000000</ele>
        <time>2020-03-29T16:11:10Z</time>
      </trkpt>
      <trkpt lat="18.996931" lon="-99.204987">
        <ele>2078.000000</ele>
        <time>2020-03-29T16:11:16Z</time>
      </trkpt>
      <trkpt lat="18.996887" lon="-99.205042">
        <ele>2076.000000</ele>
        <time>2020-03-29T16:11:21Z</time>
      </trkpt>
      <trkpt lat="18.996835" lon="-99.205222">
        <ele>2074.000000</ele>
        <time>2020-03-29T16:11:37Z</time>
      </trkpt>
      <trkpt lat="18.996818" lon="-99.205255">
        <ele>2076.000000</ele>
        <time>2020-03-29T16:11:41Z</time>
      </trkpt>
      <trkpt lat="18.996809" lon="-99.205340">
        <ele>2078.000000</ele>
        <time>2020-03-29T16:11:48Z</time>
      </trkpt>
      <trkpt lat="18.996758" lon="-99.205391">
        <ele>2079.000000</ele>
        <time>2020-03-29T16:11:54Z</time>
      </trkpt>
      <trkpt lat="18.996548" lon="-99.205439">
        <ele>2079.000000</ele>
        <time>2020-03-29T16:12:13Z</time>
      </trkpt>
      <trkpt lat="18.996428" lon="-99.205534">
        <ele>2079.000000</ele>
        <time>2020-03-29T16:12:24Z</time>
      </trkpt>
      <trkpt lat="18.996274" lon="-99.205600">
        <ele>2076.000000</ele>
        <time>2020-03-29T16:12:36Z</time>
      </trkpt>
      <trkpt lat="18.996207" lon="-99.205602">
        <ele>2077.200000</ele>
        <time>2020-03-29T16:12:41Z</time>
      </trkpt>
      <trkpt lat="18.996146" lon="-99.205619">
        <ele>2076.000000</ele>
        <time>2020-03-29T16:12:45Z</time>
      </trkpt>
      <trkpt lat="18.996017" lon="-99.205703">
        <ele>2073.000000</ele>
        <time>2020-03-29T16:12:56Z</time>
      </trkpt>
      <trkpt lat="18.995978" lon="-99.205692">
        <ele>2073.000000</ele>
        <time>2020-03-29T16:12:59Z</time>
      </trkpt>
      <trkpt lat="18.995899" lon="-99.205611">
        <ele>2072.000000</ele>
        <time>2020-03-29T16:13:09Z</time>
      </trkpt>
      <trkpt lat="18.995774" lon="-99.205536">
        <ele>2070.000000</ele>
        <time>2020-03-29T16:13:19Z</time>
      </trkpt>
      <trkpt lat="18.995712" lon="-99.205514">
        <ele>2069.000000</ele>
        <time>2020-03-29T16:13:26Z</time>
      </trkpt>
      <trkpt lat="18.995625" lon="-99.205438">
        <ele>2067.000000</ele>
        <time>2020-03-29T16:13:35Z</time>
      </trkpt>
      <trkpt lat="18.995569" lon="-99.205405">
        <ele>2066.000000</ele>
        <time>2020-03-29T16:13:40Z</time>
      </trkpt>
      <trkpt lat="18.995470" lon="-99.205357">
        <ele>2066.000000</ele>
        <time>2020-03-29T16:13:48Z</time>
      </trkpt>
      <trkpt lat="18.995328" lon="-99.205324">
        <ele>2064.000000</ele>
        <time>2020-03-29T16:13:57Z</time>
      </trkpt>
      <trkpt lat="18.995122" lon="-99.205191">
        <ele>2061.000000</ele>
        <time>2020-03-29T16:14:12Z</time>
      </trkpt>
      <trkpt lat="18.995063" lon="-99.205133">
        <ele>2056.000000</ele>
        <time>2020-03-29T16:14:21Z</time>
      </trkpt>
      <trkpt lat="18.994993" lon="-99.205120">
        <ele>2058.000000</ele>
        <time>2020-03-29T16:14:28Z</time>
      </trkpt>
      <trkpt lat="18.994896" lon="-99.205150">
        <ele>2059.200000</ele>
        <time>2020-03-29T16:14:35Z</time>
      </trkpt>
      <trkpt lat="18.994833" lon="-99.205153">
        <ele>2058.000000</ele>
        <time>2020-03-29T16:14:40Z</time>
      </trkpt>
      <trkpt lat="18.994772" lon="-99.205191">
        <ele>2055.000000</ele>
        <time>2020-03-29T16:14:46Z</time>
      </trkpt>
      <trkpt lat="18.994638" lon="-99.205385">
        <ele>2054.000000</ele>
        <time>2020-03-29T16:15:04Z</time>
      </trkpt>
      <trkpt lat="18.994413" lon="-99.205444">
        <ele>2052.000000</ele>
        <time>2020-03-29T16:15:20Z</time>
      </trkpt>
      <trkpt lat="18.994336" lon="-99.205444">
        <ele>2050.000000</ele>
        <time>2020-03-29T16:15:26Z</time>
      </trkpt>
      <trkpt lat="18.994287" lon="-99.205483">
        <ele>2049.000000</ele>
        <time>2020-03-29T16:15:30Z</time>
      </trkpt>
      <trkpt lat="18.994270" lon="-99.205526">
        <ele>2048.000000</ele>
        <time>2020-03-29T16:15:38Z</time>
      </trkpt>
      <trkpt lat="18.994202" lon="-99.205563">
        <ele>2046.000000</ele>
        <time>2020-03-29T16:15:44Z</time>
      </trkpt>
      <trkpt lat="18.994102" lon="-99.205590">
        <ele>2046.000000</ele>
        <time>2020-03-29T16:15:53Z</time>
      </trkpt>
      <trkpt lat="18.993997" lon="-99.205580">
        <ele>2043.000000</ele>
        <time>2020-03-29T16:16:02Z</time>
      </trkpt>
      <trkpt lat="18.993965" lon="-99.205596">
        <ele>2043.000000</ele>
        <time>2020-03-29T16:16:05Z</time>
      </trkpt>
      <trkpt lat="18.993877" lon="-99.205689">
        <ele>2041.000000</ele>
        <time>2020-03-29T16:16:19Z</time>
      </trkpt>
      <trkpt lat="18.993817" lon="-99.205783">
        <ele>2040.000000</ele>
        <time>2020-03-29T16:16:30Z</time>
      </trkpt>
      <trkpt lat="18.993788" lon="-99.205803">
        <ele>2040.000000</ele>
        <time>2020-03-29T16:16:34Z</time>
      </trkpt>
      <trkpt lat="18.993682" lon="-99.205809">
        <ele>2037.000000</ele>
        <time>2020-03-29T16:16:43Z</time>
      </trkpt>
      <trkpt lat="18.993575" lon="-99.205859">
        <ele>2035.000000</ele>
        <time>2020-03-29T16:16:54Z</time>
      </trkpt>
      <trkpt lat="18.993571" lon="-99.205927">
        <ele>2038.000000</ele>
        <time>2020-03-29T16:17:00Z</time>
      </trkpt>
      <trkpt lat="18.993533" lon="-99.205929">
        <ele>2036.000000</ele>
        <time>2020-03-29T16:17:08Z</time>
      </trkpt>
      <trkpt lat="18.993499" lon="-99.205942">
        <ele>2034.000000</ele>
        <time>2020-03-29T16:17:11Z</time>
      </trkpt>
      <trkpt lat="18.993445" lon="-99.205985">
        <ele>2034.000000</ele>
        <time>2020-03-29T16:17:17Z</time>
      </trkpt>
      <trkpt lat="18.993413" lon="-99.205987">
        <ele>2031.000000</ele>
        <time>2020-03-29T16:17:20Z</time>
      </trkpt>
      <trkpt lat="18.993307" lon="-99.206083">
        <ele>2031.000000</ele>
        <time>2020-03-29T16:17:31Z</time>
      </trkpt>
      <trkpt lat="18.993277" lon="-99.206143">
        <ele>2032.000000</ele>
        <time>2020-03-29T16:17:38Z</time>
      </trkpt>
      <trkpt lat="18.993226" lon="-99.206191">
        <ele>2032.000000</ele>
        <time>2020-03-29T16:17:45Z</time>
      </trkpt>
      <trkpt lat="18.993172" lon="-99.206220">
        <ele>2030.000000</ele>
        <time>2020-03-29T16:17:50Z</time>
      </trkpt>
      <trkpt lat="18.993077" lon="-99.206200">
        <ele>2028.000000</ele>
        <time>2020-03-29T16:17:57Z</time>
      </trkpt>
      <trkpt lat="18.993048" lon="-99.206212">
        <ele>2028.000000</ele>
        <time>2020-03-29T16:18:00Z</time>
      </trkpt>
      <trkpt lat="18.992951" lon="-99.206309">
        <ele>2025.000000</ele>
        <time>2020-03-29T16:18:16Z</time>
      </trkpt>
      <trkpt lat="18.992921" lon="-99.206320">
        <ele>2025.000000</ele>
        <time>2020-03-29T16:18:21Z</time>
      </trkpt>
      <trkpt lat="18.992888" lon="-99.206312">
        <ele>2023.000000</ele>
        <time>2020-03-29T16:18:25Z</time>
      </trkpt>
      <trkpt lat="18.992858" lon="-99.206287">
        <ele>2024.000000</ele>
        <time>2020-03-29T16:18:29Z</time>
      </trkpt>
      <trkpt lat="18.992757" lon="-99.206283">
        <ele>2020.000000</ele>
        <time>2020-03-29T16:18:43Z</time>
      </trkpt>
      <trkpt lat="18.992718" lon="-99.206248">
        <ele>2020.000000</ele>
        <time>2020-03-29T16:18:53Z</time>
      </trkpt>
      <trkpt lat="18.992651" lon="-99.206249">
        <ele>2019.000000</ele>
        <time>2020-03-29T16:19:01Z</time>
      </trkpt>
      <trkpt lat="18.992553" lon="-99.206276">
        <ele>2015.000000</ele>
        <time>2020-03-29T16:19:11Z</time>
      </trkpt>
      <trkpt lat="18.992522" lon="-99.206268">
        <ele>2016.000000</ele>
        <time>2020-03-29T16:19:16Z</time>
      </trkpt>
      <trkpt lat="18.992487" lon="-99.206300">
        <ele>2016.000000</ele>
        <time>2020-03-29T16:19:20Z</time>
      </trkpt>
      <trkpt lat="18.992432" lon="-99.206290">
        <ele>2013.000000</ele>
        <time>2020-03-29T16:19:25Z</time>
      </trkpt>
      <trkpt lat="18.992356" lon="-99.206309">
        <ele>2014.000000</ele>
        <time>2020-03-29T16:19:32Z</time>
      </trkpt>
      <trkpt lat="18.992236" lon="-99.206238">
        <ele>2010.000000</ele>
        <time>2020-03-29T16:19:44Z</time>
      </trkpt>
      <trkpt lat="18.992205" lon="-99.206247">
        <ele>2010.000000</ele>
        <time>2020-03-29T16:19:47Z</time>
      </trkpt>
      <trkpt lat="18.992137" lon="-99.206307">
        <ele>2009.000000</ele>
        <time>2020-03-29T16:19:55Z</time>
      </trkpt>
      <trkpt lat="18.992050" lon="-99.206286">
        <ele>2008.000000</ele>
        <time>2020-03-29T16:20:04Z</time>
      </trkpt>
      <trkpt lat="18.991844" lon="-99.206313">
        <ele>2004.000000</ele>
        <time>2020-03-29T16:20:20Z</time>
      </trkpt>
      <trkpt lat="18.991767" lon="-99.206306">
        <ele>2004.000000</ele>
        <time>2020-03-29T16:20:26Z</time>
      </trkpt>
      <trkpt lat="18.991745" lon="-99.206330">
        <ele>2001.000000</ele>
        <time>2020-03-29T16:20:29Z</time>
      </trkpt>
      <trkpt lat="18.991721" lon="-99.206449">
        <ele>2000.000000</ele>
        <time>2020-03-29T16:20:36Z</time>
      </trkpt>
      <trkpt lat="18.991685" lon="-99.206504">
        <ele>2000.000000</ele>
        <time>2020-03-29T16:20:40Z</time>
      </trkpt>
      <trkpt lat="18.991601" lon="-99.206558">
        <ele>1999.000000</ele>
        <time>2020-03-29T16:20:46Z</time>
      </trkpt>
      <trkpt lat="18.991487" lon="-99.206589">
        <ele>1998.000000</ele>
        <time>2020-03-29T16:20:53Z</time>
      </trkpt>
      <trkpt lat="18.991425" lon="-99.206625">
        <ele>1997.000000</ele>
        <time>2020-03-29T16:20:57Z</time>
      </trkpt>
      <trkpt lat="18.991372" lon="-99.206741">
        <ele>1996.000000</ele>
        <time>2020-03-29T16:21:03Z</time>
      </trkpt>
      <trkpt lat="18.991326" lon="-99.206790">
        <ele>1994.000000</ele>
        <time>2020-03-29T16:21:07Z</time>
      </trkpt>
      <trkpt lat="18.991256" lon="-99.206834">
        <ele>1994.000000</ele>
        <time>2020-03-29T16:21:10Z</time>
      </trkpt>
      <trkpt lat="18.991177" lon="-99.206859">
        <ele>1992.000000</ele>
        <time>2020-03-29T16:21:16Z</time>
      </trkpt>
      <trkpt lat="18.991060" lon="-99.206866">
        <ele>1989.000000</ele>
        <time>2020-03-29T16:21:25Z</time>
      </trkpt>
      <trkpt lat="18.990985" lon="-99.206936">
        <ele>1990.000000</ele>
        <time>2020-03-29T16:21:32Z</time>
      </trkpt>
      <trkpt lat="18.990921" lon="-99.206964">
        <ele>1990.000000</ele>
        <time>2020-03-29T16:21:37Z</time>
      </trkpt>
      <trkpt lat="18.990850" lon="-99.206974">
        <ele>1989.000000</ele>
        <time>2020-03-29T16:21:42Z</time>
      </trkpt>
      <trkpt lat="18.990776" lon="-99.206956">
        <ele>1989.000000</ele>
        <time>2020-03-29T16:21:47Z</time>
      </trkpt>
      <trkpt lat="18.990711" lon="-99.206965">
        <ele>1988.000000</ele>
        <time>2020-03-29T16:21:51Z</time>
      </trkpt>
      <trkpt lat="18.990573" lon="-99.207073">
        <ele>1986.000000</ele>
        <time>2020-03-29T16:22:06Z</time>
      </trkpt>
      <trkpt lat="18.990557" lon="-99.207135">
        <ele>1986.000000</ele>
        <time>2020-03-29T16:22:12Z</time>
      </trkpt>
      <trkpt lat="18.990562" lon="-99.207214">
        <ele>1986.000000</ele>
        <time>2020-03-29T16:22:16Z</time>
      </trkpt>
      <trkpt lat="18.990591" lon="-99.207324">
        <ele>1985.000000</ele>
        <time>2020-03-29T16:22:25Z</time>
      </trkpt>
      <trkpt lat="18.990577" lon="-99.207370">
        <ele>1984.000000</ele>
        <time>2020-03-29T16:22:27Z</time>
      </trkpt>
      <trkpt lat="18.990541" lon="-99.207401">
        <ele>1984.000000</ele>
        <time>2020-03-29T16:22:29Z</time>
      </trkpt>
      <trkpt lat="18.990410" lon="-99.207475">
        <ele>1986.000000</ele>
        <time>2020-03-29T16:22:37Z</time>
      </trkpt>
      <trkpt lat="18.990389" lon="-99.207506">
        <ele>1986.000000</ele>
        <time>2020-03-29T16:22:40Z</time>
      </trkpt>
      <trkpt lat="18.990392" lon="-99.207568">
        <ele>1986.000000</ele>
        <time>2020-03-29T16:22:45Z</time>
      </trkpt>
      <trkpt lat="18.990278" lon="-99.208011">
        <ele>1986.000000</ele>
        <time>2020-03-29T16:23:19Z</time>
      </trkpt>
      <trkpt lat="18.990267" lon="-99.208097">
        <ele>1985.000000</ele>
        <time>2020-03-29T16:23:25Z</time>
      </trkpt>
      <trkpt lat="18.990186" lon="-99.208117">
        <ele>1986.000000</ele>
        <time>2020-03-29T16:23:32Z</time>
      </trkpt>
      <trkpt lat="18.989916" lon="-99.208254">
        <ele>1986.000000</ele>
        <time>2020-03-29T16:23:57Z</time>
      </trkpt>
      <trkpt lat="18.989813" lon="-99.208281">
        <ele>1986.000000</ele>
        <time>2020-03-29T16:24:05Z</time>
      </trkpt>
      <trkpt lat="18.989737" lon="-99.208289">
        <ele>1986.000000</ele>
        <time>2020-03-29T16:24:10Z</time>
      </trkpt>
      <trkpt lat="18.989660" lon="-99.208278">
        <ele>1986.000000</ele>
        <time>2020-03-29T16:24:16Z</time>
      </trkpt>
      <trkpt lat="18.989525" lon="-99.208316">
        <ele>1985.000000</ele>
        <time>2020-03-29T16:24:26Z</time>
      </trkpt>
      <trkpt lat="18.989460" lon="-99.208346">
        <ele>1984.000000</ele>
        <time>2020-03-29T16:24:30Z</time>
      </trkpt>
      <trkpt lat="18.989294" lon="-99.208340">
        <ele>1986.000000</ele>
        <time>2020-03-29T16:24:41Z</time>
      </trkpt>
      <trkpt lat="18.989177" lon="-99.208314">
        <ele>1984.000000</ele>
        <time>2020-03-29T16:24:47Z</time>
      </trkpt>
      <trkpt lat="18.989074" lon="-99.208318">
        <ele>1982.000000</ele>
        <time>2020-03-29T16:24:51Z</time>
      </trkpt>
      <trkpt lat="18.988968" lon="-99.208357">
        <ele>1982.000000</ele>
        <time>2020-03-29T16:24:57Z</time>
      </trkpt>
      <trkpt lat="18.988931" lon="-99.208360">
        <ele>1982.000000</ele>
        <time>2020-03-29T16:24:59Z</time>
      </trkpt>
      <trkpt lat="18.988859" lon="-99.208340">
        <ele>1980.000000</ele>
        <time>2020-03-29T16:25:03Z</time>
      </trkpt>
      <trkpt lat="18.988715" lon="-99.208372">
        <ele>1980.000000</ele>
        <time>2020-03-29T16:25:14Z</time>
      </trkpt>
      <trkpt lat="18.988625" lon="-99.208528">
        <ele>1978.000000</ele>
        <time>2020-03-29T16:25:25Z</time>
      </trkpt>
      <trkpt lat="18.988573" lon="-99.208577">
        <ele>1978.000000</ele>
        <time>2020-03-29T16:25:29Z</time>
      </trkpt>
      <trkpt lat="18.988470" lon="-99.208608">
        <ele>1978.000000</ele>
        <time>2020-03-29T16:25:36Z</time>
      </trkpt>
      <trkpt lat="18.988390" lon="-99.208619">
        <ele>1977.000000</ele>
        <time>2020-03-29T16:25:40Z</time>
      </trkpt>
      <trkpt lat="18.988300" lon="-99.208674">
        <ele>1976.000000</ele>
        <time>2020-03-29T16:25:47Z</time>
      </trkpt>
      <trkpt lat="18.988259" lon="-99.208681">
        <ele>1974.000000</ele>
        <time>2020-03-29T16:25:50Z</time>
      </trkpt>
      <trkpt lat="18.988197" lon="-99.208720">
        <ele>1974.000000</ele>
        <time>2020-03-29T16:25:55Z</time>
      </trkpt>
      <trkpt lat="18.988081" lon="-99.208765">
        <ele>1975.000000</ele>
        <time>2020-03-29T16:26:07Z</time>
      </trkpt>
      <trkpt lat="18.988027" lon="-99.208826">
        <ele>1976.500000</ele>
        <time>2020-03-29T16:26:14Z</time>
      </trkpt>
      <trkpt lat="18.987871" lon="-99.208911">
        <ele>1976.000000</ele>
        <time>2020-03-29T16:26:28Z</time>
      </trkpt>
      <trkpt lat="18.987818" lon="-99.208950">
        <ele>1976.000000</ele>
        <time>2020-03-29T16:26:32Z</time>
      </trkpt>
      <trkpt lat="18.987787" lon="-99.209008">
        <ele>1976.000000</ele>
        <time>2020-03-29T16:26:36Z</time>
      </trkpt>
      <trkpt lat="18.987724" lon="-99.209041">
        <ele>1974.000000</ele>
        <time>2020-03-29T16:26:41Z</time>
      </trkpt>
      <trkpt lat="18.987625" lon="-99.209150">
        <ele>1974.000000</ele>
        <time>2020-03-29T16:26:51Z</time>
      </trkpt>
      <trkpt lat="18.987586" lon="-99.209218">
        <ele>1974.000000</ele>
        <time>2020-03-29T16:26:57Z</time>
      </trkpt>
      <trkpt lat="18.987465" lon="-99.209349">
        <ele>1972.000000</ele>
        <time>2020-03-29T16:27:11Z</time>
      </trkpt>
      <trkpt lat="18.987379" lon="-99.209407">
        <ele>1972.000000</ele>
        <time>2020-03-29T16:27:17Z</time>
      </trkpt>
      <trkpt lat="18.987273" lon="-99.209586">
        <ele>1971.000000</ele>
        <time>2020-03-29T16:27:30Z</time>
      </trkpt>
      <trkpt lat="18.987249" lon="-99.209697">
        <ele>1971.000000</ele>
        <time>2020-03-29T16:27:37Z</time>
      </trkpt>
      <trkpt lat="18.987246" lon="-99.209928">
        <ele>1973.000000</ele>
        <time>2020-03-29T16:27:50Z</time>
      </trkpt>
      <trkpt lat="18.987228" lon="-99.210074">
        <ele>1974.000000</ele>
        <time>2020-03-29T16:28:00Z</time>
      </trkpt>
      <trkpt lat="18.987226" lon="-99.210188">
        <ele>1974.000000</ele>
        <time>2020-03-29T16:28:07Z</time>
      </trkpt>
      <trkpt lat="18.987261" lon="-99.210359">
        <ele>1974.000000</ele>
        <time>2020-03-29T16:28:17Z</time>
      </trkpt>
      <trkpt lat="18.987264" lon="-99.210435">
        <ele>1973.000000</ele>
        <time>2020-03-29T16:28:22Z</time>
      </trkpt>
      <trkpt lat="18.987301" lon="-99.210550">
        <ele>1972.000000</ele>
        <time>2020-03-29T16:28:29Z</time>
      </trkpt>
      <trkpt lat="18.987407" lon="-99.210657">
        <ele>1970.000000</ele>
        <time>2020-03-29T16:28:36Z</time>
      </trkpt>
      <trkpt lat="18.987475" lon="-99.210683">
        <ele>1968.000000</ele>
        <time>2020-03-29T16:28:41Z</time>
      </trkpt>
      <trkpt lat="18.987495" lon="-99.210740">
        <ele>1968.000000</ele>
        <time>2020-03-29T16:28:44Z</time>
      </trkpt>
      <trkpt lat="18.987486" lon="-99.210940">
        <ele>1968.000000</ele>
        <time>2020-03-29T16:28:52Z</time>
      </trkpt>
      <trkpt lat="18.987459" lon="-99.210961">
        <ele>1968.000000</ele>
        <time>2020-03-29T16:28:54Z</time>
      </trkpt>
      <trkpt lat="18.987426" lon="-99.210963">
        <ele>1968.000000</ele>
        <time>2020-03-29T16:28:56Z</time>
      </trkpt>
      <trkpt lat="18.987322" lon="-99.210935">
        <ele>1968.000000</ele>
        <time>2020-03-29T16:29:01Z</time>
      </trkpt>
      <trkpt lat="18.987238" lon="-99.210951">
        <ele>1968.000000</ele>
        <time>2020-03-29T16:29:05Z</time>
      </trkpt>
      <trkpt lat="18.987087" lon="-99.211117">
        <ele>1968.000000</ele>
        <time>2020-03-29T16:29:20Z</time>
      </trkpt>
      <trkpt lat="18.987005" lon="-99.211254">
        <ele>1970.000000</ele>
        <time>2020-03-29T16:29:33Z</time>
      </trkpt>
      <trkpt lat="18.986733" lon="-99.211515">
        <ele>1968.000000</ele>
        <time>2020-03-29T16:29:57Z</time>
      </trkpt>
      <trkpt lat="18.986714" lon="-99.211543">
        <ele>1968.000000</ele>
        <time>2020-03-29T16:30:00Z</time>
      </trkpt>
      <trkpt lat="18.986694" lon="-99.211623">
        <ele>1968.000000</ele>
        <time>2020-03-29T16:30:07Z</time>
      </trkpt>
      <trkpt lat="18.986652" lon="-99.211714">
        <ele>1968.000000</ele>
        <time>2020-03-29T16:30:14Z</time>
      </trkpt>
      <trkpt lat="18.986632" lon="-99.211803">
        <ele>1969.300000</ele>
        <time>2020-03-29T16:30:20Z</time>
      </trkpt>
      <trkpt lat="18.986592" lon="-99.211865">
        <ele>1968.000000</ele>
        <time>2020-03-29T16:30:26Z</time>
      </trkpt>
      <trkpt lat="18.986554" lon="-99.211953">
        <ele>1968.000000</ele>
        <time>2020-03-29T16:30:31Z</time>
      </trkpt>
      <trkpt lat="18.986498" lon="-99.212019">
        <ele>1968.000000</ele>
        <time>2020-03-29T16:30:35Z</time>
      </trkpt>
      <trkpt lat="18.986427" lon="-99.212050">
        <ele>1968.000000</ele>
        <time>2020-03-29T16:30:40Z</time>
      </trkpt>
      <trkpt lat="18.986368" lon="-99.212100">
        <ele>1967.000000</ele>
        <time>2020-03-29T16:30:44Z</time>
      </trkpt>
      <trkpt lat="18.986337" lon="-99.212159">
        <ele>1966.000000</ele>
        <time>2020-03-29T16:30:48Z</time>
      </trkpt>
      <trkpt lat="18.986320" lon="-99.212240">
        <ele>1966.000000</ele>
        <time>2020-03-29T16:30:52Z</time>
      </trkpt>
      <trkpt lat="18.986268" lon="-99.212297">
        <ele>1966.500000</ele>
        <time>2020-03-29T16:30:54Z</time>
      </trkpt>
      <trkpt lat="18.986168" lon="-99.212379">
        <ele>1966.000000</ele>
        <time>2020-03-29T16:31:01Z</time>
      </trkpt>
      <trkpt lat="18.985985" lon="-99.212677">
        <ele>1964.000000</ele>
        <time>2020-03-29T16:31:13Z</time>
      </trkpt>
      <trkpt lat="18.985833" lon="-99.212793">
        <ele>1962.000000</ele>
        <time>2020-03-29T16:31:21Z</time>
      </trkpt>
      <trkpt lat="18.985738" lon="-99.212895">
        <ele>1962.000000</ele>
        <time>2020-03-29T16:31:29Z</time>
      </trkpt>
      <trkpt lat="18.985725" lon="-99.212936">
        <ele>1962.000000</ele>
        <time>2020-03-29T16:31:32Z</time>
      </trkpt>
      <trkpt lat="18.985747" lon="-99.213042">
        <ele>1961.000000</ele>
        <time>2020-03-29T16:31:41Z</time>
      </trkpt>
      <trkpt lat="18.985727" lon="-99.213080">
        <ele>1962.000000</ele>
        <time>2020-03-29T16:31:43Z</time>
      </trkpt>
      <trkpt lat="18.985658" lon="-99.213139">
        <ele>1962.000000</ele>
        <time>2020-03-29T16:31:47Z</time>
      </trkpt>
      <trkpt lat="18.985630" lon="-99.213180">
        <ele>1962.600000</ele>
        <time>2020-03-29T16:31:48Z</time>
      </trkpt>
      <trkpt lat="18.985583" lon="-99.213294">
        <ele>1960.000000</ele>
        <time>2020-03-29T16:31:53Z</time>
      </trkpt>
      <trkpt lat="18.985533" lon="-99.213368">
        <ele>1960.000000</ele>
        <time>2020-03-29T16:31:56Z</time>
      </trkpt>
      <trkpt lat="18.985415" lon="-99.213449">
        <ele>1958.000000</ele>
        <time>2020-03-29T16:32:02Z</time>
      </trkpt>
      <trkpt lat="18.985398" lon="-99.213492">
        <ele>1956.000000</ele>
        <time>2020-03-29T16:32:04Z</time>
      </trkpt>
      <trkpt lat="18.985387" lon="-99.213659">
        <ele>1955.000000</ele>
        <time>2020-03-29T16:32:10Z</time>
      </trkpt>
      <trkpt lat="18.985358" lon="-99.213707">
        <ele>1954.000000</ele>
        <time>2020-03-29T16:32:12Z</time>
      </trkpt>
      <trkpt lat="18.985292" lon="-99.213750">
        <ele>1955.600000</ele>
        <time>2020-03-29T16:32:14Z</time>
      </trkpt>
      <trkpt lat="18.985079" lon="-99.213841">
        <ele>1955.400000</ele>
        <time>2020-03-29T16:32:21Z</time>
      </trkpt>
      <trkpt lat="18.985032" lon="-99.213886">
        <ele>1954.900000</ele>
        <time>2020-03-29T16:32:23Z</time>
      </trkpt>
      <trkpt lat="18.984901" lon="-99.214047">
        <ele>1954.000000</ele>
        <time>2020-03-29T16:32:30Z</time>
      </trkpt>
      <trkpt lat="18.984817" lon="-99.214108">
        <ele>1955.000000</ele>
        <time>2020-03-29T16:32:40Z</time>
      </trkpt>
      <trkpt lat="18.984753" lon="-99.214141">
        <ele>1954.000000</ele>
        <time>2020-03-29T16:32:46Z</time>
      </trkpt>
      <trkpt lat="18.984605" lon="-99.214258">
        <ele>1953.000000</ele>
        <time>2020-03-29T16:33:00Z</time>
      </trkpt>
      <trkpt lat="18.984590" lon="-99.214293">
        <ele>1953.000000</ele>
        <time>2020-03-29T16:33:03Z</time>
      </trkpt>
      <trkpt lat="18.984583" lon="-99.214355">
        <ele>1956.000000</ele>
        <time>2020-03-29T16:33:09Z</time>
      </trkpt>
      <trkpt lat="18.984530" lon="-99.214408">
        <ele>1956.000000</ele>
        <time>2020-03-29T16:33:14Z</time>
      </trkpt>
      <trkpt lat="18.984466" lon="-99.214544">
        <ele>1956.000000</ele>
        <time>2020-03-29T16:33:24Z</time>
      </trkpt>
      <trkpt lat="18.984341" lon="-99.214701">
        <ele>1954.000000</ele>
        <time>2020-03-29T16:33:36Z</time>
      </trkpt>
      <trkpt lat="18.984292" lon="-99.214819">
        <ele>1954.000000</ele>
        <time>2020-03-29T16:33:46Z</time>
      </trkpt>
      <trkpt lat="18.984284" lon="-99.214938">
        <ele>1956.000000</ele>
        <time>2020-03-29T16:33:55Z</time>
      </trkpt>
      <trkpt lat="18.984266" lon="-99.215013">
        <ele>1956.000000</ele>
        <time>2020-03-29T16:34:00Z</time>
      </trkpt>
      <trkpt lat="18.984285" lon="-99.215224">
        <ele>1956.000000</ele>
        <time>2020-03-29T16:34:14Z</time>
      </trkpt>
      <trkpt lat="18.984278" lon="-99.215362">
        <ele>1954.000000</ele>
        <time>2020-03-29T16:34:23Z</time>
      </trkpt>
      <trkpt lat="18.984292" lon="-99.215577">
        <ele>1948.000000</ele>
        <time>2020-03-29T16:34:36Z</time>
      </trkpt>
      <trkpt lat="18.984316" lon="-99.215681">
        <ele>1947.000000</ele>
        <time>2020-03-29T16:34:45Z</time>
      </trkpt>
      <trkpt lat="18.984315" lon="-99.215716">
        <ele>1946.000000</ele>
        <time>2020-03-29T16:34:48Z</time>
      </trkpt>
      <trkpt lat="18.984279" lon="-99.215814">
        <ele>1946.000000</ele>
        <time>2020-03-29T16:34:55Z</time>
      </trkpt>
      <trkpt lat="18.984245" lon="-99.215875">
        <ele>1944.000000</ele>
        <time>2020-03-29T16:35:00Z</time>
      </trkpt>
      <trkpt lat="18.984236" lon="-99.216035">
        <ele>1944.000000</ele>
        <time>2020-03-29T16:35:12Z</time>
      </trkpt>
      <trkpt lat="18.984174" lon="-99.216277">
        <ele>1943.000000</ele>
        <time>2020-03-29T16:35:31Z</time>
      </trkpt>
      <trkpt lat="18.984182" lon="-99.216349">
        <ele>1941.000000</ele>
        <time>2020-03-29T16:35:37Z</time>
      </trkpt>
      <trkpt lat="18.984158" lon="-99.216414">
        <ele>1941.000000</ele>
        <time>2020-03-29T16:35:43Z</time>
      </trkpt>
      <trkpt lat="18.984040" lon="-99.216510">
        <ele>1940.000000</ele>
        <time>2020-03-29T16:35:57Z</time>
      </trkpt>
      <trkpt lat="18.983986" lon="-99.216569">
        <ele>1941.000000</ele>
        <time>2020-03-29T16:36:03Z</time>
      </trkpt>
      <trkpt lat="18.983861" lon="-99.216650">
        <ele>1941.000000</ele>
        <time>2020-03-29T16:36:14Z</time>
      </trkpt>
      <trkpt lat="18.983781" lon="-99.216819">
        <ele>1940.000000</ele>
        <time>2020-03-29T16:36:25Z</time>
      </trkpt>
      <trkpt lat="18.983752" lon="-99.216846">
        <ele>1939.000000</ele>
        <time>2020-03-29T16:36:27Z</time>
      </trkpt>
      <trkpt lat="18.983482" lon="-99.217013">
        <ele>1936.300000</ele>
        <time>2020-03-29T16:36:38Z</time>
      </trkpt>
      <trkpt lat="18.983447" lon="-99.217074">
        <ele>1936.100000</ele>
        <time>2020-03-29T16:36:40Z</time>
      </trkpt>
      <trkpt lat="18.983403" lon="-99.217202">
        <ele>1934.000000</ele>
        <time>2020-03-29T16:36:45Z</time>
      </trkpt>
      <trkpt lat="18.983206" lon="-99.217400">
        <ele>1930.000000</ele>
        <time>2020-03-29T16:36:57Z</time>
      </trkpt>
      <trkpt lat="18.983161" lon="-99.217490">
        <ele>1928.000000</ele>
        <time>2020-03-29T16:37:01Z</time>
      </trkpt>
      <trkpt lat="18.983124" lon="-99.217523">
        <ele>1928.000000</ele>
        <time>2020-03-29T16:37:03Z</time>
      </trkpt>
      <trkpt lat="18.983042" lon="-99.217564">
        <ele>1926.000000</ele>
        <time>2020-03-29T16:37:06Z</time>
      </trkpt>
      <trkpt lat="18.982904" lon="-99.217611">
        <ele>1924.000000</ele>
        <time>2020-03-29T16:37:13Z</time>
      </trkpt>
      <trkpt lat="18.982804" lon="-99.217578">
        <ele>1923.000000</ele>
        <time>2020-03-29T16:37:17Z</time>
      </trkpt>
      <trkpt lat="18.982763" lon="-99.217580">
        <ele>1922.000000</ele>
        <time>2020-03-29T16:37:19Z</time>
      </trkpt>
      <trkpt lat="18.982735" lon="-99.217601">
        <ele>1922.000000</ele>
        <time>2020-03-29T16:37:21Z</time>
      </trkpt>
      <trkpt lat="18.982713" lon="-99.217683">
        <ele>1919.800000</ele>
        <time>2020-03-29T16:37:24Z</time>
      </trkpt>
      <trkpt lat="18.982723" lon="-99.217805">
        <ele>1918.000000</ele>
        <time>2020-03-29T16:37:28Z</time>
      </trkpt>
      <trkpt lat="18.982716" lon="-99.217914">
        <ele>1919.000000</ele>
        <time>2020-03-29T16:37:31Z</time>
      </trkpt>
      <trkpt lat="18.982588" lon="-99.218177">
        <ele>1918.000000</ele>
        <time>2020-03-29T16:37:42Z</time>
      </trkpt>
      <trkpt lat="18.982571" lon="-99.218337">
        <ele>1918.800000</ele>
        <time>2020-03-29T16:37:47Z</time>
      </trkpt>
      <trkpt lat="18.982595" lon="-99.218501">
        <ele>1918.000000</ele>
        <time>2020-03-29T16:37:53Z</time>
      </trkpt>
      <trkpt lat="18.982594" lon="-99.218598">
        <ele>1916.000000</ele>
        <time>2020-03-29T16:37:56Z</time>
      </trkpt>
      <trkpt lat="18.982612" lon="-99.218741">
        <ele>1915.900000</ele>
        <time>2020-03-29T16:38:02Z</time>
      </trkpt>
      <trkpt lat="18.982600" lon="-99.218838">
        <ele>1915.800000</ele>
        <time>2020-03-29T16:38:05Z</time>
      </trkpt>
      <trkpt lat="18.982610" lon="-99.218991">
        <ele>1914.000000</ele>
        <time>2020-03-29T16:38:12Z</time>
      </trkpt>
      <trkpt lat="18.982597" lon="-99.219260">
        <ele>1914.000000</ele>
        <time>2020-03-29T16:38:22Z</time>
      </trkpt>
      <trkpt lat="18.982573" lon="-99.219314">
        <ele>1914.000000</ele>
        <time>2020-03-29T16:38:24Z</time>
      </trkpt>
      <trkpt lat="18.982549" lon="-99.219339">
        <ele>1915.000000</ele>
        <time>2020-03-29T16:38:28Z</time>
      </trkpt>
      <trkpt lat="18.982561" lon="-99.219401">
        <ele>1914.000000</ele>
        <time>2020-03-29T16:38:35Z</time>
      </trkpt>
      <trkpt lat="18.982502" lon="-99.219567">
        <ele>1912.000000</ele>
        <time>2020-03-29T16:38:46Z</time>
      </trkpt>
      <trkpt lat="18.982434" lon="-99.219682">
        <ele>1911.000000</ele>
        <time>2020-03-29T16:38:56Z</time>
      </trkpt>
      <trkpt lat="18.982424" lon="-99.219722">
        <ele>1911.000000</ele>
        <time>2020-03-29T16:38:59Z</time>
      </trkpt>
      <trkpt lat="18.982433" lon="-99.219881">
        <ele>1910.000000</ele>
        <time>2020-03-29T16:39:09Z</time>
      </trkpt>
      <trkpt lat="18.982422" lon="-99.219919">
        <ele>1910.000000</ele>
        <time>2020-03-29T16:39:12Z</time>
      </trkpt>
      <trkpt lat="18.982392" lon="-99.219896">
        <ele>1908.000000</ele>
        <time>2020-03-29T16:39:17Z</time>
      </trkpt>
      <trkpt lat="18.982359" lon="-99.219915">
        <ele>1908.000000</ele>
        <time>2020-03-29T16:39:20Z</time>
      </trkpt>
      <trkpt lat="18.982337" lon="-99.219951">
        <ele>1908.000000</ele>
        <time>2020-03-29T16:39:22Z</time>
      </trkpt>
      <trkpt lat="18.982296" lon="-99.220067">
        <ele>1908.000000</ele>
        <time>2020-03-29T16:39:28Z</time>
      </trkpt>
      <trkpt lat="18.982288" lon="-99.220201">
        <ele>1906.000000</ele>
        <time>2020-03-29T16:39:36Z</time>
      </trkpt>
      <trkpt lat="18.982308" lon="-99.220240">
        <ele>1905.000000</ele>
        <time>2020-03-29T16:39:43Z</time>
      </trkpt>
      <trkpt lat="18.982384" lon="-99.220237">
        <ele>1904.000000</ele>
        <time>2020-03-29T16:39:50Z</time>
      </trkpt>
      <trkpt lat="18.982413" lon="-99.220253">
        <ele>1902.000000</ele>
        <time>2020-03-29T16:39:56Z</time>
      </trkpt>
      <trkpt lat="18.982422" lon="-99.220299">
        <ele>1902.000000</ele>
        <time>2020-03-29T16:40:01Z</time>
      </trkpt>
      <trkpt lat="18.982516" lon="-99.220383">
        <ele>1902.000000</ele>
        <time>2020-03-29T16:40:09Z</time>
      </trkpt>
      <trkpt lat="18.982489" lon="-99.220557">
        <ele>1910.000000</ele>
        <time>2020-03-29T16:40:26Z</time>
      </trkpt>
      <trkpt lat="18.982511" lon="-99.220611">
        <ele>1909.000000</ele>
        <time>2020-03-29T16:40:31Z</time>
      </trkpt>
      <trkpt lat="18.982482" lon="-99.220694">
        <ele>1908.000000</ele>
        <time>2020-03-29T16:40:37Z</time>
      </trkpt>
      <trkpt lat="18.982453" lon="-99.220828">
        <ele>1910.000000</ele>
        <time>2020-03-29T16:40:47Z</time>
      </trkpt>
      <trkpt lat="18.982463" lon="-99.220901">
        <ele>1908.000000</ele>
        <time>2020-03-29T16:40:52Z</time>
      </trkpt>
      <trkpt lat="18.982457" lon="-99.221009">
        <ele>1908.000000</ele>
        <time>2020-03-29T16:40:59Z</time>
      </trkpt>
      <trkpt lat="18.982438" lon="-99.221077">
        <ele>1908.000000</ele>
        <time>2020-03-29T16:41:04Z</time>
      </trkpt>
      <trkpt lat="18.982444" lon="-99.221141">
        <ele>1908.000000</ele>
        <time>2020-03-29T16:41:09Z</time>
      </trkpt>
      <trkpt lat="18.982388" lon="-99.221526">
        <ele>1908.000000</ele>
        <time>2020-03-29T16:41:36Z</time>
      </trkpt>
      <trkpt lat="18.982324" lon="-99.221729">
        <ele>1910.000000</ele>
        <time>2020-03-29T16:41:51Z</time>
      </trkpt>
      <trkpt lat="18.982295" lon="-99.221790">
        <ele>1910.000000</ele>
        <time>2020-03-29T16:41:54Z</time>
      </trkpt>
      <trkpt lat="18.982295" lon="-99.221834">
        <ele>1910.300000</ele>
        <time>2020-03-29T16:41:57Z</time>
      </trkpt>
      <trkpt lat="18.982325" lon="-99.221897">
        <ele>1908.000000</ele>
        <time>2020-03-29T16:42:01Z</time>
      </trkpt>
      <trkpt lat="18.982328" lon="-99.221969">
        <ele>1910.000000</ele>
        <time>2020-03-29T16:42:05Z</time>
      </trkpt>
      <trkpt lat="18.982368" lon="-99.222125">
        <ele>1910.000000</ele>
        <time>2020-03-29T16:42:13Z</time>
      </trkpt>
      <trkpt lat="18.982377" lon="-99.222273">
        <ele>1909.500000</ele>
        <time>2020-03-29T16:42:18Z</time>
      </trkpt>
      <trkpt lat="18.982360" lon="-99.222444">
        <ele>1908.700000</ele>
        <time>2020-03-29T16:42:23Z</time>
      </trkpt>
      <trkpt lat="18.982362" lon="-99.222581">
        <ele>1907.900000</ele>
        <time>2020-03-29T16:42:27Z</time>
      </trkpt>
      <trkpt lat="18.982371" lon="-99.222620">
        <ele>1907.800000</ele>
        <time>2020-03-29T16:42:28Z</time>
      </trkpt>
      <trkpt lat="18.982410" lon="-99.222698">
        <ele>1904.000000</ele>
        <time>2020-03-29T16:42:32Z</time>
      </trkpt>
      <trkpt lat="18.982380" lon="-99.222790">
        <ele>1904.000000</ele>
        <time>2020-03-29T16:42:43Z</time>
      </trkpt>
      <trkpt lat="18.982362" lon="-99.222802">
        <ele>1906.000000</ele>
        <time>2020-03-29T16:42:52Z</time>
      </trkpt>
      <trkpt lat="18.982345" lon="-99.222907">
        <ele>1906.000000</ele>
        <time>2020-03-29T16:42:57Z</time>
      </trkpt>
      <trkpt lat="18.982365" lon="-99.223037">
        <ele>1906.000000</ele>
        <time>2020-03-29T16:43:03Z</time>
      </trkpt>
      <trkpt lat="18.982422" lon="-99.223202">
        <ele>1904.000000</ele>
        <time>2020-03-29T16:43:11Z</time>
      </trkpt>
      <trkpt lat="18.982390" lon="-99.223308">
        <ele>1904.000000</ele>
        <time>2020-03-29T16:43:15Z</time>
      </trkpt>
      <trkpt lat="18.982402" lon="-99.223458">
        <ele>1904.300000</ele>
        <time>2020-03-29T16:43:20Z</time>
      </trkpt>
      <trkpt lat="18.982388" lon="-99.223563">
        <ele>1902.000000</ele>
        <time>2020-03-29T16:43:24Z</time>
      </trkpt>
      <trkpt lat="18.982398" lon="-99.223595">
        <ele>1904.000000</ele>
        <time>2020-03-29T16:43:28Z</time>
      </trkpt>
      <trkpt lat="18.982462" lon="-99.223670">
        <ele>1904.000000</ele>
        <time>2020-03-29T16:43:38Z</time>
      </trkpt>
      <trkpt lat="18.982555" lon="-99.223663">
        <ele>1902.000000</ele>
        <time>2020-03-29T16:43:45Z</time>
      </trkpt>
      <trkpt lat="18.982613" lon="-99.223720">
        <ele>1904.000000</ele>
        <time>2020-03-29T16:43:54Z</time>
      </trkpt>
      <trkpt lat="18.982550" lon="-99.223770">
        <ele>1903.000000</ele>
        <time>2020-03-29T16:44:00Z</time>
      </trkpt>
      <trkpt lat="18.982516" lon="-99.223859">
        <ele>1904.000000</ele>
        <time>2020-03-29T16:44:08Z</time>
      </trkpt>
      <trkpt lat="18.982485" lon="-99.224073">
        <ele>1906.000000</ele>
        <time>2020-03-29T16:44:21Z</time>
      </trkpt>
      <trkpt lat="18.982493" lon="-99.224158">
        <ele>1906.000000</ele>
        <time>2020-03-29T16:44:24Z</time>
      </trkpt>
      <trkpt lat="18.982539" lon="-99.224362">
        <ele>1904.000000</ele>
        <time>2020-03-29T16:44:34Z</time>
      </trkpt>
      <trkpt lat="18.982612" lon="-99.224418">
        <ele>1902.000000</ele>
        <time>2020-03-29T16:44:38Z</time>
      </trkpt>
      <trkpt lat="18.982684" lon="-99.224440">
        <ele>1902.000000</ele>
        <time>2020-03-29T16:44:43Z</time>
      </trkpt>
      <trkpt lat="18.982773" lon="-99.224493">
        <ele>1902.000000</ele>
        <time>2020-03-29T16:44:47Z</time>
      </trkpt>
      <trkpt lat="18.982820" lon="-99.224528">
        <ele>1902.000000</ele>
        <time>2020-03-29T16:44:49Z</time>
      </trkpt>
      <trkpt lat="18.982871" lon="-99.224596">
        <ele>1902.000000</ele>
        <time>2020-03-29T16:44:53Z</time>
      </trkpt>
      <trkpt lat="18.982876" lon="-99.224636">
        <ele>1902.000000</ele>
        <time>2020-03-29T16:44:55Z</time>
      </trkpt>
      <trkpt lat="18.982865" lon="-99.224743">
        <ele>1902.000000</ele>
        <time>2020-03-29T16:44:59Z</time>
      </trkpt>
      <trkpt lat="18.982894" lon="-99.224872">
        <ele>1901.000000</ele>
        <time>2020-03-29T16:45:05Z</time>
      </trkpt>
      <trkpt lat="18.982979" lon="-99.224959">
        <ele>1900.000000</ele>
        <time>2020-03-29T16:45:11Z</time>
      </trkpt>
      <trkpt lat="18.982983" lon="-99.225000">
        <ele>1900.000000</ele>
        <time>2020-03-29T16:45:13Z</time>
      </trkpt>
      <trkpt lat="18.982963" lon="-99.225108">
        <ele>1899.600000</ele>
        <time>2020-03-29T16:45:17Z</time>
      </trkpt>
      <trkpt lat="18.982909" lon="-99.225151">
        <ele>1898.000000</ele>
        <time>2020-03-29T16:45:20Z</time>
      </trkpt>
      <trkpt lat="18.982882" lon="-99.225196">
        <ele>1898.000000</ele>
        <time>2020-03-29T16:45:22Z</time>
      </trkpt>
      <trkpt lat="18.982851" lon="-99.225299">
        <ele>1898.000000</ele>
        <time>2020-03-29T16:45:26Z</time>
      </trkpt>
      <trkpt lat="18.982798" lon="-99.225380">
        <ele>1896.000000</ele>
        <time>2020-03-29T16:45:33Z</time>
      </trkpt>
      <trkpt lat="18.982755" lon="-99.225551">
        <ele>1896.000000</ele>
        <time>2020-03-29T16:45:41Z</time>
      </trkpt>
      <trkpt lat="18.982769" lon="-99.225664">
        <ele>1892.000000</ele>
        <time>2020-03-29T16:45:48Z</time>
      </trkpt>
      <trkpt lat="18.982655" lon="-99.226008">
        <ele>1890.000000</ele>
        <time>2020-03-29T16:46:01Z</time>
      </trkpt>
      <trkpt lat="18.982622" lon="-99.226067">
        <ele>1888.000000</ele>
        <time>2020-03-29T16:46:04Z</time>
      </trkpt>
      <trkpt lat="18.982578" lon="-99.226067">
        <ele>1888.700000</ele>
        <time>2020-03-29T16:46:11Z</time>
      </trkpt>
      <trkpt lat="18.982557" lon="-99.226173">
        <ele>1886.000000</ele>
        <time>2020-03-29T16:46:25Z</time>
      </trkpt>
      <trkpt lat="18.982530" lon="-99.226202">
        <ele>1884.000000</ele>
        <time>2020-03-29T16:46:27Z</time>
      </trkpt>
      <trkpt lat="18.982425" lon="-99.226261">
        <ele>1884.000000</ele>
        <time>2020-03-29T16:46:37Z</time>
      </trkpt>
      <trkpt lat="18.982394" lon="-99.226211">
        <ele>1881.000000</ele>
        <time>2020-03-29T16:46:43Z</time>
      </trkpt>
      <trkpt lat="18.982338" lon="-99.226173">
        <ele>1880.000000</ele>
        <time>2020-03-29T16:46:51Z</time>
      </trkpt>
      <trkpt lat="18.982278" lon="-99.226154">
        <ele>1882.300000</ele>
        <time>2020-03-29T16:46:53Z</time>
      </trkpt>
      <trkpt lat="18.981849" lon="-99.226239">
        <ele>1882.100000</ele>
        <time>2020-03-29T16:47:00Z</time>
      </trkpt>
      <trkpt lat="18.981867" lon="-99.226215">
        <ele>1881.800000</ele>
        <time>2020-03-29T16:47:01Z</time>
      </trkpt>
      <trkpt lat="18.981906" lon="-99.226239">
        <ele>1881.100000</ele>
        <time>2020-03-29T16:47:03Z</time>
      </trkpt>
      <trkpt lat="18.982144" lon="-99.226232">
        <ele>1881.100000</ele>
        <time>2020-03-29T16:47:04Z</time>
      </trkpt>
      <trkpt lat="18.981925" lon="-99.226318">
        <ele>1880.000000</ele>
        <time>2020-03-29T16:47:19Z</time>
      </trkpt>
      <trkpt lat="18.981888" lon="-99.226306">
        <ele>1878.000000</ele>
        <time>2020-03-29T16:47:21Z</time>
      </trkpt>
      <trkpt lat="18.981860" lon="-99.226277">
        <ele>1880.000000</ele>
        <time>2020-03-29T16:47:24Z</time>
      </trkpt>
      <trkpt lat="18.981821" lon="-99.226210">
        <ele>1880.000000</ele>
        <time>2020-03-29T16:47:29Z</time>
      </trkpt>
      <trkpt lat="18.981775" lon="-99.225980">
        <ele>1880.000000</ele>
        <time>2020-03-29T16:47:44Z</time>
      </trkpt>
      <trkpt lat="18.981743" lon="-99.225879">
        <ele>1880.000000</ele>
        <time>2020-03-29T16:47:50Z</time>
      </trkpt>
      <trkpt lat="18.981711" lon="-99.225836">
        <ele>1881.200000</ele>
        <time>2020-03-29T16:47:54Z</time>
      </trkpt>
      <trkpt lat="18.981595" lon="-99.225742">
        <ele>1878.000000</ele>
        <time>2020-03-29T16:48:05Z</time>
      </trkpt>
      <trkpt lat="18.981424" lon="-99.225641">
        <ele>1869.000000</ele>
        <time>2020-03-29T16:48:20Z</time>
      </trkpt>
      <trkpt lat="18.981190" lon="-99.225589">
        <ele>1866.000000</ele>
        <time>2020-03-29T16:48:40Z</time>
      </trkpt>
      <trkpt lat="18.980999" lon="-99.225516">
        <ele>1863.000000</ele>
        <time>2020-03-29T16:48:58Z</time>
      </trkpt>
      <trkpt lat="18.980918" lon="-99.225511">
        <ele>1863.000000</ele>
        <time>2020-03-29T16:49:04Z</time>
      </trkpt>
      <trkpt lat="18.980771" lon="-99.225471">
        <ele>1860.000000</ele>
        <time>2020-03-29T16:49:16Z</time>
      </trkpt>
      <trkpt lat="18.980560" lon="-99.225473">
        <ele>1857.000000</ele>
        <time>2020-03-29T16:49:30Z</time>
      </trkpt>
      <trkpt lat="18.980362" lon="-99.225506">
        <ele>1856.000000</ele>
        <time>2020-03-29T16:49:45Z</time>
      </trkpt>
      <trkpt lat="18.980328" lon="-99.225530">
        <ele>1846.000000</ele>
        <time>2020-03-29T16:49:52Z</time>
      </trkpt>
      <trkpt lat="18.980391" lon="-99.225569">
        <ele>1856.500000</ele>
        <time>2020-03-29T16:50:23Z</time>
      </trkpt>
    </trkseg>
  </trk>
</gpx>
