<?xml version='1.0' encoding='utf-8'?>
<gpx xmlns="http://www.topografix.com/GPX/1/1" version="1.1" creator="mapas_BotasPuestas GPX importer">
  <metadata>
    <name>Arroyo seco</name>
    <desc>Candidata importada de Arroyo_seco_.gpx, &lt;trk&gt; #1. Debe revisarse antes de publicarse.</desc>
    <bounds minlat="18.996129" minlon="-99.210193" maxlat="19.023159" maxlon="-99.198305" />
  </metadata>
  <trk>
    <name>Arroyo seco</name>
    <type>senderismo</type>
    <trkseg>
      <trkpt lat="19.006879" lon="-99.203313">
        <ele>2221.9</ele>
      </trkpt>
      <trkpt lat="19.006878" lon="-99.203325">
        <ele>2222.5</ele>
      </trkpt>
      <trkpt lat="19.006899" lon="-99.203349">
        <ele>2221.9</ele>
      </trkpt>
      <trkpt lat="19.006897" lon="-99.203385">
        <ele>2220</ele>
      </trkpt>
      <trkpt lat="19.006923" lon="-99.203402">
        <ele>2217</ele>
      </trkpt>
      <trkpt lat="19.006965" lon="-99.203393">
        <ele>2218</ele>
      </trkpt>
      <trkpt lat="19.006989" lon="-99.203371">
        <ele>2217</ele>
      </trkpt>
      <trkpt lat="19.007012" lon="-99.203293">
        <ele>2217</ele>
      </trkpt>
      <trkpt lat="19.007037" lon="-99.203253">
        <ele>2216</ele>
      </trkpt>
      <trkpt lat="19.007018" lon="-99.203221">
        <ele>2208</ele>
      </trkpt>
      <trkpt lat="19.006985" lon="-99.203226">
        <ele>2210</ele>
      </trkpt>
      <trkpt lat="19.007048" lon="-99.203232">
        <ele>2205</ele>
      </trkpt>
      <trkpt lat="19.007076" lon="-99.203298">
        <ele>2212</ele>
      </trkpt>
      <trkpt lat="19.007114" lon="-99.20326">
        <ele>2216</ele>
      </trkpt>
      <trkpt lat="19.007037" lon="-99.203306">
        <ele>2216</ele>
      </trkpt>
      <trkpt lat="19.007002" lon="-99.203355">
        <ele>2214</ele>
      </trkpt>
      <trkpt lat="19.007024" lon="-99.203295">
        <ele>2211</ele>
      </trkpt>
      <trkpt lat="19.00705" lon="-99.203321">
        <ele>2217</ele>
      </trkpt>
      <trkpt lat="19.007107" lon="-99.20329">
        <ele>2214</ele>
      </trkpt>
      <trkpt lat="19.007119" lon="-99.20326">
        <ele>2214</ele>
      </trkpt>
      <trkpt lat="19.007156" lon="-99.203249">
        <ele>2214</ele>
      </trkpt>
      <trkpt lat="19.007197" lon="-99.203262">
        <ele>2216</ele>
      </trkpt>
      <trkpt lat="19.007213" lon="-99.203136">
        <ele>2215</ele>
      </trkpt>
      <trkpt lat="19.007232" lon="-99.20311">
        <ele>2212</ele>
      </trkpt>
      <trkpt lat="19.007274" lon="-99.203118">
        <ele>2214</ele>
      </trkpt>
      <trkpt lat="19.007298" lon="-99.203044">
        <ele>2212</ele>
      </trkpt>
      <trkpt lat="19.007328" lon="-99.203041">
        <ele>2215</ele>
      </trkpt>
      <trkpt lat="19.007451" lon="-99.203206">
        <ele>2215</ele>
      </trkpt>
      <trkpt lat="19.007555" lon="-99.203122">
        <ele>2217</ele>
      </trkpt>
      <trkpt lat="19.007538" lon="-99.203175">
        <ele>2218</ele>
      </trkpt>
      <trkpt lat="19.007539" lon="-99.203274">
        <ele>2217</ele>
      </trkpt>
      <trkpt lat="19.007607" lon="-99.203308">
        <ele>2216</ele>
      </trkpt>
      <trkpt lat="19.007667" lon="-99.203307">
        <ele>2214</ele>
      </trkpt>
      <trkpt lat="19.007648" lon="-99.203218">
        <ele>2218.9</ele>
      </trkpt>
      <trkpt lat="19.007661" lon="-99.203163">
        <ele>2218</ele>
      </trkpt>
      <trkpt lat="19.007694" lon="-99.203144">
        <ele>2217</ele>
      </trkpt>
      <trkpt lat="19.00772" lon="-99.203166">
        <ele>2217</ele>
      </trkpt>
      <trkpt lat="19.007766" lon="-99.203168">
        <ele>2216</ele>
      </trkpt>
      <trkpt lat="19.007751" lon="-99.20313">
        <ele>2216.4</ele>
      </trkpt>
      <trkpt lat="19.007699" lon="-99.203075">
        <ele>2214</ele>
      </trkpt>
      <trkpt lat="19.007732" lon="-99.20307">
        <ele>2214</ele>
      </trkpt>
      <trkpt lat="19.007789" lon="-99.203036">
        <ele>2219</ele>
      </trkpt>
      <trkpt lat="19.007828" lon="-99.20304">
        <ele>2217</ele>
      </trkpt>
      <trkpt lat="19.00777" lon="-99.202992">
        <ele>2219</ele>
      </trkpt>
      <trkpt lat="19.007757" lon="-99.203057">
        <ele>2220</ele>
      </trkpt>
      <trkpt lat="19.007759" lon="-99.202985">
        <ele>2220</ele>
      </trkpt>
      <trkpt lat="19.007792" lon="-99.202989">
        <ele>2220</ele>
      </trkpt>
      <trkpt lat="19.007822" lon="-99.203012">
        <ele>2220</ele>
      </trkpt>
      <trkpt lat="19.007897" lon="-99.20313">
        <ele>2222</ele>
      </trkpt>
      <trkpt lat="19.008021" lon="-99.203254">
        <ele>2224</ele>
      </trkpt>
      <trkpt lat="19.007843" lon="-99.203111">
        <ele>2221</ele>
      </trkpt>
      <trkpt lat="19.007886" lon="-99.203225">
        <ele>2219</ele>
      </trkpt>
      <trkpt lat="19.007827" lon="-99.203181">
        <ele>2220</ele>
      </trkpt>
      <trkpt lat="19.007795" lon="-99.203169">
        <ele>2220</ele>
      </trkpt>
      <trkpt lat="19.007736" lon="-99.20321">
        <ele>2218</ele>
      </trkpt>
      <trkpt lat="19.007866" lon="-99.203317">
        <ele>2222.1</ele>
      </trkpt>
      <trkpt lat="19.007894" lon="-99.203365">
        <ele>2221.4</ele>
      </trkpt>
      <trkpt lat="19.007906" lon="-99.203473">
        <ele>2212</ele>
      </trkpt>
      <trkpt lat="19.007861" lon="-99.203433">
        <ele>2225.9</ele>
      </trkpt>
      <trkpt lat="19.007833" lon="-99.203422">
        <ele>2226.4</ele>
      </trkpt>
      <trkpt lat="19.007772" lon="-99.203365">
        <ele>2224.6</ele>
      </trkpt>
      <trkpt lat="19.007832" lon="-99.203338">
        <ele>2220</ele>
      </trkpt>
      <trkpt lat="19.007798" lon="-99.203426">
        <ele>2224</ele>
      </trkpt>
      <trkpt lat="19.0078" lon="-99.203473">
        <ele>2224</ele>
      </trkpt>
      <trkpt lat="19.007785" lon="-99.203507">
        <ele>2224</ele>
      </trkpt>
      <trkpt lat="19.007718" lon="-99.203598">
        <ele>2225</ele>
      </trkpt>
      <trkpt lat="19.00769" lon="-99.203421">
        <ele>2225.5</ele>
      </trkpt>
      <trkpt lat="19.007702" lon="-99.203388">
        <ele>2224</ele>
      </trkpt>
      <trkpt lat="19.007782" lon="-99.203297">
        <ele>2217</ele>
      </trkpt>
      <trkpt lat="19.007834" lon="-99.203212">
        <ele>2225.5</ele>
      </trkpt>
      <trkpt lat="19.007861" lon="-99.203198">
        <ele>2225</ele>
      </trkpt>
      <trkpt lat="19.00789" lon="-99.20321">
        <ele>2226</ele>
      </trkpt>
      <trkpt lat="19.007912" lon="-99.203266">
        <ele>2228.6</ele>
      </trkpt>
      <trkpt lat="19.007904" lon="-99.203312">
        <ele>2228</ele>
      </trkpt>
      <trkpt lat="19.007814" lon="-99.203512">
        <ele>2228</ele>
      </trkpt>
      <trkpt lat="19.007827" lon="-99.203546">
        <ele>2226</ele>
      </trkpt>
      <trkpt lat="19.007857" lon="-99.203511">
        <ele>2229</ele>
      </trkpt>
      <trkpt lat="19.007873" lon="-99.203465">
        <ele>2229</ele>
      </trkpt>
      <trkpt lat="19.007824" lon="-99.203403">
        <ele>2226</ele>
      </trkpt>
      <trkpt lat="19.007934" lon="-99.203395">
        <ele>2226</ele>
      </trkpt>
      <trkpt lat="19.007925" lon="-99.203495">
        <ele>2222</ele>
      </trkpt>
      <trkpt lat="19.007879" lon="-99.203543">
        <ele>2220</ele>
      </trkpt>
      <trkpt lat="19.007943" lon="-99.203554">
        <ele>2224</ele>
      </trkpt>
      <trkpt lat="19.008057" lon="-99.203512">
        <ele>2223</ele>
      </trkpt>
      <trkpt lat="19.00809" lon="-99.203527">
        <ele>2220</ele>
      </trkpt>
      <trkpt lat="19.008115" lon="-99.20359">
        <ele>2225</ele>
      </trkpt>
      <trkpt lat="19.008116" lon="-99.203663">
        <ele>2226</ele>
      </trkpt>
      <trkpt lat="19.008118" lon="-99.203614">
        <ele>2227</ele>
      </trkpt>
      <trkpt lat="19.008137" lon="-99.203571">
        <ele>2220</ele>
      </trkpt>
      <trkpt lat="19.008123" lon="-99.203511">
        <ele>2228</ele>
      </trkpt>
      <trkpt lat="19.008154" lon="-99.203504">
        <ele>2230</ele>
      </trkpt>
      <trkpt lat="19.008194" lon="-99.203474">
        <ele>2227</ele>
      </trkpt>
      <trkpt lat="19.00826" lon="-99.20352">
        <ele>2230</ele>
      </trkpt>
      <trkpt lat="19.008258" lon="-99.203576">
        <ele>2227</ele>
      </trkpt>
      <trkpt lat="19.008293" lon="-99.203542">
        <ele>2234.3</ele>
      </trkpt>
      <trkpt lat="19.008309" lon="-99.203555">
        <ele>2234</ele>
      </trkpt>
      <trkpt lat="19.008354" lon="-99.203651">
        <ele>2232</ele>
      </trkpt>
      <trkpt lat="19.00838" lon="-99.203671">
        <ele>2231</ele>
      </trkpt>
      <trkpt lat="19.00841" lon="-99.203661">
        <ele>2235</ele>
      </trkpt>
      <trkpt lat="19.008431" lon="-99.203637">
        <ele>2246</ele>
      </trkpt>
      <trkpt lat="19.008437" lon="-99.203747">
        <ele>2244</ele>
      </trkpt>
      <trkpt lat="19.008473" lon="-99.203729">
        <ele>2246</ele>
      </trkpt>
      <trkpt lat="19.008485" lon="-99.203586">
        <ele>2246</ele>
      </trkpt>
      <trkpt lat="19.008487" lon="-99.203644">
        <ele>2247</ele>
      </trkpt>
      <trkpt lat="19.00851" lon="-99.203612">
        <ele>2247</ele>
      </trkpt>
      <trkpt lat="19.008566" lon="-99.203588">
        <ele>2247</ele>
      </trkpt>
      <trkpt lat="19.008515" lon="-99.203582">
        <ele>2247</ele>
      </trkpt>
      <trkpt lat="19.008485" lon="-99.203603">
        <ele>2247</ele>
      </trkpt>
      <trkpt lat="19.008475" lon="-99.203643">
        <ele>2247</ele>
      </trkpt>
      <trkpt lat="19.008484" lon="-99.203721">
        <ele>2248</ele>
      </trkpt>
      <trkpt lat="19.008477" lon="-99.203757">
        <ele>2247</ele>
      </trkpt>
      <trkpt lat="19.008495" lon="-99.2038">
        <ele>2248</ele>
      </trkpt>
      <trkpt lat="19.008446" lon="-99.203769">
        <ele>2247</ele>
      </trkpt>
      <trkpt lat="19.00845" lon="-99.203805">
        <ele>2247</ele>
      </trkpt>
      <trkpt lat="19.008499" lon="-99.203773">
        <ele>2243</ele>
      </trkpt>
      <trkpt lat="19.008465" lon="-99.203759">
        <ele>2240</ele>
      </trkpt>
      <trkpt lat="19.00848" lon="-99.203796">
        <ele>2241</ele>
      </trkpt>
      <trkpt lat="19.008575" lon="-99.203856">
        <ele>2243</ele>
      </trkpt>
      <trkpt lat="19.00861" lon="-99.20383">
        <ele>2244</ele>
      </trkpt>
      <trkpt lat="19.008664" lon="-99.203877">
        <ele>2247</ele>
      </trkpt>
      <trkpt lat="19.008698" lon="-99.203886">
        <ele>2246</ele>
      </trkpt>
      <trkpt lat="19.008742" lon="-99.20387">
        <ele>2245</ele>
      </trkpt>
      <trkpt lat="19.008812" lon="-99.20388">
        <ele>2250</ele>
      </trkpt>
      <trkpt lat="19.00894" lon="-99.203847">
        <ele>2251</ele>
      </trkpt>
      <trkpt lat="19.008885" lon="-99.20382">
        <ele>2247</ele>
      </trkpt>
      <trkpt lat="19.008842" lon="-99.203853">
        <ele>2250</ele>
      </trkpt>
      <trkpt lat="19.008819" lon="-99.203743">
        <ele>2253</ele>
      </trkpt>
      <trkpt lat="19.008873" lon="-99.203689">
        <ele>2258</ele>
      </trkpt>
      <trkpt lat="19.008915" lon="-99.203671">
        <ele>2256</ele>
      </trkpt>
      <trkpt lat="19.008971" lon="-99.203622">
        <ele>2256</ele>
      </trkpt>
      <trkpt lat="19.009018" lon="-99.203558">
        <ele>2256</ele>
      </trkpt>
      <trkpt lat="19.009033" lon="-99.203519">
        <ele>2255</ele>
      </trkpt>
      <trkpt lat="19.009095" lon="-99.203503">
        <ele>2257</ele>
      </trkpt>
      <trkpt lat="19.00913" lon="-99.203506">
        <ele>2260</ele>
      </trkpt>
      <trkpt lat="19.009145" lon="-99.203475">
        <ele>2259</ele>
      </trkpt>
      <trkpt lat="19.009129" lon="-99.203493">
        <ele>2260</ele>
      </trkpt>
      <trkpt lat="19.009099" lon="-99.203502">
        <ele>2256</ele>
      </trkpt>
      <trkpt lat="19.009245" lon="-99.203383">
        <ele>2255</ele>
      </trkpt>
      <trkpt lat="19.009331" lon="-99.203349">
        <ele>2258</ele>
      </trkpt>
      <trkpt lat="19.009422" lon="-99.203389">
        <ele>2255</ele>
      </trkpt>
      <trkpt lat="19.009493" lon="-99.203381">
        <ele>2259</ele>
      </trkpt>
      <trkpt lat="19.009519" lon="-99.203397">
        <ele>2259</ele>
      </trkpt>
      <trkpt lat="19.009532" lon="-99.203434">
        <ele>2256</ele>
      </trkpt>
      <trkpt lat="19.009581" lon="-99.203405">
        <ele>2260</ele>
      </trkpt>
      <trkpt lat="19.009668" lon="-99.203384">
        <ele>2260</ele>
      </trkpt>
      <trkpt lat="19.009707" lon="-99.203398">
        <ele>2260</ele>
      </trkpt>
      <trkpt lat="19.009763" lon="-99.203343">
        <ele>2260</ele>
      </trkpt>
      <trkpt lat="19.009806" lon="-99.203359">
        <ele>2260</ele>
      </trkpt>
      <trkpt lat="19.009818" lon="-99.203394">
        <ele>2260</ele>
      </trkpt>
      <trkpt lat="19.00989" lon="-99.203414">
        <ele>2260</ele>
      </trkpt>
      <trkpt lat="19.009914" lon="-99.203442">
        <ele>2262.2</ele>
      </trkpt>
      <trkpt lat="19.009967" lon="-99.203459">
        <ele>2262</ele>
      </trkpt>
      <trkpt lat="19.010001" lon="-99.203449">
        <ele>2262</ele>
      </trkpt>
      <trkpt lat="19.010026" lon="-99.20343">
        <ele>2256</ele>
      </trkpt>
      <trkpt lat="19.010065" lon="-99.203425">
        <ele>2260</ele>
      </trkpt>
      <trkpt lat="19.0101" lon="-99.20343">
        <ele>2262</ele>
      </trkpt>
      <trkpt lat="19.010134" lon="-99.203449">
        <ele>2262</ele>
      </trkpt>
      <trkpt lat="19.010233" lon="-99.203605">
        <ele>2262</ele>
      </trkpt>
      <trkpt lat="19.010259" lon="-99.203667">
        <ele>2262</ele>
      </trkpt>
      <trkpt lat="19.010291" lon="-99.203697">
        <ele>2264</ele>
      </trkpt>
      <trkpt lat="19.010303" lon="-99.203739">
        <ele>2265</ele>
      </trkpt>
      <trkpt lat="19.010284" lon="-99.203773">
        <ele>2261</ele>
      </trkpt>
      <trkpt lat="19.010364" lon="-99.203819">
        <ele>2264</ele>
      </trkpt>
      <trkpt lat="19.010316" lon="-99.203869">
        <ele>2264</ele>
      </trkpt>
      <trkpt lat="19.01039" lon="-99.203886">
        <ele>2265</ele>
      </trkpt>
      <trkpt lat="19.010409" lon="-99.203921">
        <ele>2265</ele>
      </trkpt>
      <trkpt lat="19.010368" lon="-99.2039">
        <ele>2267.5</ele>
      </trkpt>
      <trkpt lat="19.010451" lon="-99.203889">
        <ele>2267</ele>
      </trkpt>
      <trkpt lat="19.010416" lon="-99.203956">
        <ele>2268</ele>
      </trkpt>
      <trkpt lat="19.010442" lon="-99.203987">
        <ele>2266</ele>
      </trkpt>
      <trkpt lat="19.010471" lon="-99.203949">
        <ele>2265</ele>
      </trkpt>
      <trkpt lat="19.010338" lon="-99.204144">
        <ele>2275</ele>
      </trkpt>
      <trkpt lat="19.010237" lon="-99.204088">
        <ele>2271</ele>
      </trkpt>
      <trkpt lat="19.010546" lon="-99.204088">
        <ele>2278.5</ele>
      </trkpt>
      <trkpt lat="19.01053" lon="-99.204062">
        <ele>2277.6</ele>
      </trkpt>
      <trkpt lat="19.010459" lon="-99.204052">
        <ele>2274.9</ele>
      </trkpt>
      <trkpt lat="19.010425" lon="-99.204028">
        <ele>2274</ele>
      </trkpt>
      <trkpt lat="19.010418" lon="-99.203987">
        <ele>2275</ele>
      </trkpt>
      <trkpt lat="19.010448" lon="-99.203958">
        <ele>2276</ele>
      </trkpt>
      <trkpt lat="19.010478" lon="-99.203959">
        <ele>2277</ele>
      </trkpt>
      <trkpt lat="19.010442" lon="-99.203949">
        <ele>2277</ele>
      </trkpt>
      <trkpt lat="19.010447" lon="-99.204061">
        <ele>2276</ele>
      </trkpt>
      <trkpt lat="19.010485" lon="-99.204029">
        <ele>2273</ele>
      </trkpt>
      <trkpt lat="19.010491" lon="-99.203991">
        <ele>2270</ele>
      </trkpt>
      <trkpt lat="19.010521" lon="-99.203958">
        <ele>2268</ele>
      </trkpt>
      <trkpt lat="19.010555" lon="-99.203947">
        <ele>2270</ele>
      </trkpt>
      <trkpt lat="19.010593" lon="-99.203917">
        <ele>2256</ele>
      </trkpt>
      <trkpt lat="19.010685" lon="-99.203958">
        <ele>2277</ele>
      </trkpt>
      <trkpt lat="19.010792" lon="-99.203988">
        <ele>2280</ele>
      </trkpt>
      <trkpt lat="19.010837" lon="-99.20399">
        <ele>2280</ele>
      </trkpt>
      <trkpt lat="19.010878" lon="-99.204026">
        <ele>2280</ele>
      </trkpt>
      <trkpt lat="19.010901" lon="-99.203972">
        <ele>2282</ele>
      </trkpt>
      <trkpt lat="19.010898" lon="-99.203915">
        <ele>2282</ele>
      </trkpt>
      <trkpt lat="19.010909" lon="-99.203871">
        <ele>2282</ele>
      </trkpt>
      <trkpt lat="19.010967" lon="-99.20381">
        <ele>2282</ele>
      </trkpt>
      <trkpt lat="19.011049" lon="-99.203919">
        <ele>2277</ele>
      </trkpt>
      <trkpt lat="19.011093" lon="-99.203852">
        <ele>2280</ele>
      </trkpt>
      <trkpt lat="19.011154" lon="-99.203798">
        <ele>2282</ele>
      </trkpt>
      <trkpt lat="19.011193" lon="-99.203748">
        <ele>2280</ele>
      </trkpt>
      <trkpt lat="19.011246" lon="-99.203652">
        <ele>2284</ele>
      </trkpt>
      <trkpt lat="19.011266" lon="-99.203708">
        <ele>2286</ele>
      </trkpt>
      <trkpt lat="19.011303" lon="-99.20373">
        <ele>2288</ele>
      </trkpt>
      <trkpt lat="19.011313" lon="-99.203697">
        <ele>2288</ele>
      </trkpt>
      <trkpt lat="19.011344" lon="-99.203684">
        <ele>2288</ele>
      </trkpt>
      <trkpt lat="19.011463" lon="-99.20376">
        <ele>2290</ele>
      </trkpt>
      <trkpt lat="19.011472" lon="-99.203721">
        <ele>2288</ele>
      </trkpt>
      <trkpt lat="19.011512" lon="-99.203812">
        <ele>2288</ele>
      </trkpt>
      <trkpt lat="19.011449" lon="-99.203807">
        <ele>2289</ele>
      </trkpt>
      <trkpt lat="19.011467" lon="-99.203861">
        <ele>2288</ele>
      </trkpt>
      <trkpt lat="19.011498" lon="-99.203863">
        <ele>2292</ele>
      </trkpt>
      <trkpt lat="19.01153" lon="-99.203849">
        <ele>2290</ele>
      </trkpt>
      <trkpt lat="19.01155" lon="-99.203819">
        <ele>2289</ele>
      </trkpt>
      <trkpt lat="19.011596" lon="-99.203782">
        <ele>2292</ele>
      </trkpt>
      <trkpt lat="19.011628" lon="-99.203714">
        <ele>2290</ele>
      </trkpt>
      <trkpt lat="19.011654" lon="-99.203689">
        <ele>2290</ele>
      </trkpt>
      <trkpt lat="19.011677" lon="-99.203722">
        <ele>2282</ele>
      </trkpt>
      <trkpt lat="19.011679" lon="-99.203684">
        <ele>2290</ele>
      </trkpt>
      <trkpt lat="19.011787" lon="-99.20368">
        <ele>2296.1</ele>
      </trkpt>
      <trkpt lat="19.011804" lon="-99.203689">
        <ele>2296</ele>
      </trkpt>
      <trkpt lat="19.011803" lon="-99.203647">
        <ele>2294</ele>
      </trkpt>
      <trkpt lat="19.011604" lon="-99.20381">
        <ele>2296</ele>
      </trkpt>
      <trkpt lat="19.011721" lon="-99.203625">
        <ele>2297</ele>
      </trkpt>
      <trkpt lat="19.01181" lon="-99.203588">
        <ele>2298</ele>
      </trkpt>
      <trkpt lat="19.011792" lon="-99.203619">
        <ele>2299.9</ele>
      </trkpt>
      <trkpt lat="19.011827" lon="-99.203586">
        <ele>2296</ele>
      </trkpt>
      <trkpt lat="19.011867" lon="-99.203592">
        <ele>2301</ele>
      </trkpt>
      <trkpt lat="19.011814" lon="-99.203575">
        <ele>2304</ele>
      </trkpt>
      <trkpt lat="19.011759" lon="-99.203604">
        <ele>2301</ele>
      </trkpt>
      <trkpt lat="19.011828" lon="-99.20351">
        <ele>2300</ele>
      </trkpt>
      <trkpt lat="19.011859" lon="-99.20352">
        <ele>2296</ele>
      </trkpt>
      <trkpt lat="19.01184" lon="-99.203547">
        <ele>2300</ele>
      </trkpt>
      <trkpt lat="19.01188" lon="-99.203569">
        <ele>2300</ele>
      </trkpt>
      <trkpt lat="19.011867" lon="-99.203615">
        <ele>2299</ele>
      </trkpt>
      <trkpt lat="19.011908" lon="-99.203631">
        <ele>2300</ele>
      </trkpt>
      <trkpt lat="19.011905" lon="-99.203664">
        <ele>2301</ele>
      </trkpt>
      <trkpt lat="19.011853" lon="-99.203729">
        <ele>2300</ele>
      </trkpt>
      <trkpt lat="19.011869" lon="-99.203664">
        <ele>2296</ele>
      </trkpt>
      <trkpt lat="19.011899" lon="-99.203657">
        <ele>2300</ele>
      </trkpt>
      <trkpt lat="19.01194" lon="-99.20367">
        <ele>2301.3</ele>
      </trkpt>
      <trkpt lat="19.011953" lon="-99.203729">
        <ele>2295</ele>
      </trkpt>
      <trkpt lat="19.011978" lon="-99.203751">
        <ele>2300</ele>
      </trkpt>
      <trkpt lat="19.012008" lon="-99.203855">
        <ele>2303</ele>
      </trkpt>
      <trkpt lat="19.012037" lon="-99.203867">
        <ele>2304</ele>
      </trkpt>
      <trkpt lat="19.012058" lon="-99.203912">
        <ele>2304</ele>
      </trkpt>
      <trkpt lat="19.012143" lon="-99.204001">
        <ele>2306</ele>
      </trkpt>
      <trkpt lat="19.012176" lon="-99.204067">
        <ele>2307</ele>
      </trkpt>
      <trkpt lat="19.012215" lon="-99.204093">
        <ele>2304</ele>
      </trkpt>
      <trkpt lat="19.012298" lon="-99.204072">
        <ele>2304</ele>
      </trkpt>
      <trkpt lat="19.012331" lon="-99.204083">
        <ele>2306</ele>
      </trkpt>
      <trkpt lat="19.012376" lon="-99.204126">
        <ele>2307</ele>
      </trkpt>
      <trkpt lat="19.012388" lon="-99.204166">
        <ele>2307</ele>
      </trkpt>
      <trkpt lat="19.012422" lon="-99.204183">
        <ele>2306</ele>
      </trkpt>
      <trkpt lat="19.012466" lon="-99.204202">
        <ele>2308</ele>
      </trkpt>
      <trkpt lat="19.012502" lon="-99.204202">
        <ele>2308</ele>
      </trkpt>
      <trkpt lat="19.012552" lon="-99.204241">
        <ele>2308</ele>
      </trkpt>
      <trkpt lat="19.012619" lon="-99.204221">
        <ele>2310</ele>
      </trkpt>
      <trkpt lat="19.012656" lon="-99.204226">
        <ele>2310</ele>
      </trkpt>
      <trkpt lat="19.012734" lon="-99.204287">
        <ele>2311</ele>
      </trkpt>
      <trkpt lat="19.012847" lon="-99.204315">
        <ele>2310</ele>
      </trkpt>
      <trkpt lat="19.012869" lon="-99.204368">
        <ele>2313.4</ele>
      </trkpt>
      <trkpt lat="19.012881" lon="-99.204474">
        <ele>2312</ele>
      </trkpt>
      <trkpt lat="19.012933" lon="-99.204569">
        <ele>2310</ele>
      </trkpt>
      <trkpt lat="19.012962" lon="-99.204577">
        <ele>2312</ele>
      </trkpt>
      <trkpt lat="19.013176" lon="-99.204776">
        <ele>2322</ele>
      </trkpt>
      <trkpt lat="19.013193" lon="-99.204803">
        <ele>2324</ele>
      </trkpt>
      <trkpt lat="19.013444" lon="-99.204777">
        <ele>2325</ele>
      </trkpt>
      <trkpt lat="19.01352" lon="-99.204738">
        <ele>2328</ele>
      </trkpt>
      <trkpt lat="19.013554" lon="-99.204758">
        <ele>2330</ele>
      </trkpt>
      <trkpt lat="19.013571" lon="-99.204806">
        <ele>2331</ele>
      </trkpt>
      <trkpt lat="19.013605" lon="-99.204824">
        <ele>2330</ele>
      </trkpt>
      <trkpt lat="19.013629" lon="-99.20479">
        <ele>2332</ele>
      </trkpt>
      <trkpt lat="19.01366" lon="-99.204788">
        <ele>2331</ele>
      </trkpt>
      <trkpt lat="19.013728" lon="-99.204805">
        <ele>2329</ele>
      </trkpt>
      <trkpt lat="19.013788" lon="-99.20489">
        <ele>2334.1</ele>
      </trkpt>
      <trkpt lat="19.013812" lon="-99.204884">
        <ele>2334</ele>
      </trkpt>
      <trkpt lat="19.013844" lon="-99.20491">
        <ele>2332</ele>
      </trkpt>
      <trkpt lat="19.013838" lon="-99.204954">
        <ele>2331</ele>
      </trkpt>
      <trkpt lat="19.013803" lon="-99.204959">
        <ele>2335</ele>
      </trkpt>
      <trkpt lat="19.013843" lon="-99.204884">
        <ele>2335.8</ele>
      </trkpt>
      <trkpt lat="19.013906" lon="-99.204821">
        <ele>2334</ele>
      </trkpt>
      <trkpt lat="19.013974" lon="-99.20478">
        <ele>2334</ele>
      </trkpt>
      <trkpt lat="19.01402" lon="-99.20479">
        <ele>2332</ele>
      </trkpt>
      <trkpt lat="19.014049" lon="-99.204877">
        <ele>2334</ele>
      </trkpt>
      <trkpt lat="19.014058" lon="-99.204961">
        <ele>2334</ele>
      </trkpt>
      <trkpt lat="19.014075" lon="-99.204987">
        <ele>2334</ele>
      </trkpt>
      <trkpt lat="19.014166" lon="-99.205028">
        <ele>2335</ele>
      </trkpt>
      <trkpt lat="19.01423" lon="-99.205032">
        <ele>2334</ele>
      </trkpt>
      <trkpt lat="19.014286" lon="-99.205076">
        <ele>2334</ele>
      </trkpt>
      <trkpt lat="19.014345" lon="-99.205038">
        <ele>2335</ele>
      </trkpt>
      <trkpt lat="19.01443" lon="-99.205072">
        <ele>2335</ele>
      </trkpt>
      <trkpt lat="19.014471" lon="-99.205078">
        <ele>2336</ele>
      </trkpt>
      <trkpt lat="19.014572" lon="-99.205132">
        <ele>2337</ele>
      </trkpt>
      <trkpt lat="19.014763" lon="-99.205107">
        <ele>2340</ele>
      </trkpt>
      <trkpt lat="19.014787" lon="-99.205127">
        <ele>2340</ele>
      </trkpt>
      <trkpt lat="19.01484" lon="-99.205132">
        <ele>2343</ele>
      </trkpt>
      <trkpt lat="19.014884" lon="-99.205238">
        <ele>2344</ele>
      </trkpt>
      <trkpt lat="19.014912" lon="-99.20528">
        <ele>2345</ele>
      </trkpt>
      <trkpt lat="19.01494" lon="-99.205234">
        <ele>2343</ele>
      </trkpt>
      <trkpt lat="19.014948" lon="-99.205191">
        <ele>2343</ele>
      </trkpt>
      <trkpt lat="19.01494" lon="-99.205153">
        <ele>2343</ele>
      </trkpt>
      <trkpt lat="19.014913" lon="-99.20512">
        <ele>2344</ele>
      </trkpt>
      <trkpt lat="19.014941" lon="-99.205074">
        <ele>2345</ele>
      </trkpt>
      <trkpt lat="19.014879" lon="-99.205049">
        <ele>2340</ele>
      </trkpt>
      <trkpt lat="19.014882" lon="-99.205023">
        <ele>2346</ele>
      </trkpt>
      <trkpt lat="19.014947" lon="-99.205012">
        <ele>2345</ele>
      </trkpt>
      <trkpt lat="19.014996" lon="-99.205035">
        <ele>2341</ele>
      </trkpt>
      <trkpt lat="19.015063" lon="-99.205">
        <ele>2348</ele>
      </trkpt>
      <trkpt lat="19.015175" lon="-99.205029">
        <ele>2345</ele>
      </trkpt>
      <trkpt lat="19.015171" lon="-99.204993">
        <ele>2348</ele>
      </trkpt>
      <trkpt lat="19.01525" lon="-99.204965">
        <ele>2350</ele>
      </trkpt>
      <trkpt lat="19.015268" lon="-99.204998">
        <ele>2348</ele>
      </trkpt>
      <trkpt lat="19.015319" lon="-99.205043">
        <ele>2350</ele>
      </trkpt>
      <trkpt lat="19.015442" lon="-99.205063">
        <ele>2352.3</ele>
      </trkpt>
      <trkpt lat="19.015445" lon="-99.205091">
        <ele>2352</ele>
      </trkpt>
      <trkpt lat="19.015488" lon="-99.205108">
        <ele>2348</ele>
      </trkpt>
      <trkpt lat="19.015496" lon="-99.205166">
        <ele>2352</ele>
      </trkpt>
      <trkpt lat="19.015531" lon="-99.205196">
        <ele>2352</ele>
      </trkpt>
      <trkpt lat="19.01554" lon="-99.205239">
        <ele>2352</ele>
      </trkpt>
      <trkpt lat="19.01559" lon="-99.205248">
        <ele>2355.3</ele>
      </trkpt>
      <trkpt lat="19.015716" lon="-99.205369">
        <ele>2355</ele>
      </trkpt>
      <trkpt lat="19.01585" lon="-99.205461">
        <ele>2357</ele>
      </trkpt>
      <trkpt lat="19.015836" lon="-99.205526">
        <ele>2361.5</ele>
      </trkpt>
      <trkpt lat="19.015855" lon="-99.20552">
        <ele>2361</ele>
      </trkpt>
      <trkpt lat="19.015897" lon="-99.205442">
        <ele>2361</ele>
      </trkpt>
      <trkpt lat="19.015942" lon="-99.205427">
        <ele>2355</ele>
      </trkpt>
      <trkpt lat="19.01598" lon="-99.205504">
        <ele>2362</ele>
      </trkpt>
      <trkpt lat="19.01608" lon="-99.205508">
        <ele>2364</ele>
      </trkpt>
      <trkpt lat="19.016113" lon="-99.205495">
        <ele>2364</ele>
      </trkpt>
      <trkpt lat="19.016151" lon="-99.205499">
        <ele>2364</ele>
      </trkpt>
      <trkpt lat="19.016207" lon="-99.205585">
        <ele>2364</ele>
      </trkpt>
      <trkpt lat="19.016212" lon="-99.205623">
        <ele>2367</ele>
      </trkpt>
      <trkpt lat="19.016178" lon="-99.205617">
        <ele>2366</ele>
      </trkpt>
      <trkpt lat="19.016217" lon="-99.20559">
        <ele>2370</ele>
      </trkpt>
      <trkpt lat="19.016221" lon="-99.205558">
        <ele>2370</ele>
      </trkpt>
      <trkpt lat="19.016209" lon="-99.205523">
        <ele>2368</ele>
      </trkpt>
      <trkpt lat="19.016268" lon="-99.205491">
        <ele>2371</ele>
      </trkpt>
      <trkpt lat="19.016345" lon="-99.205535">
        <ele>2375</ele>
      </trkpt>
      <trkpt lat="19.016377" lon="-99.205525">
        <ele>2373</ele>
      </trkpt>
      <trkpt lat="19.016406" lon="-99.205542">
        <ele>2373</ele>
      </trkpt>
      <trkpt lat="19.016446" lon="-99.205548">
        <ele>2376</ele>
      </trkpt>
      <trkpt lat="19.016486" lon="-99.205602">
        <ele>2376</ele>
      </trkpt>
      <trkpt lat="19.0165" lon="-99.205646">
        <ele>2376</ele>
      </trkpt>
      <trkpt lat="19.016535" lon="-99.20566">
        <ele>2377</ele>
      </trkpt>
      <trkpt lat="19.016582" lon="-99.20564">
        <ele>2376</ele>
      </trkpt>
      <trkpt lat="19.016604" lon="-99.205664">
        <ele>2373</ele>
      </trkpt>
      <trkpt lat="19.01665" lon="-99.205655">
        <ele>2376</ele>
      </trkpt>
      <trkpt lat="19.01667" lon="-99.205694">
        <ele>2379</ele>
      </trkpt>
      <trkpt lat="19.016691" lon="-99.205681">
        <ele>2379</ele>
      </trkpt>
      <trkpt lat="19.016771" lon="-99.205679">
        <ele>2378</ele>
      </trkpt>
      <trkpt lat="19.016828" lon="-99.205723">
        <ele>2376</ele>
      </trkpt>
      <trkpt lat="19.016825" lon="-99.205802">
        <ele>2379</ele>
      </trkpt>
      <trkpt lat="19.016837" lon="-99.205739">
        <ele>2380</ele>
      </trkpt>
      <trkpt lat="19.016877" lon="-99.205676">
        <ele>2381</ele>
      </trkpt>
      <trkpt lat="19.016942" lon="-99.205689">
        <ele>2382</ele>
      </trkpt>
      <trkpt lat="19.016973" lon="-99.205716">
        <ele>2382</ele>
      </trkpt>
      <trkpt lat="19.017057" lon="-99.205745">
        <ele>2380</ele>
      </trkpt>
      <trkpt lat="19.017089" lon="-99.205774">
        <ele>2380</ele>
      </trkpt>
      <trkpt lat="19.017028" lon="-99.205831">
        <ele>2380</ele>
      </trkpt>
      <trkpt lat="19.017083" lon="-99.20589">
        <ele>2383</ele>
      </trkpt>
      <trkpt lat="19.017074" lon="-99.205929">
        <ele>2382</ele>
      </trkpt>
      <trkpt lat="19.017037" lon="-99.205862">
        <ele>2385</ele>
      </trkpt>
      <trkpt lat="19.017071" lon="-99.20579">
        <ele>2376</ele>
      </trkpt>
      <trkpt lat="19.017058" lon="-99.205818">
        <ele>2376</ele>
      </trkpt>
      <trkpt lat="19.017056" lon="-99.205793">
        <ele>2384</ele>
      </trkpt>
      <trkpt lat="19.017091" lon="-99.20574">
        <ele>2385</ele>
      </trkpt>
      <trkpt lat="19.017159" lon="-99.205724">
        <ele>2385</ele>
      </trkpt>
      <trkpt lat="19.017206" lon="-99.205669">
        <ele>2388</ele>
      </trkpt>
      <trkpt lat="19.017233" lon="-99.205699">
        <ele>2388</ele>
      </trkpt>
      <trkpt lat="19.017279" lon="-99.205797">
        <ele>2388</ele>
      </trkpt>
      <trkpt lat="19.017298" lon="-99.205777">
        <ele>2388</ele>
      </trkpt>
      <trkpt lat="19.017323" lon="-99.205836">
        <ele>2388</ele>
      </trkpt>
      <trkpt lat="19.01738" lon="-99.205891">
        <ele>2386</ele>
      </trkpt>
      <trkpt lat="19.017522" lon="-99.205849">
        <ele>2390</ele>
      </trkpt>
      <trkpt lat="19.017546" lon="-99.205892">
        <ele>2394</ele>
      </trkpt>
      <trkpt lat="19.017583" lon="-99.205917">
        <ele>2394</ele>
      </trkpt>
      <trkpt lat="19.017627" lon="-99.205876">
        <ele>2394</ele>
      </trkpt>
      <trkpt lat="19.017666" lon="-99.205859">
        <ele>2394</ele>
      </trkpt>
      <trkpt lat="19.017629" lon="-99.205915">
        <ele>2394</ele>
      </trkpt>
      <trkpt lat="19.017623" lon="-99.205981">
        <ele>2395</ele>
      </trkpt>
      <trkpt lat="19.01767" lon="-99.20615">
        <ele>2396</ele>
      </trkpt>
      <trkpt lat="19.017714" lon="-99.206254">
        <ele>2396</ele>
      </trkpt>
      <trkpt lat="19.017719" lon="-99.206299">
        <ele>2396</ele>
      </trkpt>
      <trkpt lat="19.017785" lon="-99.206356">
        <ele>2398</ele>
      </trkpt>
      <trkpt lat="19.017852" lon="-99.206378">
        <ele>2398</ele>
      </trkpt>
      <trkpt lat="19.017887" lon="-99.2064">
        <ele>2400</ele>
      </trkpt>
      <trkpt lat="19.017933" lon="-99.20638">
        <ele>2400</ele>
      </trkpt>
      <trkpt lat="19.017977" lon="-99.20642">
        <ele>2400</ele>
      </trkpt>
      <trkpt lat="19.018027" lon="-99.206628">
        <ele>2402</ele>
      </trkpt>
      <trkpt lat="19.018079" lon="-99.206705">
        <ele>2400</ele>
      </trkpt>
      <trkpt lat="19.018092" lon="-99.206788">
        <ele>2402</ele>
      </trkpt>
      <trkpt lat="19.018158" lon="-99.20686">
        <ele>2400</ele>
      </trkpt>
      <trkpt lat="19.018192" lon="-99.206868">
        <ele>2404</ele>
      </trkpt>
      <trkpt lat="19.018236" lon="-99.206863">
        <ele>2403</ele>
      </trkpt>
      <trkpt lat="19.0183" lon="-99.206834">
        <ele>2403</ele>
      </trkpt>
      <trkpt lat="19.018335" lon="-99.20683">
        <ele>2403</ele>
      </trkpt>
      <trkpt lat="19.018428" lon="-99.206845">
        <ele>2406</ele>
      </trkpt>
      <trkpt lat="19.018464" lon="-99.206842">
        <ele>2405</ele>
      </trkpt>
      <trkpt lat="19.018499" lon="-99.206909">
        <ele>2405</ele>
      </trkpt>
      <trkpt lat="19.018556" lon="-99.206957">
        <ele>2407</ele>
      </trkpt>
      <trkpt lat="19.018753" lon="-99.20699">
        <ele>2412</ele>
      </trkpt>
      <trkpt lat="19.018789" lon="-99.20701">
        <ele>2412.7</ele>
      </trkpt>
      <trkpt lat="19.01896" lon="-99.207012">
        <ele>2412</ele>
      </trkpt>
      <trkpt lat="19.018978" lon="-99.206973">
        <ele>2412</ele>
      </trkpt>
      <trkpt lat="19.019023" lon="-99.207023">
        <ele>2415</ele>
      </trkpt>
      <trkpt lat="19.019027" lon="-99.207077">
        <ele>2415</ele>
      </trkpt>
      <trkpt lat="19.019063" lon="-99.207116">
        <ele>2415</ele>
      </trkpt>
      <trkpt lat="19.019131" lon="-99.207142">
        <ele>2418</ele>
      </trkpt>
      <trkpt lat="19.019126" lon="-99.207229">
        <ele>2418</ele>
      </trkpt>
      <trkpt lat="19.01918" lon="-99.207292">
        <ele>2418</ele>
      </trkpt>
      <trkpt lat="19.019251" lon="-99.207288">
        <ele>2421</ele>
      </trkpt>
      <trkpt lat="19.019288" lon="-99.207301">
        <ele>2423</ele>
      </trkpt>
      <trkpt lat="19.019318" lon="-99.207319">
        <ele>2424</ele>
      </trkpt>
      <trkpt lat="19.019406" lon="-99.20741">
        <ele>2429</ele>
      </trkpt>
      <trkpt lat="19.01944" lon="-99.20741">
        <ele>2432.2</ele>
      </trkpt>
      <trkpt lat="19.019499" lon="-99.207475">
        <ele>2433</ele>
      </trkpt>
      <trkpt lat="19.019507" lon="-99.207511">
        <ele>2436</ele>
      </trkpt>
      <trkpt lat="19.019502" lon="-99.207544">
        <ele>2436</ele>
      </trkpt>
      <trkpt lat="19.01971" lon="-99.207802">
        <ele>2444</ele>
      </trkpt>
      <trkpt lat="19.019807" lon="-99.20785">
        <ele>2444</ele>
      </trkpt>
      <trkpt lat="19.01988" lon="-99.207856">
        <ele>2446.1</ele>
      </trkpt>
      <trkpt lat="19.020029" lon="-99.207927">
        <ele>2447</ele>
      </trkpt>
      <trkpt lat="19.020074" lon="-99.207966">
        <ele>2448</ele>
      </trkpt>
      <trkpt lat="19.020209" lon="-99.207877">
        <ele>2454</ele>
      </trkpt>
      <trkpt lat="19.020249" lon="-99.207887">
        <ele>2448</ele>
      </trkpt>
      <trkpt lat="19.020279" lon="-99.207882">
        <ele>2454</ele>
      </trkpt>
      <trkpt lat="19.020401" lon="-99.207828">
        <ele>2456</ele>
      </trkpt>
      <trkpt lat="19.020473" lon="-99.20782">
        <ele>2457</ele>
      </trkpt>
      <trkpt lat="19.020555" lon="-99.207785">
        <ele>2462</ele>
      </trkpt>
      <trkpt lat="19.020604" lon="-99.207798">
        <ele>2461</ele>
      </trkpt>
      <trkpt lat="19.02067" lon="-99.207799">
        <ele>2464</ele>
      </trkpt>
      <trkpt lat="19.020735" lon="-99.207824">
        <ele>2466</ele>
      </trkpt>
      <trkpt lat="19.020776" lon="-99.207865">
        <ele>2468</ele>
      </trkpt>
      <trkpt lat="19.020819" lon="-99.207879">
        <ele>2468</ele>
      </trkpt>
      <trkpt lat="19.020863" lon="-99.207924">
        <ele>2470</ele>
      </trkpt>
      <trkpt lat="19.020942" lon="-99.20798">
        <ele>2470</ele>
      </trkpt>
      <trkpt lat="19.020986" lon="-99.20803">
        <ele>2470</ele>
      </trkpt>
      <trkpt lat="19.021109" lon="-99.20811">
        <ele>2475</ele>
      </trkpt>
      <trkpt lat="19.021255" lon="-99.20815">
        <ele>2475</ele>
      </trkpt>
      <trkpt lat="19.021345" lon="-99.208237">
        <ele>2479</ele>
      </trkpt>
      <trkpt lat="19.021533" lon="-99.208278">
        <ele>2480</ele>
      </trkpt>
      <trkpt lat="19.02163" lon="-99.208323">
        <ele>2481</ele>
      </trkpt>
      <trkpt lat="19.021713" lon="-99.208397">
        <ele>2484</ele>
      </trkpt>
      <trkpt lat="19.021745" lon="-99.20841">
        <ele>2484</ele>
      </trkpt>
      <trkpt lat="19.021816" lon="-99.208411">
        <ele>2484</ele>
      </trkpt>
      <trkpt lat="19.021966" lon="-99.20844">
        <ele>2486</ele>
      </trkpt>
      <trkpt lat="19.022061" lon="-99.208433">
        <ele>2485</ele>
      </trkpt>
      <trkpt lat="19.022133" lon="-99.208455">
        <ele>2490</ele>
      </trkpt>
      <trkpt lat="19.022334" lon="-99.208458">
        <ele>2492</ele>
      </trkpt>
      <trkpt lat="19.022488" lon="-99.208478">
        <ele>2495</ele>
      </trkpt>
      <trkpt lat="19.022593" lon="-99.208463">
        <ele>2496</ele>
      </trkpt>
      <trkpt lat="19.022696" lon="-99.20838">
        <ele>2496</ele>
      </trkpt>
      <trkpt lat="19.022744" lon="-99.20838">
        <ele>2484</ele>
      </trkpt>
      <trkpt lat="19.02282" lon="-99.208408">
        <ele>2496.1</ele>
      </trkpt>
      <trkpt lat="19.022874" lon="-99.208379">
        <ele>2492</ele>
      </trkpt>
      <trkpt lat="19.022913" lon="-99.208372">
        <ele>2495</ele>
      </trkpt>
      <trkpt lat="19.023007" lon="-99.20842">
        <ele>2496</ele>
      </trkpt>
      <trkpt lat="19.023081" lon="-99.208423">
        <ele>2490</ele>
      </trkpt>
      <trkpt lat="19.023159" lon="-99.208312">
        <ele>2500.5</ele>
      </trkpt>
      <trkpt lat="19.023105" lon="-99.208304">
        <ele>2484</ele>
      </trkpt>
      <trkpt lat="19.023103" lon="-99.208217">
        <ele>2507</ele>
      </trkpt>
      <trkpt lat="19.023081" lon="-99.20827">
        <ele>2515</ele>
      </trkpt>
      <trkpt lat="19.023089" lon="-99.208296">
        <ele>2513</ele>
      </trkpt>
      <trkpt lat="19.023038" lon="-99.208277">
        <ele>2514</ele>
      </trkpt>
      <trkpt lat="19.023063" lon="-99.208271">
        <ele>2511</ele>
      </trkpt>
      <trkpt lat="19.023124" lon="-99.208281">
        <ele>2514</ele>
      </trkpt>
      <trkpt lat="19.023115" lon="-99.208308">
        <ele>2494</ele>
      </trkpt>
      <trkpt lat="19.023142" lon="-99.20833">
        <ele>2515</ele>
      </trkpt>
      <trkpt lat="19.023126" lon="-99.208377">
        <ele>2516</ele>
      </trkpt>
      <trkpt lat="19.023133" lon="-99.208467">
        <ele>2512</ele>
      </trkpt>
      <trkpt lat="19.023103" lon="-99.208547">
        <ele>2516</ele>
      </trkpt>
      <trkpt lat="19.0231" lon="-99.208595">
        <ele>2510</ele>
      </trkpt>
      <trkpt lat="19.023141" lon="-99.208608">
        <ele>2507</ele>
      </trkpt>
      <trkpt lat="19.023061" lon="-99.208671">
        <ele>2512</ele>
      </trkpt>
      <trkpt lat="19.02302" lon="-99.208681">
        <ele>2506</ele>
      </trkpt>
      <trkpt lat="19.022981" lon="-99.208668">
        <ele>2507</ele>
      </trkpt>
      <trkpt lat="19.022951" lon="-99.208715">
        <ele>2504</ele>
      </trkpt>
      <trkpt lat="19.022828" lon="-99.208803">
        <ele>2508</ele>
      </trkpt>
      <trkpt lat="19.0228" lon="-99.208859">
        <ele>2508</ele>
      </trkpt>
      <trkpt lat="19.022739" lon="-99.208902">
        <ele>2508</ele>
      </trkpt>
      <trkpt lat="19.022667" lon="-99.208994">
        <ele>2509</ele>
      </trkpt>
      <trkpt lat="19.02261" lon="-99.209021">
        <ele>2508</ele>
      </trkpt>
      <trkpt lat="19.022537" lon="-99.2091">
        <ele>2508</ele>
      </trkpt>
      <trkpt lat="19.022502" lon="-99.209119">
        <ele>2508</ele>
      </trkpt>
      <trkpt lat="19.022433" lon="-99.209134">
        <ele>2508</ele>
      </trkpt>
      <trkpt lat="19.022407" lon="-99.209161">
        <ele>2509</ele>
      </trkpt>
      <trkpt lat="19.02235" lon="-99.209275">
        <ele>2508</ele>
      </trkpt>
      <trkpt lat="19.022317" lon="-99.209295">
        <ele>2508</ele>
      </trkpt>
      <trkpt lat="19.022285" lon="-99.209407">
        <ele>2508</ele>
      </trkpt>
      <trkpt lat="19.022231" lon="-99.209524">
        <ele>2505</ele>
      </trkpt>
      <trkpt lat="19.022112" lon="-99.20971">
        <ele>2502</ele>
      </trkpt>
      <trkpt lat="19.021998" lon="-99.209802">
        <ele>2500</ele>
      </trkpt>
      <trkpt lat="19.021964" lon="-99.209921">
        <ele>2502</ele>
      </trkpt>
      <trkpt lat="19.02194" lon="-99.209953">
        <ele>2502</ele>
      </trkpt>
      <trkpt lat="19.021647" lon="-99.210193">
        <ele>2500</ele>
      </trkpt>
      <trkpt lat="19.021695" lon="-99.210172">
        <ele>2500</ele>
      </trkpt>
      <trkpt lat="19.02177" lon="-99.210114">
        <ele>2500</ele>
      </trkpt>
      <trkpt lat="19.02186" lon="-99.209993">
        <ele>2502</ele>
      </trkpt>
      <trkpt lat="19.02191" lon="-99.20986">
        <ele>2502</ele>
      </trkpt>
      <trkpt lat="19.021995" lon="-99.209786">
        <ele>2502</ele>
      </trkpt>
      <trkpt lat="19.022047" lon="-99.209678">
        <ele>2502</ele>
      </trkpt>
      <trkpt lat="19.022111" lon="-99.209574">
        <ele>2504</ele>
      </trkpt>
      <trkpt lat="19.022099" lon="-99.209528">
        <ele>2504</ele>
      </trkpt>
      <trkpt lat="19.022078" lon="-99.209506">
        <ele>2505</ele>
      </trkpt>
      <trkpt lat="19.022045" lon="-99.209491">
        <ele>2505</ele>
      </trkpt>
      <trkpt lat="19.021946" lon="-99.209488">
        <ele>2500</ele>
      </trkpt>
      <trkpt lat="19.021885" lon="-99.209461">
        <ele>2500</ele>
      </trkpt>
      <trkpt lat="19.021752" lon="-99.209435">
        <ele>2499</ele>
      </trkpt>
      <trkpt lat="19.021604" lon="-99.209454">
        <ele>2496</ele>
      </trkpt>
      <trkpt lat="19.021227" lon="-99.209681">
        <ele>2493</ele>
      </trkpt>
      <trkpt lat="19.020934" lon="-99.209832">
        <ele>2488</ele>
      </trkpt>
      <trkpt lat="19.020832" lon="-99.209853">
        <ele>2484</ele>
      </trkpt>
      <trkpt lat="19.020769" lon="-99.209837">
        <ele>2482</ele>
      </trkpt>
      <trkpt lat="19.020725" lon="-99.209784">
        <ele>2481</ele>
      </trkpt>
      <trkpt lat="19.02056" lon="-99.209678">
        <ele>2478</ele>
      </trkpt>
      <trkpt lat="19.020376" lon="-99.209602">
        <ele>2476</ele>
      </trkpt>
      <trkpt lat="19.020231" lon="-99.209608">
        <ele>2475</ele>
      </trkpt>
      <trkpt lat="19.020195" lon="-99.2096">
        <ele>2473</ele>
      </trkpt>
      <trkpt lat="19.020169" lon="-99.209574">
        <ele>2472</ele>
      </trkpt>
      <trkpt lat="19.020148" lon="-99.209483">
        <ele>2472</ele>
      </trkpt>
      <trkpt lat="19.019969" lon="-99.209331">
        <ele>2467</ele>
      </trkpt>
      <trkpt lat="19.019932" lon="-99.20927">
        <ele>2466</ele>
      </trkpt>
      <trkpt lat="19.019918" lon="-99.209208">
        <ele>2466</ele>
      </trkpt>
      <trkpt lat="19.019891" lon="-99.209174">
        <ele>2466</ele>
      </trkpt>
      <trkpt lat="19.019829" lon="-99.209139">
        <ele>2463</ele>
      </trkpt>
      <trkpt lat="19.019762" lon="-99.209132">
        <ele>2464</ele>
      </trkpt>
      <trkpt lat="19.019599" lon="-99.20905">
        <ele>2462</ele>
      </trkpt>
      <trkpt lat="19.019523" lon="-99.209062">
        <ele>2461</ele>
      </trkpt>
      <trkpt lat="19.019448" lon="-99.209041">
        <ele>2460</ele>
      </trkpt>
      <trkpt lat="19.019398" lon="-99.208966">
        <ele>2457</ele>
      </trkpt>
      <trkpt lat="19.019301" lon="-99.208886">
        <ele>2456</ele>
      </trkpt>
      <trkpt lat="19.019144" lon="-99.208719">
        <ele>2454</ele>
      </trkpt>
      <trkpt lat="19.019104" lon="-99.208717">
        <ele>2448</ele>
      </trkpt>
      <trkpt lat="19.01905" lon="-99.208695">
        <ele>2454</ele>
      </trkpt>
      <trkpt lat="19.019011" lon="-99.208702">
        <ele>2454</ele>
      </trkpt>
      <trkpt lat="19.0189" lon="-99.208769">
        <ele>2454</ele>
      </trkpt>
      <trkpt lat="19.018874" lon="-99.208796">
        <ele>2454</ele>
      </trkpt>
      <trkpt lat="19.018838" lon="-99.20881">
        <ele>2452</ele>
      </trkpt>
      <trkpt lat="19.018756" lon="-99.208809">
        <ele>2451</ele>
      </trkpt>
      <trkpt lat="19.018693" lon="-99.208838">
        <ele>2451</ele>
      </trkpt>
      <trkpt lat="19.018645" lon="-99.208797">
        <ele>2450</ele>
      </trkpt>
      <trkpt lat="19.018608" lon="-99.208732">
        <ele>2448</ele>
      </trkpt>
      <trkpt lat="19.018547" lon="-99.208753">
        <ele>2448</ele>
      </trkpt>
      <trkpt lat="19.018459" lon="-99.208707">
        <ele>2445</ele>
      </trkpt>
      <trkpt lat="19.018353" lon="-99.208684">
        <ele>2444</ele>
      </trkpt>
      <trkpt lat="19.018316" lon="-99.208639">
        <ele>2442</ele>
      </trkpt>
      <trkpt lat="19.018285" lon="-99.20862">
        <ele>2442</ele>
      </trkpt>
      <trkpt lat="19.018248" lon="-99.208613">
        <ele>2440</ele>
      </trkpt>
      <trkpt lat="19.01819" lon="-99.208547">
        <ele>2439</ele>
      </trkpt>
      <trkpt lat="19.018173" lon="-99.208553">
        <ele>2437</ele>
      </trkpt>
      <trkpt lat="19.018106" lon="-99.208533">
        <ele>2435</ele>
      </trkpt>
      <trkpt lat="19.018041" lon="-99.20853">
        <ele>2433</ele>
      </trkpt>
      <trkpt lat="19.017983" lon="-99.208562">
        <ele>2433</ele>
      </trkpt>
      <trkpt lat="19.017875" lon="-99.208582">
        <ele>2433</ele>
      </trkpt>
      <trkpt lat="19.017789" lon="-99.208693">
        <ele>2432</ele>
      </trkpt>
      <trkpt lat="19.017709" lon="-99.208817">
        <ele>2430</ele>
      </trkpt>
      <trkpt lat="19.017615" lon="-99.208869">
        <ele>2428</ele>
      </trkpt>
      <trkpt lat="19.017516" lon="-99.208974">
        <ele>2426</ele>
      </trkpt>
      <trkpt lat="19.017432" lon="-99.208993">
        <ele>2422</ele>
      </trkpt>
      <trkpt lat="19.017215" lon="-99.209088">
        <ele>2420</ele>
      </trkpt>
      <trkpt lat="19.017175" lon="-99.209089">
        <ele>2418</ele>
      </trkpt>
      <trkpt lat="19.017118" lon="-99.20907">
        <ele>2420</ele>
      </trkpt>
      <trkpt lat="19.017052" lon="-99.209068">
        <ele>2418</ele>
      </trkpt>
      <trkpt lat="19.016948" lon="-99.209089">
        <ele>2418</ele>
      </trkpt>
      <trkpt lat="19.016885" lon="-99.209115">
        <ele>2416</ele>
      </trkpt>
      <trkpt lat="19.016792" lon="-99.209124">
        <ele>2414</ele>
      </trkpt>
      <trkpt lat="19.016746" lon="-99.209141">
        <ele>2414</ele>
      </trkpt>
      <trkpt lat="19.016642" lon="-99.209248">
        <ele>2414</ele>
      </trkpt>
      <trkpt lat="19.016586" lon="-99.209283">
        <ele>2412</ele>
      </trkpt>
      <trkpt lat="19.016573" lon="-99.209318">
        <ele>2412</ele>
      </trkpt>
      <trkpt lat="19.016543" lon="-99.209343">
        <ele>2412</ele>
      </trkpt>
      <trkpt lat="19.016472" lon="-99.209353">
        <ele>2411</ele>
      </trkpt>
      <trkpt lat="19.016393" lon="-99.209218">
        <ele>2410</ele>
      </trkpt>
      <trkpt lat="19.016363" lon="-99.20901">
        <ele>2406</ele>
      </trkpt>
      <trkpt lat="19.016274" lon="-99.208731">
        <ele>2400</ele>
      </trkpt>
      <trkpt lat="19.016217" lon="-99.20862">
        <ele>2400</ele>
      </trkpt>
      <trkpt lat="19.016201" lon="-99.208558">
        <ele>2398</ele>
      </trkpt>
      <trkpt lat="19.01615" lon="-99.208466">
        <ele>2397</ele>
      </trkpt>
      <trkpt lat="19.016093" lon="-99.208431">
        <ele>2396</ele>
      </trkpt>
      <trkpt lat="19.016071" lon="-99.208365">
        <ele>2394</ele>
      </trkpt>
      <trkpt lat="19.016075" lon="-99.208326">
        <ele>2396</ele>
      </trkpt>
      <trkpt lat="19.01617" lon="-99.208189">
        <ele>2392</ele>
      </trkpt>
      <trkpt lat="19.016175" lon="-99.208152">
        <ele>2392</ele>
      </trkpt>
      <trkpt lat="19.016163" lon="-99.208086">
        <ele>2392</ele>
      </trkpt>
      <trkpt lat="19.016069" lon="-99.207982">
        <ele>2390</ele>
      </trkpt>
      <trkpt lat="19.015983" lon="-99.207951">
        <ele>2388</ele>
      </trkpt>
      <trkpt lat="19.015856" lon="-99.207967">
        <ele>2388</ele>
      </trkpt>
      <trkpt lat="19.015697" lon="-99.207951">
        <ele>2385</ele>
      </trkpt>
      <trkpt lat="19.015616" lon="-99.207962">
        <ele>2385</ele>
      </trkpt>
      <trkpt lat="19.015578" lon="-99.207958">
        <ele>2385</ele>
      </trkpt>
      <trkpt lat="19.015538" lon="-99.207971">
        <ele>2385</ele>
      </trkpt>
      <trkpt lat="19.015508" lon="-99.207994">
        <ele>2385</ele>
      </trkpt>
      <trkpt lat="19.015472" lon="-99.208052">
        <ele>2384</ele>
      </trkpt>
      <trkpt lat="19.015367" lon="-99.208128">
        <ele>2385.2</ele>
      </trkpt>
      <trkpt lat="19.015203" lon="-99.208173">
        <ele>2382</ele>
      </trkpt>
      <trkpt lat="19.015136" lon="-99.208211">
        <ele>2382</ele>
      </trkpt>
      <trkpt lat="19.015057" lon="-99.208239">
        <ele>2382</ele>
      </trkpt>
      <trkpt lat="19.015024" lon="-99.208249">
        <ele>2382</ele>
      </trkpt>
      <trkpt lat="19.014985" lon="-99.208247">
        <ele>2382</ele>
      </trkpt>
      <trkpt lat="19.014929" lon="-99.208215">
        <ele>2379</ele>
      </trkpt>
      <trkpt lat="19.014893" lon="-99.208156">
        <ele>2380</ele>
      </trkpt>
      <trkpt lat="19.014879" lon="-99.208117">
        <ele>2379</ele>
      </trkpt>
      <trkpt lat="19.014888" lon="-99.208013">
        <ele>2378</ele>
      </trkpt>
      <trkpt lat="19.014847" lon="-99.207898">
        <ele>2375</ele>
      </trkpt>
      <trkpt lat="19.014779" lon="-99.207889">
        <ele>2376</ele>
      </trkpt>
      <trkpt lat="19.014645" lon="-99.207843">
        <ele>2374</ele>
      </trkpt>
      <trkpt lat="19.01451" lon="-99.207777">
        <ele>2373</ele>
      </trkpt>
      <trkpt lat="19.01431" lon="-99.207771">
        <ele>2371</ele>
      </trkpt>
      <trkpt lat="19.014149" lon="-99.20772">
        <ele>2370</ele>
      </trkpt>
      <trkpt lat="19.014083" lon="-99.207717">
        <ele>2367</ele>
      </trkpt>
      <trkpt lat="19.014043" lon="-99.207732">
        <ele>2365</ele>
      </trkpt>
      <trkpt lat="19.013913" lon="-99.207641">
        <ele>2366</ele>
      </trkpt>
      <trkpt lat="19.013808" lon="-99.207533">
        <ele>2364</ele>
      </trkpt>
      <trkpt lat="19.013751" lon="-99.207507">
        <ele>2364</ele>
      </trkpt>
      <trkpt lat="19.013678" lon="-99.207448">
        <ele>2364</ele>
      </trkpt>
      <trkpt lat="19.013644" lon="-99.207378">
        <ele>2364</ele>
      </trkpt>
      <trkpt lat="19.013576" lon="-99.207275">
        <ele>2362</ele>
      </trkpt>
      <trkpt lat="19.013548" lon="-99.207254">
        <ele>2360</ele>
      </trkpt>
      <trkpt lat="19.013476" lon="-99.207237">
        <ele>2360</ele>
      </trkpt>
      <trkpt lat="19.013399" lon="-99.207237">
        <ele>2361</ele>
      </trkpt>
      <trkpt lat="19.013368" lon="-99.207211">
        <ele>2361</ele>
      </trkpt>
      <trkpt lat="19.013265" lon="-99.207161">
        <ele>2360</ele>
      </trkpt>
      <trkpt lat="19.013188" lon="-99.207143">
        <ele>2360</ele>
      </trkpt>
      <trkpt lat="19.013123" lon="-99.207148">
        <ele>2360</ele>
      </trkpt>
      <trkpt lat="19.013081" lon="-99.207141">
        <ele>2358</ele>
      </trkpt>
      <trkpt lat="19.012941" lon="-99.207085">
        <ele>2358</ele>
      </trkpt>
      <trkpt lat="19.012834" lon="-99.207097">
        <ele>2355</ele>
      </trkpt>
      <trkpt lat="19.012584" lon="-99.206985">
        <ele>2354</ele>
      </trkpt>
      <trkpt lat="19.012506" lon="-99.206992">
        <ele>2352</ele>
      </trkpt>
      <trkpt lat="19.012343" lon="-99.206949">
        <ele>2349</ele>
      </trkpt>
      <trkpt lat="19.012201" lon="-99.206934">
        <ele>2349</ele>
      </trkpt>
      <trkpt lat="19.01213" lon="-99.206917">
        <ele>2347</ele>
      </trkpt>
      <trkpt lat="19.011965" lon="-99.206903">
        <ele>2346.8</ele>
      </trkpt>
      <trkpt lat="19.011835" lon="-99.20693">
        <ele>2343</ele>
      </trkpt>
      <trkpt lat="19.011761" lon="-99.206926">
        <ele>2343</ele>
      </trkpt>
      <trkpt lat="19.011564" lon="-99.206856">
        <ele>2343</ele>
      </trkpt>
      <trkpt lat="19.011444" lon="-99.20683">
        <ele>2340</ele>
      </trkpt>
      <trkpt lat="19.011299" lon="-99.206769">
        <ele>2340</ele>
      </trkpt>
      <trkpt lat="19.011217" lon="-99.206684">
        <ele>2340</ele>
      </trkpt>
      <trkpt lat="19.011083" lon="-99.206607">
        <ele>2338</ele>
      </trkpt>
      <trkpt lat="19.011022" lon="-99.20656">
        <ele>2338</ele>
      </trkpt>
      <trkpt lat="19.010924" lon="-99.206529">
        <ele>2335</ele>
      </trkpt>
      <trkpt lat="19.010759" lon="-99.206389">
        <ele>2334</ele>
      </trkpt>
      <trkpt lat="19.010705" lon="-99.206356">
        <ele>2331</ele>
      </trkpt>
      <trkpt lat="19.01064" lon="-99.206264">
        <ele>2332</ele>
      </trkpt>
      <trkpt lat="19.010478" lon="-99.206194">
        <ele>2328</ele>
      </trkpt>
      <trkpt lat="19.010281" lon="-99.205988">
        <ele>2326</ele>
      </trkpt>
      <trkpt lat="19.010178" lon="-99.205853">
        <ele>2325</ele>
      </trkpt>
      <trkpt lat="19.010114" lon="-99.2058">
        <ele>2324</ele>
      </trkpt>
      <trkpt lat="19.010094" lon="-99.20577">
        <ele>2324</ele>
      </trkpt>
      <trkpt lat="19.010094" lon="-99.205735">
        <ele>2324</ele>
      </trkpt>
      <trkpt lat="19.010109" lon="-99.205703">
        <ele>2323</ele>
      </trkpt>
      <trkpt lat="19.010083" lon="-99.205602">
        <ele>2322</ele>
      </trkpt>
      <trkpt lat="19.010135" lon="-99.205468">
        <ele>2319</ele>
      </trkpt>
      <trkpt lat="19.010172" lon="-99.205404">
        <ele>2319</ele>
      </trkpt>
      <trkpt lat="19.010177" lon="-99.205348">
        <ele>2316</ele>
      </trkpt>
      <trkpt lat="19.010122" lon="-99.205162">
        <ele>2313</ele>
      </trkpt>
      <trkpt lat="19.010141" lon="-99.205092">
        <ele>2313</ele>
      </trkpt>
      <trkpt lat="19.010154" lon="-99.204971">
        <ele>2312</ele>
      </trkpt>
      <trkpt lat="19.010234" lon="-99.204816">
        <ele>2308</ele>
      </trkpt>
      <trkpt lat="19.010248" lon="-99.204746">
        <ele>2304</ele>
      </trkpt>
      <trkpt lat="19.010215" lon="-99.20468">
        <ele>2304</ele>
      </trkpt>
      <trkpt lat="19.010148" lon="-99.204646">
        <ele>2301</ele>
      </trkpt>
      <trkpt lat="19.010098" lon="-99.204602">
        <ele>2301</ele>
      </trkpt>
      <trkpt lat="19.010019" lon="-99.204507">
        <ele>2295</ele>
      </trkpt>
      <trkpt lat="19.009996" lon="-99.204438">
        <ele>2298</ele>
      </trkpt>
      <trkpt lat="19.009982" lon="-99.204356">
        <ele>2295</ele>
      </trkpt>
      <trkpt lat="19.009996" lon="-99.204252">
        <ele>2294</ele>
      </trkpt>
      <trkpt lat="19.010012" lon="-99.204179">
        <ele>2294</ele>
      </trkpt>
      <trkpt lat="19.010061" lon="-99.204047">
        <ele>2292</ele>
      </trkpt>
      <trkpt lat="19.010069" lon="-99.204007">
        <ele>2292</ele>
      </trkpt>
      <trkpt lat="19.010066" lon="-99.203938">
        <ele>2292</ele>
      </trkpt>
      <trkpt lat="19.010021" lon="-99.203839">
        <ele>2290</ele>
      </trkpt>
      <trkpt lat="19.009951" lon="-99.203801">
        <ele>2290</ele>
      </trkpt>
      <trkpt lat="19.009858" lon="-99.203694">
        <ele>2288</ele>
      </trkpt>
      <trkpt lat="19.009781" lon="-99.203649">
        <ele>2288</ele>
      </trkpt>
      <trkpt lat="19.009688" lon="-99.203621">
        <ele>2286</ele>
      </trkpt>
      <trkpt lat="19.009521" lon="-99.203622">
        <ele>2286</ele>
      </trkpt>
      <trkpt lat="19.009328" lon="-99.203584">
        <ele>2283</ele>
      </trkpt>
      <trkpt lat="19.009286" lon="-99.203561">
        <ele>2283</ele>
      </trkpt>
      <trkpt lat="19.009049" lon="-99.203654">
        <ele>2280</ele>
      </trkpt>
      <trkpt lat="19.008965" lon="-99.203736">
        <ele>2280</ele>
      </trkpt>
      <trkpt lat="19.008867" lon="-99.203791">
        <ele>2277</ele>
      </trkpt>
      <trkpt lat="19.008824" lon="-99.203842">
        <ele>2277</ele>
      </trkpt>
      <trkpt lat="19.008765" lon="-99.203889">
        <ele>2276</ele>
      </trkpt>
      <trkpt lat="19.008734" lon="-99.203893">
        <ele>2274</ele>
      </trkpt>
      <trkpt lat="19.008584" lon="-99.203838">
        <ele>2272</ele>
      </trkpt>
      <trkpt lat="19.008516" lon="-99.203854">
        <ele>2268</ele>
      </trkpt>
      <trkpt lat="19.008363" lon="-99.203847">
        <ele>2268</ele>
      </trkpt>
      <trkpt lat="19.008267" lon="-99.203814">
        <ele>2265</ele>
      </trkpt>
      <trkpt lat="19.008209" lon="-99.203774">
        <ele>2262</ele>
      </trkpt>
      <trkpt lat="19.008174" lon="-99.203771">
        <ele>2262</ele>
      </trkpt>
      <trkpt lat="19.008101" lon="-99.20378">
        <ele>2262</ele>
      </trkpt>
      <trkpt lat="19.007984" lon="-99.20384">
        <ele>2260</ele>
      </trkpt>
      <trkpt lat="19.007829" lon="-99.203824">
        <ele>2257</ele>
      </trkpt>
      <trkpt lat="19.00777" lon="-99.203791">
        <ele>2256</ele>
      </trkpt>
      <trkpt lat="19.007725" lon="-99.203726">
        <ele>2254</ele>
      </trkpt>
      <trkpt lat="19.007694" lon="-99.20372">
        <ele>2254</ele>
      </trkpt>
      <trkpt lat="19.007669" lon="-99.203699">
        <ele>2253</ele>
      </trkpt>
      <trkpt lat="19.007631" lon="-99.203594">
        <ele>2250</ele>
      </trkpt>
      <trkpt lat="19.007596" lon="-99.203576">
        <ele>2250</ele>
      </trkpt>
      <trkpt lat="19.00753" lon="-99.203565">
        <ele>2248</ele>
      </trkpt>
      <trkpt lat="19.007445" lon="-99.203569">
        <ele>2245</ele>
      </trkpt>
      <trkpt lat="19.007308" lon="-99.203601">
        <ele>2244</ele>
      </trkpt>
      <trkpt lat="19.007228" lon="-99.203594">
        <ele>2241</ele>
      </trkpt>
      <trkpt lat="19.007062" lon="-99.203643">
        <ele>2240</ele>
      </trkpt>
      <trkpt lat="19.007028" lon="-99.203661">
        <ele>2241</ele>
      </trkpt>
      <trkpt lat="19.006997" lon="-99.203648">
        <ele>2240</ele>
      </trkpt>
      <trkpt lat="19.006945" lon="-99.203607">
        <ele>2238</ele>
      </trkpt>
      <trkpt lat="19.006892" lon="-99.203548">
        <ele>2238</ele>
      </trkpt>
      <trkpt lat="19.006842" lon="-99.203462">
        <ele>2236</ele>
      </trkpt>
      <trkpt lat="19.006823" lon="-99.203393">
        <ele>2235</ele>
      </trkpt>
      <trkpt lat="19.006732" lon="-99.203331">
        <ele>2233</ele>
      </trkpt>
      <trkpt lat="19.006712" lon="-99.203298">
        <ele>2234</ele>
      </trkpt>
      <trkpt lat="19.006707" lon="-99.203235">
        <ele>2232</ele>
      </trkpt>
      <trkpt lat="19.006666" lon="-99.203129">
        <ele>2232</ele>
      </trkpt>
      <trkpt lat="19.006647" lon="-99.203104">
        <ele>2232</ele>
      </trkpt>
      <trkpt lat="19.006535" lon="-99.203036">
        <ele>2230.7</ele>
      </trkpt>
      <trkpt lat="19.006458" lon="-99.202967">
        <ele>2228</ele>
      </trkpt>
      <trkpt lat="19.006324" lon="-99.202907">
        <ele>2228</ele>
      </trkpt>
      <trkpt lat="19.006274" lon="-99.202858">
        <ele>2226</ele>
      </trkpt>
      <trkpt lat="19.006233" lon="-99.202849">
        <ele>2226</ele>
      </trkpt>
      <trkpt lat="19.006121" lon="-99.202842">
        <ele>2224</ele>
      </trkpt>
      <trkpt lat="19.006088" lon="-99.202855">
        <ele>2224</ele>
      </trkpt>
      <trkpt lat="19.006066" lon="-99.202881">
        <ele>2223</ele>
      </trkpt>
      <trkpt lat="19.005917" lon="-99.202968">
        <ele>2223</ele>
      </trkpt>
      <trkpt lat="19.005815" lon="-99.202921">
        <ele>2223</ele>
      </trkpt>
      <trkpt lat="19.005733" lon="-99.20279">
        <ele>2220</ele>
      </trkpt>
      <trkpt lat="19.005707" lon="-99.202772">
        <ele>2220</ele>
      </trkpt>
      <trkpt lat="19.005686" lon="-99.202736">
        <ele>2220</ele>
      </trkpt>
      <trkpt lat="19.005677" lon="-99.202685">
        <ele>2220</ele>
      </trkpt>
      <trkpt lat="19.00569" lon="-99.202544">
        <ele>2219</ele>
      </trkpt>
      <trkpt lat="19.005651" lon="-99.202364">
        <ele>2216</ele>
      </trkpt>
      <trkpt lat="19.00565" lon="-99.202283">
        <ele>2214</ele>
      </trkpt>
      <trkpt lat="19.005531" lon="-99.202097">
        <ele>2211</ele>
      </trkpt>
      <trkpt lat="19.005512" lon="-99.202025">
        <ele>2210</ele>
      </trkpt>
      <trkpt lat="19.005401" lon="-99.201955">
        <ele>2210</ele>
      </trkpt>
      <trkpt lat="19.005355" lon="-99.201909">
        <ele>2208</ele>
      </trkpt>
      <trkpt lat="19.005275" lon="-99.201884">
        <ele>2206</ele>
      </trkpt>
      <trkpt lat="19.005161" lon="-99.201892">
        <ele>2206</ele>
      </trkpt>
      <trkpt lat="19.005111" lon="-99.201863">
        <ele>2206</ele>
      </trkpt>
      <trkpt lat="19.005027" lon="-99.20172">
        <ele>2204</ele>
      </trkpt>
      <trkpt lat="19.004897" lon="-99.201633">
        <ele>2201</ele>
      </trkpt>
      <trkpt lat="19.00486" lon="-99.201576">
        <ele>2200</ele>
      </trkpt>
      <trkpt lat="19.004828" lon="-99.201554">
        <ele>2200</ele>
      </trkpt>
      <trkpt lat="19.004794" lon="-99.20155">
        <ele>2200</ele>
      </trkpt>
      <trkpt lat="19.004762" lon="-99.20157">
        <ele>2200</ele>
      </trkpt>
      <trkpt lat="19.004716" lon="-99.201661">
        <ele>2198</ele>
      </trkpt>
      <trkpt lat="19.004688" lon="-99.201679">
        <ele>2198</ele>
      </trkpt>
      <trkpt lat="19.004658" lon="-99.201669">
        <ele>2197</ele>
      </trkpt>
      <trkpt lat="19.004598" lon="-99.201485">
        <ele>2194</ele>
      </trkpt>
      <trkpt lat="19.004537" lon="-99.201389">
        <ele>2192</ele>
      </trkpt>
      <trkpt lat="19.004441" lon="-99.201274">
        <ele>2190</ele>
      </trkpt>
      <trkpt lat="19.004303" lon="-99.201228">
        <ele>2190</ele>
      </trkpt>
      <trkpt lat="19.004257" lon="-99.20118">
        <ele>2187</ele>
      </trkpt>
      <trkpt lat="19.00415" lon="-99.201137">
        <ele>2187</ele>
      </trkpt>
      <trkpt lat="19.004089" lon="-99.201099">
        <ele>2186</ele>
      </trkpt>
      <trkpt lat="19.003979" lon="-99.200961">
        <ele>2182</ele>
      </trkpt>
      <trkpt lat="19.003857" lon="-99.200977">
        <ele>2182</ele>
      </trkpt>
      <trkpt lat="19.003776" lon="-99.201006">
        <ele>2182</ele>
      </trkpt>
      <trkpt lat="19.003656" lon="-99.200986">
        <ele>2181</ele>
      </trkpt>
      <trkpt lat="19.003595" lon="-99.200941">
        <ele>2181</ele>
      </trkpt>
      <trkpt lat="19.003531" lon="-99.200863">
        <ele>2180</ele>
      </trkpt>
      <trkpt lat="19.003348" lon="-99.200828">
        <ele>2176</ele>
      </trkpt>
      <trkpt lat="19.003296" lon="-99.200795">
        <ele>2175</ele>
      </trkpt>
      <trkpt lat="19.003267" lon="-99.200727">
        <ele>2175</ele>
      </trkpt>
      <trkpt lat="19.003257" lon="-99.200587">
        <ele>2174</ele>
      </trkpt>
      <trkpt lat="19.003245" lon="-99.200554">
        <ele>2174</ele>
      </trkpt>
      <trkpt lat="19.003216" lon="-99.200532">
        <ele>2174</ele>
      </trkpt>
      <trkpt lat="19.003041" lon="-99.200464">
        <ele>2173.1</ele>
      </trkpt>
      <trkpt lat="19.002919" lon="-99.200355">
        <ele>2169</ele>
      </trkpt>
      <trkpt lat="19.002807" lon="-99.200334">
        <ele>2168</ele>
      </trkpt>
      <trkpt lat="19.002732" lon="-99.200353">
        <ele>2168</ele>
      </trkpt>
      <trkpt lat="19.002585" lon="-99.200458">
        <ele>2168</ele>
      </trkpt>
      <trkpt lat="19.002468" lon="-99.200496">
        <ele>2166</ele>
      </trkpt>
      <trkpt lat="19.002367" lon="-99.200465">
        <ele>2163</ele>
      </trkpt>
      <trkpt lat="19.002319" lon="-99.2004">
        <ele>2164</ele>
      </trkpt>
      <trkpt lat="19.002307" lon="-99.200232">
        <ele>2163</ele>
      </trkpt>
      <trkpt lat="19.002273" lon="-99.200165">
        <ele>2160</ele>
      </trkpt>
      <trkpt lat="19.002215" lon="-99.200111">
        <ele>2160</ele>
      </trkpt>
      <trkpt lat="19.002181" lon="-99.200092">
        <ele>2160</ele>
      </trkpt>
      <trkpt lat="19.002142" lon="-99.200088">
        <ele>2158</ele>
      </trkpt>
      <trkpt lat="19.002105" lon="-99.200106">
        <ele>2157</ele>
      </trkpt>
      <trkpt lat="19.002062" lon="-99.200168">
        <ele>2158</ele>
      </trkpt>
      <trkpt lat="19.002015" lon="-99.20021">
        <ele>2156</ele>
      </trkpt>
      <trkpt lat="19.001814" lon="-99.20034">
        <ele>2154</ele>
      </trkpt>
      <trkpt lat="19.001779" lon="-99.200352">
        <ele>2154</ele>
      </trkpt>
      <trkpt lat="19.00164" lon="-99.200351">
        <ele>2152</ele>
      </trkpt>
      <trkpt lat="19.001604" lon="-99.200335">
        <ele>2151</ele>
      </trkpt>
      <trkpt lat="19.001576" lon="-99.200308">
        <ele>2150</ele>
      </trkpt>
      <trkpt lat="19.001563" lon="-99.200278">
        <ele>2150</ele>
      </trkpt>
      <trkpt lat="19.001569" lon="-99.200216">
        <ele>2150</ele>
      </trkpt>
      <trkpt lat="19.001522" lon="-99.200154">
        <ele>2148</ele>
      </trkpt>
      <trkpt lat="19.001414" lon="-99.200112">
        <ele>2145</ele>
      </trkpt>
      <trkpt lat="19.001312" lon="-99.200089">
        <ele>2140</ele>
      </trkpt>
      <trkpt lat="19.001211" lon="-99.20001">
        <ele>2139</ele>
      </trkpt>
      <trkpt lat="19.001153" lon="-99.199986">
        <ele>2136</ele>
      </trkpt>
      <trkpt lat="19.001068" lon="-99.19993">
        <ele>2135</ele>
      </trkpt>
      <trkpt lat="19.001029" lon="-99.199923">
        <ele>2130</ele>
      </trkpt>
      <trkpt lat="19.001042" lon="-99.199849">
        <ele>2132</ele>
      </trkpt>
      <trkpt lat="19.00103" lon="-99.199684">
        <ele>2130</ele>
      </trkpt>
      <trkpt lat="19.001037" lon="-99.199608">
        <ele>2130</ele>
      </trkpt>
      <trkpt lat="19.001017" lon="-99.19954">
        <ele>2130</ele>
      </trkpt>
      <trkpt lat="19.001038" lon="-99.199436">
        <ele>2132</ele>
      </trkpt>
      <trkpt lat="19.001011" lon="-99.199477">
        <ele>2132.4</ele>
      </trkpt>
      <trkpt lat="19.001003" lon="-99.199564">
        <ele>2128</ele>
      </trkpt>
      <trkpt lat="19.000989" lon="-99.199601">
        <ele>2130</ele>
      </trkpt>
      <trkpt lat="19.000998" lon="-99.199818">
        <ele>2130</ele>
      </trkpt>
      <trkpt lat="19.001009" lon="-99.199846">
        <ele>2130</ele>
      </trkpt>
      <trkpt lat="19.001002" lon="-99.199941">
        <ele>2133</ele>
      </trkpt>
      <trkpt lat="19.000986" lon="-99.199977">
        <ele>2130</ele>
      </trkpt>
      <trkpt lat="19.00091" lon="-99.199982">
        <ele>2130</ele>
      </trkpt>
      <trkpt lat="19.000833" lon="-99.199974">
        <ele>2130</ele>
      </trkpt>
      <trkpt lat="19.000799" lon="-99.19995">
        <ele>2129</ele>
      </trkpt>
      <trkpt lat="19.000686" lon="-99.199909">
        <ele>2126</ele>
      </trkpt>
      <trkpt lat="19.000589" lon="-99.199894">
        <ele>2123</ele>
      </trkpt>
      <trkpt lat="19.000557" lon="-99.199877">
        <ele>2121</ele>
      </trkpt>
      <trkpt lat="19.000494" lon="-99.199795">
        <ele>2121</ele>
      </trkpt>
      <trkpt lat="19.000462" lon="-99.199783">
        <ele>2119</ele>
      </trkpt>
      <trkpt lat="19.000426" lon="-99.199789">
        <ele>2118</ele>
      </trkpt>
      <trkpt lat="19.00039" lon="-99.199774">
        <ele>2118</ele>
      </trkpt>
      <trkpt lat="19.000209" lon="-99.199611">
        <ele>2114</ele>
      </trkpt>
      <trkpt lat="19.000181" lon="-99.199596">
        <ele>2114</ele>
      </trkpt>
      <trkpt lat="19.00011" lon="-99.199587">
        <ele>2113</ele>
      </trkpt>
      <trkpt lat="19.000003" lon="-99.199615">
        <ele>2112</ele>
      </trkpt>
      <trkpt lat="18.999948" lon="-99.199651">
        <ele>2109</ele>
      </trkpt>
      <trkpt lat="18.999882" lon="-99.199729">
        <ele>2109</ele>
      </trkpt>
      <trkpt lat="18.999687" lon="-99.199848">
        <ele>2108</ele>
      </trkpt>
      <trkpt lat="18.999632" lon="-99.199895">
        <ele>2107.8</ele>
      </trkpt>
      <trkpt lat="18.999557" lon="-99.199912">
        <ele>2106</ele>
      </trkpt>
      <trkpt lat="18.999496" lon="-99.19994">
        <ele>2106</ele>
      </trkpt>
      <trkpt lat="18.999459" lon="-99.19994">
        <ele>2106</ele>
      </trkpt>
      <trkpt lat="18.999339" lon="-99.199899">
        <ele>2103</ele>
      </trkpt>
      <trkpt lat="18.999313" lon="-99.199866">
        <ele>2104</ele>
      </trkpt>
      <trkpt lat="18.999302" lon="-99.199831">
        <ele>2104</ele>
      </trkpt>
      <trkpt lat="18.999292" lon="-99.199718">
        <ele>2102</ele>
      </trkpt>
      <trkpt lat="18.999278" lon="-99.199672">
        <ele>2103</ele>
      </trkpt>
      <trkpt lat="18.999162" lon="-99.199602">
        <ele>2102</ele>
      </trkpt>
      <trkpt lat="18.99911" lon="-99.199584">
        <ele>2100</ele>
      </trkpt>
      <trkpt lat="18.99904" lon="-99.199431">
        <ele>2098</ele>
      </trkpt>
      <trkpt lat="18.998845" lon="-99.199208">
        <ele>2094</ele>
      </trkpt>
      <trkpt lat="18.998762" lon="-99.199052">
        <ele>2094</ele>
      </trkpt>
      <trkpt lat="18.998623" lon="-99.198932">
        <ele>2091</ele>
      </trkpt>
      <trkpt lat="18.998555" lon="-99.198896">
        <ele>2089</ele>
      </trkpt>
      <trkpt lat="18.998453" lon="-99.198867">
        <ele>2090</ele>
      </trkpt>
      <trkpt lat="18.998357" lon="-99.198822">
        <ele>2088</ele>
      </trkpt>
      <trkpt lat="18.998305" lon="-99.198771">
        <ele>2088</ele>
      </trkpt>
      <trkpt lat="18.998187" lon="-99.198715">
        <ele>2088</ele>
      </trkpt>
      <trkpt lat="18.998138" lon="-99.198672">
        <ele>2085</ele>
      </trkpt>
      <trkpt lat="18.998076" lon="-99.198644">
        <ele>2084</ele>
      </trkpt>
      <trkpt lat="18.998059" lon="-99.198577">
        <ele>2082</ele>
      </trkpt>
      <trkpt lat="18.998018" lon="-99.198519">
        <ele>2080</ele>
      </trkpt>
      <trkpt lat="18.997992" lon="-99.198461">
        <ele>2081</ele>
      </trkpt>
      <trkpt lat="18.997861" lon="-99.198374">
        <ele>2078</ele>
      </trkpt>
      <trkpt lat="18.99782" lon="-99.198403">
        <ele>2064</ele>
      </trkpt>
      <trkpt lat="18.997865" lon="-99.198328">
        <ele>2076</ele>
      </trkpt>
      <trkpt lat="18.997896" lon="-99.198305">
        <ele>2076</ele>
      </trkpt>
      <trkpt lat="18.99793" lon="-99.198309">
        <ele>2073</ele>
      </trkpt>
      <trkpt lat="18.997877" lon="-99.198333">
        <ele>2076</ele>
      </trkpt>
      <trkpt lat="18.997813" lon="-99.198424">
        <ele>2076</ele>
      </trkpt>
      <trkpt lat="18.997797" lon="-99.198457">
        <ele>2076</ele>
      </trkpt>
      <trkpt lat="18.997791" lon="-99.198595">
        <ele>2077</ele>
      </trkpt>
      <trkpt lat="18.997728" lon="-99.198687">
        <ele>2079</ele>
      </trkpt>
      <trkpt lat="18.997681" lon="-99.198705">
        <ele>2076</ele>
      </trkpt>
      <trkpt lat="18.997649" lon="-99.19873">
        <ele>2076.8</ele>
      </trkpt>
      <trkpt lat="18.997636" lon="-99.198764">
        <ele>2076</ele>
      </trkpt>
      <trkpt lat="18.997532" lon="-99.198845">
        <ele>2072</ele>
      </trkpt>
      <trkpt lat="18.997407" lon="-99.198993">
        <ele>2076</ele>
      </trkpt>
      <trkpt lat="18.997351" lon="-99.198996">
        <ele>2071</ele>
      </trkpt>
      <trkpt lat="18.997268" lon="-99.198893">
        <ele>2070</ele>
      </trkpt>
      <trkpt lat="18.997193" lon="-99.198861">
        <ele>2070</ele>
      </trkpt>
      <trkpt lat="18.997189" lon="-99.198797">
        <ele>2067</ele>
      </trkpt>
      <trkpt lat="18.997173" lon="-99.198767">
        <ele>2064</ele>
      </trkpt>
      <trkpt lat="18.997113" lon="-99.198723">
        <ele>2064</ele>
      </trkpt>
      <trkpt lat="18.997099" lon="-99.198689">
        <ele>2064</ele>
      </trkpt>
      <trkpt lat="18.997116" lon="-99.198629">
        <ele>2062</ele>
      </trkpt>
      <trkpt lat="18.997104" lon="-99.198577">
        <ele>2061.5</ele>
      </trkpt>
      <trkpt lat="18.996955" lon="-99.198448">
        <ele>2058</ele>
      </trkpt>
      <trkpt lat="18.99692" lon="-99.198436">
        <ele>2057</ele>
      </trkpt>
      <trkpt lat="18.9969" lon="-99.198405">
        <ele>2056</ele>
      </trkpt>
      <trkpt lat="18.996893" lon="-99.198365">
        <ele>2054</ele>
      </trkpt>
      <trkpt lat="18.996852" lon="-99.198339">
        <ele>2055</ele>
      </trkpt>
      <trkpt lat="18.996734" lon="-99.198321">
        <ele>2056</ele>
      </trkpt>
      <trkpt lat="18.996611" lon="-99.198363">
        <ele>2056</ele>
      </trkpt>
      <trkpt lat="18.996569" lon="-99.198368">
        <ele>2053</ele>
      </trkpt>
      <trkpt lat="18.996547" lon="-99.198392">
        <ele>2048</ele>
      </trkpt>
      <trkpt lat="18.996577" lon="-99.198457">
        <ele>2053</ele>
      </trkpt>
      <trkpt lat="18.996619" lon="-99.198506">
        <ele>2052</ele>
      </trkpt>
      <trkpt lat="18.996624" lon="-99.198533">
        <ele>2054</ele>
      </trkpt>
      <trkpt lat="18.99662" lon="-99.198599">
        <ele>2053</ele>
      </trkpt>
      <trkpt lat="18.996572" lon="-99.198652">
        <ele>2051</ele>
      </trkpt>
      <trkpt lat="18.996515" lon="-99.198661">
        <ele>2052</ele>
      </trkpt>
      <trkpt lat="18.996462" lon="-99.198699">
        <ele>2048</ele>
      </trkpt>
      <trkpt lat="18.996386" lon="-99.198704">
        <ele>2046</ele>
      </trkpt>
      <trkpt lat="18.996264" lon="-99.198669">
        <ele>2042</ele>
      </trkpt>
      <trkpt lat="18.99621" lon="-99.198701">
        <ele>2040</ele>
      </trkpt>
      <trkpt lat="18.996129" lon="-99.1987">
        <ele>2041.5</ele>
      </trkpt>
    </trkseg>
  </trk>
</gpx>
