<?xml version='1.0' encoding='utf-8'?>
<gpx xmlns="http://www.topografix.com/GPX/1/1" version="1.1" creator="mapas_BotasPuestas GPX importer">
  <metadata>
    <name>La cueva del mictlan</name>
    <desc>Candidata importada de La_cueva_del_mictlan_.gpx, &lt;trk&gt; #1. Debe revisarse antes de publicarse.</desc>
    <bounds minlat="18.99661" minlon="-99.201618" maxlat="19.009908" maxlon="-99.19547" />
  </metadata>
  <trk>
    <name>La cueva del mictlan</name>
    <type>senderismo</type>
    <trkseg>
      <trkpt lat="19.00915" lon="-99.200344">
        <ele>2232.2</ele>
      </trkpt>
      <trkpt lat="19.009206" lon="-99.200355">
        <ele>2235</ele>
      </trkpt>
      <trkpt lat="19.00923" lon="-99.200337">
        <ele>2235</ele>
      </trkpt>
      <trkpt lat="19.009254" lon="-99.200296">
        <ele>2236</ele>
      </trkpt>
      <trkpt lat="19.009243" lon="-99.20026">
        <ele>2235</ele>
      </trkpt>
      <trkpt lat="19.009322" lon="-99.200244">
        <ele>2233</ele>
      </trkpt>
      <trkpt lat="19.009381" lon="-99.200214">
        <ele>2237.3</ele>
      </trkpt>
      <trkpt lat="19.009397" lon="-99.200185">
        <ele>2237</ele>
      </trkpt>
      <trkpt lat="19.009436" lon="-99.200165">
        <ele>2236</ele>
      </trkpt>
      <trkpt lat="19.009517" lon="-99.200177">
        <ele>2233</ele>
      </trkpt>
      <trkpt lat="19.009582" lon="-99.200204">
        <ele>2238</ele>
      </trkpt>
      <trkpt lat="19.009746" lon="-99.200224">
        <ele>2244</ele>
      </trkpt>
      <trkpt lat="19.009824" lon="-99.200282">
        <ele>2244</ele>
      </trkpt>
      <trkpt lat="19.009889" lon="-99.200367">
        <ele>2248</ele>
      </trkpt>
      <trkpt lat="19.009908" lon="-99.20043">
        <ele>2248</ele>
      </trkpt>
      <trkpt lat="19.009905" lon="-99.200583">
        <ele>2250</ele>
      </trkpt>
      <trkpt lat="19.009854" lon="-99.200714">
        <ele>2248</ele>
      </trkpt>
      <trkpt lat="19.009789" lon="-99.200806">
        <ele>2250</ele>
      </trkpt>
      <trkpt lat="19.009764" lon="-99.200869">
        <ele>2250</ele>
      </trkpt>
      <trkpt lat="19.009795" lon="-99.200999">
        <ele>2250</ele>
      </trkpt>
      <trkpt lat="19.0098" lon="-99.201165">
        <ele>2247</ele>
      </trkpt>
      <trkpt lat="19.00979" lon="-99.201272">
        <ele>2250</ele>
      </trkpt>
      <trkpt lat="19.009765" lon="-99.201293">
        <ele>2250</ele>
      </trkpt>
      <trkpt lat="19.009467" lon="-99.201117">
        <ele>2249</ele>
      </trkpt>
      <trkpt lat="19.009395" lon="-99.201086">
        <ele>2240</ele>
      </trkpt>
      <trkpt lat="19.009311" lon="-99.201093">
        <ele>2244</ele>
      </trkpt>
      <trkpt lat="19.009261" lon="-99.201082">
        <ele>2244.6</ele>
      </trkpt>
      <trkpt lat="19.00912" lon="-99.2011">
        <ele>2240</ele>
      </trkpt>
      <trkpt lat="19.009048" lon="-99.201078">
        <ele>2239</ele>
      </trkpt>
      <trkpt lat="19.00902" lon="-99.201051">
        <ele>2239</ele>
      </trkpt>
      <trkpt lat="19.008958" lon="-99.201017">
        <ele>2235</ele>
      </trkpt>
      <trkpt lat="19.008854" lon="-99.200984">
        <ele>2236</ele>
      </trkpt>
      <trkpt lat="19.008817" lon="-99.200994">
        <ele>2235</ele>
      </trkpt>
      <trkpt lat="19.008655" lon="-99.201083">
        <ele>2235</ele>
      </trkpt>
      <trkpt lat="19.008587" lon="-99.201093">
        <ele>2231</ele>
      </trkpt>
      <trkpt lat="19.008551" lon="-99.201112">
        <ele>2230</ele>
      </trkpt>
      <trkpt lat="19.008482" lon="-99.201109">
        <ele>2228</ele>
      </trkpt>
      <trkpt lat="19.008395" lon="-99.201068">
        <ele>2226</ele>
      </trkpt>
      <trkpt lat="19.008282" lon="-99.201095">
        <ele>2224</ele>
      </trkpt>
      <trkpt lat="19.008188" lon="-99.20115">
        <ele>2223</ele>
      </trkpt>
      <trkpt lat="19.008131" lon="-99.201198">
        <ele>2222</ele>
      </trkpt>
      <trkpt lat="19.008114" lon="-99.201238">
        <ele>2222</ele>
      </trkpt>
      <trkpt lat="19.008091" lon="-99.201262">
        <ele>2224</ele>
      </trkpt>
      <trkpt lat="19.00803" lon="-99.201456">
        <ele>2220</ele>
      </trkpt>
      <trkpt lat="19.007988" lon="-99.201514">
        <ele>2220</ele>
      </trkpt>
      <trkpt lat="19.007813" lon="-99.201525">
        <ele>2220</ele>
      </trkpt>
      <trkpt lat="19.007741" lon="-99.201506">
        <ele>2222</ele>
      </trkpt>
      <trkpt lat="19.007705" lon="-99.201509">
        <ele>2220</ele>
      </trkpt>
      <trkpt lat="19.007671" lon="-99.201523">
        <ele>2217</ele>
      </trkpt>
      <trkpt lat="19.007561" lon="-99.201618">
        <ele>2211</ele>
      </trkpt>
      <trkpt lat="19.007498" lon="-99.201569">
        <ele>2211</ele>
      </trkpt>
      <trkpt lat="19.007457" lon="-99.20157">
        <ele>2210</ele>
      </trkpt>
      <trkpt lat="19.007294" lon="-99.201479">
        <ele>2207</ele>
      </trkpt>
      <trkpt lat="19.007239" lon="-99.201296">
        <ele>2205</ele>
      </trkpt>
      <trkpt lat="19.007213" lon="-99.201273">
        <ele>2206</ele>
      </trkpt>
      <trkpt lat="19.007194" lon="-99.201216">
        <ele>2204</ele>
      </trkpt>
      <trkpt lat="19.007074" lon="-99.201043">
        <ele>2202</ele>
      </trkpt>
      <trkpt lat="19.007054" lon="-99.200989">
        <ele>2201</ele>
      </trkpt>
      <trkpt lat="19.007006" lon="-99.200945">
        <ele>2201</ele>
      </trkpt>
      <trkpt lat="19.00697" lon="-99.200944">
        <ele>2200</ele>
      </trkpt>
      <trkpt lat="19.006887" lon="-99.201015">
        <ele>2199</ele>
      </trkpt>
      <trkpt lat="19.006861" lon="-99.201055">
        <ele>2199</ele>
      </trkpt>
      <trkpt lat="19.006753" lon="-99.201076">
        <ele>2200</ele>
      </trkpt>
      <trkpt lat="19.006661" lon="-99.201061">
        <ele>2202</ele>
      </trkpt>
      <trkpt lat="19.006497" lon="-99.201005">
        <ele>2194</ele>
      </trkpt>
      <trkpt lat="19.006461" lon="-99.201006">
        <ele>2192</ele>
      </trkpt>
      <trkpt lat="19.006404" lon="-99.200957">
        <ele>2193.3</ele>
      </trkpt>
      <trkpt lat="19.006354" lon="-99.20087">
        <ele>2190</ele>
      </trkpt>
      <trkpt lat="19.006196" lon="-99.200685">
        <ele>2186</ele>
      </trkpt>
      <trkpt lat="19.006125" lon="-99.200627">
        <ele>2186</ele>
      </trkpt>
      <trkpt lat="19.006055" lon="-99.200549">
        <ele>2184</ele>
      </trkpt>
      <trkpt lat="19.00596" lon="-99.200502">
        <ele>2184.1</ele>
      </trkpt>
      <trkpt lat="19.00584" lon="-99.200014">
        <ele>2187</ele>
      </trkpt>
      <trkpt lat="19.005851" lon="-99.199896">
        <ele>2188</ele>
      </trkpt>
      <trkpt lat="19.005829" lon="-99.199828">
        <ele>2187</ele>
      </trkpt>
      <trkpt lat="19.005833" lon="-99.199763">
        <ele>2187</ele>
      </trkpt>
      <trkpt lat="19.005873" lon="-99.199616">
        <ele>2188</ele>
      </trkpt>
      <trkpt lat="19.005927" lon="-99.199584">
        <ele>2188</ele>
      </trkpt>
      <trkpt lat="19.00595" lon="-99.199515">
        <ele>2190.7</ele>
      </trkpt>
      <trkpt lat="19.005975" lon="-99.199479">
        <ele>2190</ele>
      </trkpt>
      <trkpt lat="19.005977" lon="-99.199439">
        <ele>2190</ele>
      </trkpt>
      <trkpt lat="19.005975" lon="-99.199475">
        <ele>2191</ele>
      </trkpt>
      <trkpt lat="19.005926" lon="-99.199553">
        <ele>2191</ele>
      </trkpt>
      <trkpt lat="19.00588" lon="-99.199588">
        <ele>2188</ele>
      </trkpt>
      <trkpt lat="19.00585" lon="-99.199571">
        <ele>2190</ele>
      </trkpt>
      <trkpt lat="19.005805" lon="-99.199512">
        <ele>2187</ele>
      </trkpt>
      <trkpt lat="19.005652" lon="-99.199368">
        <ele>2188</ele>
      </trkpt>
      <trkpt lat="19.00561" lon="-99.19932">
        <ele>2184</ele>
      </trkpt>
      <trkpt lat="19.00558" lon="-99.199263">
        <ele>2180</ele>
      </trkpt>
      <trkpt lat="19.005524" lon="-99.199212">
        <ele>2180</ele>
      </trkpt>
      <trkpt lat="19.005394" lon="-99.199172">
        <ele>2176</ele>
      </trkpt>
      <trkpt lat="19.005244" lon="-99.199173">
        <ele>2178</ele>
      </trkpt>
      <trkpt lat="19.005196" lon="-99.199151">
        <ele>2175</ele>
      </trkpt>
      <trkpt lat="19.005134" lon="-99.199145">
        <ele>2172</ele>
      </trkpt>
      <trkpt lat="19.004992" lon="-99.199165">
        <ele>2172</ele>
      </trkpt>
      <trkpt lat="19.004794" lon="-99.199375">
        <ele>2169</ele>
      </trkpt>
      <trkpt lat="19.004783" lon="-99.199448">
        <ele>2168</ele>
      </trkpt>
      <trkpt lat="19.004744" lon="-99.199459">
        <ele>2169</ele>
      </trkpt>
      <trkpt lat="19.004716" lon="-99.199479">
        <ele>2169</ele>
      </trkpt>
      <trkpt lat="19.004648" lon="-99.19957">
        <ele>2169</ele>
      </trkpt>
      <trkpt lat="19.004618" lon="-99.19963">
        <ele>2168</ele>
      </trkpt>
      <trkpt lat="19.004563" lon="-99.199678">
        <ele>2172</ele>
      </trkpt>
      <trkpt lat="19.004499" lon="-99.199693">
        <ele>2171</ele>
      </trkpt>
      <trkpt lat="19.004432" lon="-99.199747">
        <ele>2169</ele>
      </trkpt>
      <trkpt lat="19.00433" lon="-99.199903">
        <ele>2166</ele>
      </trkpt>
      <trkpt lat="19.004273" lon="-99.200036">
        <ele>2164</ele>
      </trkpt>
      <trkpt lat="19.004231" lon="-99.200083">
        <ele>2164</ele>
      </trkpt>
      <trkpt lat="19.004174" lon="-99.200097">
        <ele>2162</ele>
      </trkpt>
      <trkpt lat="19.003906" lon="-99.199991">
        <ele>2156</ele>
      </trkpt>
      <trkpt lat="19.003745" lon="-99.199955">
        <ele>2153</ele>
      </trkpt>
      <trkpt lat="19.003668" lon="-99.199927">
        <ele>2151</ele>
      </trkpt>
      <trkpt lat="19.003593" lon="-99.199848">
        <ele>2150</ele>
      </trkpt>
      <trkpt lat="19.003543" lon="-99.19974">
        <ele>2150</ele>
      </trkpt>
      <trkpt lat="19.003473" lon="-99.199645">
        <ele>2151</ele>
      </trkpt>
      <trkpt lat="19.003346" lon="-99.199554">
        <ele>2150</ele>
      </trkpt>
      <trkpt lat="19.003311" lon="-99.19954">
        <ele>2145</ele>
      </trkpt>
      <trkpt lat="19.003256" lon="-99.199433">
        <ele>2148</ele>
      </trkpt>
      <trkpt lat="19.003139" lon="-99.19927">
        <ele>2146</ele>
      </trkpt>
      <trkpt lat="19.00303" lon="-99.199168">
        <ele>2143</ele>
      </trkpt>
      <trkpt lat="19.002969" lon="-99.199132">
        <ele>2142</ele>
      </trkpt>
      <trkpt lat="19.002927" lon="-99.199078">
        <ele>2139</ele>
      </trkpt>
      <trkpt lat="19.00265" lon="-99.198919">
        <ele>2132</ele>
      </trkpt>
      <trkpt lat="19.002587" lon="-99.198899">
        <ele>2132</ele>
      </trkpt>
      <trkpt lat="19.00256" lon="-99.198876">
        <ele>2130</ele>
      </trkpt>
      <trkpt lat="19.00249" lon="-99.198781">
        <ele>2130</ele>
      </trkpt>
      <trkpt lat="19.00237" lon="-99.198708">
        <ele>2128</ele>
      </trkpt>
      <trkpt lat="19.002297" lon="-99.198626">
        <ele>2130</ele>
      </trkpt>
      <trkpt lat="19.002249" lon="-99.198592">
        <ele>2131.4</ele>
      </trkpt>
      <trkpt lat="19.002161" lon="-99.198501">
        <ele>2130</ele>
      </trkpt>
      <trkpt lat="19.002119" lon="-99.198409">
        <ele>2132</ele>
      </trkpt>
      <trkpt lat="19.002093" lon="-99.198387">
        <ele>2130</ele>
      </trkpt>
      <trkpt lat="19.001989" lon="-99.198352">
        <ele>2127</ele>
      </trkpt>
      <trkpt lat="19.001806" lon="-99.198321">
        <ele>2123.6</ele>
      </trkpt>
      <trkpt lat="19.00167" lon="-99.198263">
        <ele>2121</ele>
      </trkpt>
      <trkpt lat="19.001629" lon="-99.198199">
        <ele>2120</ele>
      </trkpt>
      <trkpt lat="19.001574" lon="-99.19815">
        <ele>2118</ele>
      </trkpt>
      <trkpt lat="19.001548" lon="-99.198111">
        <ele>2118</ele>
      </trkpt>
      <trkpt lat="19.001482" lon="-99.197947">
        <ele>2121</ele>
      </trkpt>
      <trkpt lat="19.001422" lon="-99.197909">
        <ele>2120</ele>
      </trkpt>
      <trkpt lat="19.001339" lon="-99.197889">
        <ele>2118</ele>
      </trkpt>
      <trkpt lat="19.001175" lon="-99.197876">
        <ele>2115</ele>
      </trkpt>
      <trkpt lat="19.001083" lon="-99.197849">
        <ele>2115</ele>
      </trkpt>
      <trkpt lat="19.001048" lon="-99.197851">
        <ele>2116</ele>
      </trkpt>
      <trkpt lat="19.000982" lon="-99.197803">
        <ele>2111</ele>
      </trkpt>
      <trkpt lat="19.000996" lon="-99.197758">
        <ele>2110</ele>
      </trkpt>
      <trkpt lat="19.000968" lon="-99.197659">
        <ele>2108</ele>
      </trkpt>
      <trkpt lat="19.000963" lon="-99.197367">
        <ele>2100.6</ele>
      </trkpt>
      <trkpt lat="19.000933" lon="-99.197255">
        <ele>2094</ele>
      </trkpt>
      <trkpt lat="19.000943" lon="-99.197187">
        <ele>2094</ele>
      </trkpt>
      <trkpt lat="19.000926" lon="-99.196996">
        <ele>2094</ele>
      </trkpt>
      <trkpt lat="19.000905" lon="-99.196921">
        <ele>2091</ele>
      </trkpt>
      <trkpt lat="19.000906" lon="-99.196732">
        <ele>2091</ele>
      </trkpt>
      <trkpt lat="19.000874" lon="-99.196676">
        <ele>2091</ele>
      </trkpt>
      <trkpt lat="19.000884" lon="-99.196476">
        <ele>2088</ele>
      </trkpt>
      <trkpt lat="19.000901" lon="-99.196441">
        <ele>2091</ele>
      </trkpt>
      <trkpt lat="19.000903" lon="-99.19639">
        <ele>2092</ele>
      </trkpt>
      <trkpt lat="19.000885" lon="-99.196347">
        <ele>2091.2</ele>
      </trkpt>
      <trkpt lat="19.000874" lon="-99.196244">
        <ele>2088</ele>
      </trkpt>
      <trkpt lat="19.000871" lon="-99.196132">
        <ele>2088</ele>
      </trkpt>
      <trkpt lat="19.000881" lon="-99.19605">
        <ele>2084</ele>
      </trkpt>
      <trkpt lat="19.000858" lon="-99.195945">
        <ele>2085</ele>
      </trkpt>
      <trkpt lat="19.000864" lon="-99.195868">
        <ele>2085</ele>
      </trkpt>
      <trkpt lat="19.00085" lon="-99.195678">
        <ele>2085</ele>
      </trkpt>
      <trkpt lat="19.00083" lon="-99.195616">
        <ele>2085</ele>
      </trkpt>
      <trkpt lat="19.000841" lon="-99.195543">
        <ele>2085</ele>
      </trkpt>
      <trkpt lat="19.000817" lon="-99.19547">
        <ele>2084</ele>
      </trkpt>
      <trkpt lat="19.000757" lon="-99.195501">
        <ele>2082</ele>
      </trkpt>
      <trkpt lat="19.000559" lon="-99.195509">
        <ele>2084</ele>
      </trkpt>
      <trkpt lat="19.000528" lon="-99.195532">
        <ele>2084</ele>
      </trkpt>
      <trkpt lat="19.000488" lon="-99.195628">
        <ele>2079</ele>
      </trkpt>
      <trkpt lat="19.000422" lon="-99.195659">
        <ele>2082</ele>
      </trkpt>
      <trkpt lat="19.000357" lon="-99.195705">
        <ele>2080</ele>
      </trkpt>
      <trkpt lat="19.000295" lon="-99.19572">
        <ele>2082</ele>
      </trkpt>
      <trkpt lat="19.000243" lon="-99.19576">
        <ele>2080</ele>
      </trkpt>
      <trkpt lat="19.000148" lon="-99.19574">
        <ele>2079</ele>
      </trkpt>
      <trkpt lat="19.000085" lon="-99.195864">
        <ele>2075</ele>
      </trkpt>
      <trkpt lat="19" lon="-99.195898">
        <ele>2078</ele>
      </trkpt>
      <trkpt lat="18.999986" lon="-99.195939">
        <ele>2078</ele>
      </trkpt>
      <trkpt lat="18.999929" lon="-99.196015">
        <ele>2075</ele>
      </trkpt>
      <trkpt lat="18.9999" lon="-99.196104">
        <ele>2072</ele>
      </trkpt>
      <trkpt lat="18.999821" lon="-99.196115">
        <ele>2072</ele>
      </trkpt>
      <trkpt lat="18.999844" lon="-99.196193">
        <ele>2072</ele>
      </trkpt>
      <trkpt lat="18.999822" lon="-99.196246">
        <ele>2073</ele>
      </trkpt>
      <trkpt lat="18.999851" lon="-99.196283">
        <ele>2074</ele>
      </trkpt>
      <trkpt lat="18.999865" lon="-99.196313">
        <ele>2072</ele>
      </trkpt>
      <trkpt lat="18.999863" lon="-99.196351">
        <ele>2073</ele>
      </trkpt>
      <trkpt lat="18.99991" lon="-99.19643">
        <ele>2076</ele>
      </trkpt>
      <trkpt lat="18.999914" lon="-99.196464">
        <ele>2075</ele>
      </trkpt>
      <trkpt lat="18.999895" lon="-99.196581">
        <ele>2076</ele>
      </trkpt>
      <trkpt lat="18.99983" lon="-99.196643">
        <ele>2078.7</ele>
      </trkpt>
      <trkpt lat="18.999781" lon="-99.196706">
        <ele>2076</ele>
      </trkpt>
      <trkpt lat="18.999724" lon="-99.196727">
        <ele>2076</ele>
      </trkpt>
      <trkpt lat="18.99969" lon="-99.196781">
        <ele>2070</ele>
      </trkpt>
      <trkpt lat="18.999635" lon="-99.196821">
        <ele>2072</ele>
      </trkpt>
      <trkpt lat="18.999602" lon="-99.196884">
        <ele>2071</ele>
      </trkpt>
      <trkpt lat="18.999573" lon="-99.196909">
        <ele>2070</ele>
      </trkpt>
      <trkpt lat="18.999519" lon="-99.19689">
        <ele>2069</ele>
      </trkpt>
      <trkpt lat="18.999371" lon="-99.197015">
        <ele>2070</ele>
      </trkpt>
      <trkpt lat="18.99934" lon="-99.197023">
        <ele>2069</ele>
      </trkpt>
      <trkpt lat="18.999301" lon="-99.197079">
        <ele>2070</ele>
      </trkpt>
      <trkpt lat="18.999287" lon="-99.197148">
        <ele>2070</ele>
      </trkpt>
      <trkpt lat="18.999272" lon="-99.197174">
        <ele>2070</ele>
      </trkpt>
      <trkpt lat="18.999237" lon="-99.197192">
        <ele>2070</ele>
      </trkpt>
      <trkpt lat="18.999183" lon="-99.197287">
        <ele>2070</ele>
      </trkpt>
      <trkpt lat="18.999159" lon="-99.197356">
        <ele>2070</ele>
      </trkpt>
      <trkpt lat="18.999143" lon="-99.197563">
        <ele>2070</ele>
      </trkpt>
      <trkpt lat="18.999094" lon="-99.197538">
        <ele>2067</ele>
      </trkpt>
      <trkpt lat="18.999064" lon="-99.197548">
        <ele>2065</ele>
      </trkpt>
      <trkpt lat="18.99898" lon="-99.19764">
        <ele>2066</ele>
      </trkpt>
      <trkpt lat="18.998899" lon="-99.197661">
        <ele>2067</ele>
      </trkpt>
      <trkpt lat="18.998831" lon="-99.197737">
        <ele>2067</ele>
      </trkpt>
      <trkpt lat="18.998799" lon="-99.197743">
        <ele>2064</ele>
      </trkpt>
      <trkpt lat="18.998765" lon="-99.197725">
        <ele>2064</ele>
      </trkpt>
      <trkpt lat="18.99862" lon="-99.19777">
        <ele>2061</ele>
      </trkpt>
      <trkpt lat="18.998599" lon="-99.197794">
        <ele>2061</ele>
      </trkpt>
      <trkpt lat="18.998515" lon="-99.19776">
        <ele>2058</ele>
      </trkpt>
      <trkpt lat="18.998465" lon="-99.197713">
        <ele>2055</ele>
      </trkpt>
      <trkpt lat="18.99838" lon="-99.197606">
        <ele>2051</ele>
      </trkpt>
      <trkpt lat="18.998292" lon="-99.197539">
        <ele>2051</ele>
      </trkpt>
      <trkpt lat="18.998235" lon="-99.197515">
        <ele>2050</ele>
      </trkpt>
      <trkpt lat="18.998178" lon="-99.197466">
        <ele>2045</ele>
      </trkpt>
      <trkpt lat="18.99814" lon="-99.197458">
        <ele>2046</ele>
      </trkpt>
      <trkpt lat="18.997967" lon="-99.197384">
        <ele>2043</ele>
      </trkpt>
      <trkpt lat="18.997905" lon="-99.197371">
        <ele>2041</ele>
      </trkpt>
      <trkpt lat="18.997837" lon="-99.197392">
        <ele>2042</ele>
      </trkpt>
      <trkpt lat="18.997763" lon="-99.197395">
        <ele>2041</ele>
      </trkpt>
      <trkpt lat="18.997742" lon="-99.197364">
        <ele>2040.5</ele>
      </trkpt>
      <trkpt lat="18.997693" lon="-99.197332">
        <ele>2040</ele>
      </trkpt>
      <trkpt lat="18.997663" lon="-99.197345">
        <ele>2036</ele>
      </trkpt>
      <trkpt lat="18.997624" lon="-99.197347">
        <ele>2037</ele>
      </trkpt>
      <trkpt lat="18.997532" lon="-99.19731">
        <ele>2037</ele>
      </trkpt>
      <trkpt lat="18.997449" lon="-99.197343">
        <ele>2032</ele>
      </trkpt>
      <trkpt lat="18.997435" lon="-99.197308">
        <ele>2034</ele>
      </trkpt>
      <trkpt lat="18.997388" lon="-99.197292">
        <ele>2034</ele>
      </trkpt>
      <trkpt lat="18.997341" lon="-99.197251">
        <ele>2034</ele>
      </trkpt>
      <trkpt lat="18.997252" lon="-99.197265">
        <ele>2028</ele>
      </trkpt>
      <trkpt lat="18.997206" lon="-99.197297">
        <ele>2031</ele>
      </trkpt>
      <trkpt lat="18.997171" lon="-99.197399">
        <ele>2028</ele>
      </trkpt>
      <trkpt lat="18.997124" lon="-99.197459">
        <ele>2028</ele>
      </trkpt>
      <trkpt lat="18.997078" lon="-99.197553">
        <ele>2029</ele>
      </trkpt>
      <trkpt lat="18.9969" lon="-99.197816">
        <ele>2028</ele>
      </trkpt>
      <trkpt lat="18.996821" lon="-99.197992">
        <ele>2028</ele>
      </trkpt>
      <trkpt lat="18.996788" lon="-99.198089">
        <ele>2028</ele>
      </trkpt>
      <trkpt lat="18.996633" lon="-99.19826">
        <ele>2028</ele>
      </trkpt>
      <trkpt lat="18.99664" lon="-99.198293">
        <ele>2028</ele>
      </trkpt>
      <trkpt lat="18.99661" lon="-99.198372">
        <ele>2028</ele>
      </trkpt>
      <trkpt lat="18.996638" lon="-99.198453">
        <ele>2024</ele>
      </trkpt>
      <trkpt lat="18.996673" lon="-99.198476">
        <ele>2024</ele>
      </trkpt>
      <trkpt lat="18.996636" lon="-99.198516">
        <ele>2025</ele>
      </trkpt>
      <trkpt lat="18.996673" lon="-99.198526">
        <ele>2025</ele>
      </trkpt>
      <trkpt lat="18.996693" lon="-99.19855">
        <ele>2024</ele>
      </trkpt>
      <trkpt lat="18.99671" lon="-99.198582">
        <ele>2025</ele>
      </trkpt>
      <trkpt lat="18.996714" lon="-99.198652">
        <ele>2028</ele>
      </trkpt>
      <trkpt lat="18.996765" lon="-99.198745">
        <ele>2031.1</ele>
      </trkpt>
    </trkseg>
  </trk>
</gpx>
